"","lon","lat","address","ZIP"
"1",-94.1718542,36.2989178,"rogers, ar 72758, usa","72758"
"2",-92.9775558,34.5166906,"hot springs national park, ar 71901, usa","71901"
"3",-94.0388918,36.1192532,"fayetteville, ar 72703, usa","72703"
"4",-90.7722974,35.8037083,"jonesboro, ar 72404, usa","72404"
"5",-93.2181477,33.262231,"magnolia, ar 71753, usa","71753"
"6",-94.3359635,35.4662541,"van buren, ar 72956, usa","72956"
"7",-91.3469247,33.6326542,"mcgehee, ar 71654, usa","71654"
"8",-91.7344155,35.2244528,"searcy, ar 72143, usa","72143"
"9",-92.9775558,34.5166906,"hot springs national park, ar 71901, usa","71901"
"10",-94.2128337,36.4704514,"bella vista, ar 72714, usa","72714"
"11",-91.7441475,36.21788,"horseshoe bend, ar 72512, usa","72512"
"12",-91.6566377,35.7948136,"batesville, ar 72501, usa","72501"
"13",-92.1176653,35.8684284,"mountain view, ar 72560, usa","72560"
"14",-92.7381672,35.1400607,"morrilton, ar 72110, usa","72110"
"15",-91.5789994,35.970208,"cave city, ar 72521, usa","72521"
"16",-92.7381672,35.1400607,"morrilton, ar 72110, usa","72110"
"17",-90.8675134,36.1296855,"walnut ridge, ar 72476, usa","72476"
"18",-92.2728877,35.5991375,"fairfield bay, ar 72088, usa","72088"
"19",-91.6178011,36.2304968,"ash flat, ar 72513, usa","72513"
"20",-90.8675134,35.2557006,"wynne, ar 72396, usa","72396"
"21",-92.0077316,35.4396562,"heber springs, ar 72543, usa","72543"
"22",-92.341887,36.283619,"mountain home, ar 72653, usa","72653"
"23",-91.8708613,33.9162518,"star city, ar 71667, usa","71667"
"24",-90.8675134,35.2557006,"wynne, ar 72396, usa","72396"
"25",-94.2128337,36.1675026,"springdale, ar 72762, usa","72762"
"26",-93.2784825,35.4995171,"lamar, ar 72846, usa","72846"
"27",-90.4879916,36.044855,"paragould, ar 72450, usa","72450"
"28",-91.4821482,33.4743692,"dermott, ar 71638, usa","71638"
"29",-92.8178291,33.5408717,"camden, ar 71701, usa","71701"
"30",-91.7538817,33.6946684,"monticello, ar 71655, usa","71655"
"31",-91.3276422,34.2794494,"dewitt, ar 72042, usa","72042"
"32",-90.2057108,36.4146125,"piggott, ar 72454, usa","72454"
"33",-93.8655303,34.048116,"nashville, ar 71852, usa","71852"
"34",-93.3792057,33.7950246,"prescott, ar 71857, usa","71857"
"35",-92.5792482,33.1872424,"el dorado, ar 71730, usa","71730"
"36",-92.3616203,35.0819701,"conway, ar 72032, usa","72032"
"37",-91.2506002,33.3872223,"lake village, ar 71653, usa","71653"
"38",-93.2181477,33.262231,"magnolia, ar 71753, usa","71753"
"39",-92.8178291,33.5408717,"camden, ar 71701, usa","71701"
"40",-92.027319,33.1074892,"crossett, ar 71635, usa","71635"
"41",-92.9975593,34.6268402,"hot springs village, ar 71909, usa","71909"
"42",-93.0576199,36.1807833,"harrison, ar 72601, usa","72601"
"43",-93.8858955,33.444928,"texarkana, ar 71854, usa","71854"
"44",-90.1963364,35.1377209,"west memphis, ar 72301, usa","72301"
"45",-92.0077316,35.4396562,"heber springs, ar 72543, usa","72543"
"46",-93.0576199,36.1807833,"harrison, ar 72601, usa","72601"
"47",-92.3542193,34.7486563,"little rock, ar 72205, usa","72205"
"48",-92.6090043,34.4918643,"benton, ar 72015, usa","72015"
"49",-92.1057549,33.6444761,"warren, ar 71671, usa","71671"
"50",-92.2482705,34.8030992,"north little rock, ar 72116, usa","72116"
"51",-91.6566377,35.7948136,"batesville, ar 72501, usa","72501"
"52",-92.8178291,33.5408717,"camden, ar 71701, usa","71701"
"53",-92.0469151,34.9555346,"cabot, ar 72023, usa","72023"
"54",-91.7344155,35.2244528,"searcy, ar 72143, usa","72143"
"55",-93.8858955,33.444928,"texarkana, ar 71854, usa","71854"
"56",-93.9674371,36.3058572,"rogers, ar 72756, usa","72756"
"57",-92.5792482,33.1872424,"el dorado, ar 71730, usa","71730"
"58",-93.0576199,34.0707911,"arkadelphia, ar 71923, usa","71923"
"59",-90.1963364,35.1377209,"west memphis, ar 72301, usa","72301"
"60",-92.4801989,36.3025131,"gassville, ar 72635, usa","72635"
"61",-90.7913227,34.9921836,"forrest city, ar 72335, usa","72335"
"62",-94.0388918,36.1192532,"fayetteville, ar 72703, usa","72703"
"63",-90.658333,34.4845915,"helena, ar 72342, usa","72342"
"64",-91.1736994,35.2531296,"mccrory, ar 72101, usa","72101"
"65",-94.1104449,33.6836358,"ashdown, ar 71822, usa","71822"
"66",-91.6178011,34.7854682,"hazen, ar 72064, usa","72064"
"67",-94.19234,34.5696431,"mena, ar 71953, usa","71953"
"68",-93.4902391,33.3109989,"stamps, ar 71860, usa","71860"
"69",-92.9775558,34.5166906,"hot springs national park, ar 71901, usa","71901"
"70",-91.5402327,34.9629855,"des arc, ar 72040, usa","72040"
"71",-91.7538817,33.6946684,"monticello, ar 71655, usa","71655"
"72",-93.8858955,33.444928,"texarkana, ar 71854, usa","71854"
"73",-93.7638256,36.3557077,"eureka springs, ar 72632, usa","72632"
"74",-92.9775558,34.5166906,"hot springs national park, ar 71901, usa","71901"
"75",-94.1104449,33.6836358,"ashdown, ar 71822, usa","71822"
"76",-92.3616203,35.0819701,"conway, ar 72032, usa","72032"
"77",-92.9175955,34.9378121,"perryville, ar 72126, usa","72126"
"78",-93.1428341,35.2785177,"russellville, ar 72801, usa","72801"
"79",-91.8708613,36.2918837,"salem, ar 72576, usa","72576"
"80",-92.341887,36.283619,"mountain home, ar 72653, usa","72653"
"81",-92.9775558,34.5166906,"hot springs national park, ar 71901, usa","71901"
"82",-92.4208713,34.351605,"sheridan, ar 72150, usa","72150"
"83",-92.3542193,34.7486563,"little rock, ar 72205, usa","72205"
"84",-93.6015207,34.5220817,"mt ida, ar 71957, usa","71957"
"85",-94.387352,35.4097046,"fort smith, ar 72904, usa","72904"
"86",-94.3359635,35.4662541,"van buren, ar 72956, usa","72956"
"87",-91.8708613,33.9162518,"star city, ar 71667, usa","71667"
"88",-92.8178291,34.3431454,"malvern, ar 72104, usa","72104"
"89",-92.5792482,33.1872424,"el dorado, ar 71730, usa","71730"
"90",-92.5792482,33.1872424,"el dorado, ar 71730, usa","71730"
"91",-92.086133,34.1132994,"pine bluff, ar 71603, usa","71603"
"92",-92.5197932,36.2149638,"flippin, ar 72634, usa","72634"
"93",-91.0203224,36.3021244,"pocahontas, ar 72455, usa","72455"
"94",-94.356513,34.031747,"de queen, ar 71832, usa","71832"
"95",-92.4159308,34.7446913,"little rock, ar 72211, usa","72211"
"96",-91.8903882,34.7815569,"lonoke, ar 72086, usa","72086"
"97",-93.1980527,35.150816,"dardanelle, ar 72834, usa","72834"
"98",-93.5679608,36.3647837,"berryville, ar 72616, usa","72616"
"99",-90.1869644,35.8714688,"manila, ar 72442, usa","72442"
"100",-93.682608,35.2688267,"paris, ar 72855, usa","72855"
"101",-93.9470396,35.1068343,"booneville, ar 72927, usa","72927"
"102",-94.1718542,36.2989178,"rogers, ar 72758, usa","72758"
"103",-91.5596117,34.5429228,"stuttgart, ar 72160, usa","72160"
"104",-91.8903882,35.0901983,"beebe, ar 72012, usa","72012"
"105",-92.4900943,34.6050315,"bryant, ar 72022, usa","72022"
"106",-93.3792057,33.7950246,"prescott, ar 71857, usa","71857"
"107",-92.086133,34.1132994,"pine bluff, ar 71603, usa","71603"
"108",-92.4703057,35.0468028,"conway, ar 72034, usa","72034"
"109",-92.086133,34.1132994,"pine bluff, ar 71603, usa","71603"
"110",-90.3183792,35.8929934,"monette, ar 72447, usa","72447"
"111",-92.4703057,35.0468028,"conway, ar 72034, usa","72034"
"112",-91.8903882,34.7815569,"lonoke, ar 72086, usa","72086"
"113",-90.4691097,35.8488961,"lake city, ar 72437, usa","72437"
"114",-91.6566377,35.7948136,"batesville, ar 72501, usa","72501"
"115",-91.7344155,34.739685,"carlisle, ar 72024, usa","72024"
"116",-90.658333,35.8916172,"jonesboro, ar 72401, usa","72401"
"117",-91.8903882,36.0527529,"melbourne, ar 72556, usa","72556"
"118",-91.1736994,35.6038564,"newport, ar 72112, usa","72112"
"119",-94.3359635,35.4662541,"van buren, ar 72956, usa","72956"
"120",-90.658333,35.8916172,"jonesboro, ar 72401, usa","72401"
"121",-90.563609,35.6082351,"trumann, ar 72472, usa","72472"
"122",-91.1736994,35.6038564,"newport, ar 72112, usa","72112"
"123",-93.6217802,33.6095043,"hope, ar 71801, usa","71801"
"124",-93.0776568,34.447771,"hot springs national park, ar 71913, usa","71913"
"125",-92.8776638,35.2466824,"atkins, ar 72823, usa","72823"
"126",-93.1428341,35.2785177,"russellville, ar 72801, usa","72801"
"127",-93.7029002,36.0758072,"huntsville, ar 72740, usa","72740"
"128",-93.8655303,34.048116,"nashville, ar 71852, usa","71852"
"129",-92.3542193,34.7486563,"little rock, ar 72205, usa","72205"
"130",-94.4130648,35.3704608,"fort smith, ar 72901, usa","72901"
"131",-94.028678,34.1318213,"dierks, ar 71833, usa","71833"
"132",-92.8178291,33.5408717,"camden, ar 71701, usa","71701"
"133",-93.0576199,34.0707911,"arkadelphia, ar 71923, usa","71923"
"134",-92.341887,36.283619,"mountain home, ar 72653, usa","72653"
"135",-91.6178011,36.2304968,"ash flat, ar 72513, usa","72513"
"136",-92.6785092,35.9072387,"marshall, ar 72650, usa","72650"
"137",-94.4079213,35.2994544,"fort smith, ar 72908, usa","72908"
"138",-94.4593791,36.1585967,"siloam springs, ar 72761, usa","72761"
"139",-92.1253854,34.777697,"north little rock, ar 72117, usa","72117"
"140",-94.19234,34.5696431,"mena, ar 71953, usa","71953"
"141",-92.2975183,34.7359274,"little rock, ar 72202, usa","72202"
"142",-94.2128337,36.3840171,"bentonville, ar 72712, usa","72712"
"143",-94.3667907,35.3447622,"fort smith, ar 72903, usa","72903"
"144",-94.3667907,35.3447622,"fort smith, ar 72903, usa","72903"
"145",-91.3276422,34.2794494,"dewitt, ar 72042, usa","72042"
"146",-89.9068219,35.9323808,"blytheville, ar 72316, usa","72316"
"147",-94.0491077,36.1731365,"springdale, ar 72764, usa","72764"
"148",-91.6566377,35.7948136,"batesville, ar 72501, usa","72501"
"149",-94.2128337,35.4706032,"alma, ar 72921, usa","72921"
"150",-94.0491077,36.1731365,"springdale, ar 72764, usa","72764"
"151",-92.1253854,34.29047,"white hall, ar 71602, usa","71602"
"152",-94.2128337,36.3840171,"bentonville, ar 72712, usa","72712"
"153",-92.3320235,34.8511873,"north little rock, ar 72118, usa","72118"
"154",-92.2531929,34.918834,"sherwood, ar 72120, usa","72120"
"155",-92.1057549,33.9124759,"rison, ar 71665, usa","71665"
"156",-92.110378,34.8662018,"jacksonville, ar 72076, usa","72076"
"157",-92.086133,34.1132994,"pine bluff, ar 71603, usa","71603"
"158",-90.658333,35.8916172,"jonesboro, ar 72401, usa","72401"
"159",-92.341887,35.2362331,"greenbrier, ar 72058, usa","72058"
"160",-93.6217802,33.6095043,"hope, ar 71801, usa","71801"
"161",-94.1104449,34.925451,"waldron, ar 72958, usa","72958"
"162",-90.7152749,35.5198899,"harrisburg, ar 72432, usa","72432"
"163",-92.2581158,34.7587524,"north little rock, ar 72114, usa","72114"
"164",-93.8248241,35.5927966,"ozark, ar 72949, usa","72949"
"165",-92.3542193,34.7486563,"little rock, ar 72205, usa","72205"
"166",-92.4159308,34.7778204,"little rock, ar 72212, usa","72212"
"167",-90.4313729,35.5431285,"marked tree, ar 72365, usa","72365"
"168",-92.0469151,34.9555346,"cabot, ar 72023, usa","72023"
"169",-92.8178291,34.3431454,"malvern, ar 72104, usa","72104"
"170",-90.2807868,36.2844469,"rector, ar 72461, usa","72461"
"171",-92.4999918,33.9051356,"fordyce, ar 71742, usa","71742"
"172",-94.0388918,36.1192532,"fayetteville, ar 72703, usa","72703"
"173",-92.6090043,34.4918643,"benton, ar 72015, usa","72015"
"174",-92.3542193,34.7486563,"little rock, ar 72205, usa","72205"
"175",-92.2630393,36.1115261,"calico rock, ar 72519, usa","72519"
"176",-94.3051542,36.4779621,"bella vista, ar 72715, usa","72715"
"177",-93.4397386,34.3938346,"glenwood, ar 71943, usa","71943"
"178",-92.9775558,34.5166906,"hot springs national park, ar 71901, usa","71901"
"179",-92.341887,36.283619,"mountain home, ar 72653, usa","72653"
"180",-94.2128337,36.1675026,"springdale, ar 72762, usa","72762"
"181",-92.6090043,34.4918643,"benton, ar 72015, usa","72015"
"182",-94.3359635,35.9460068,"prairie grove, ar 72753, usa","72753"
"183",-93.1428341,35.2785177,"russellville, ar 72801, usa","72801"
"184",-93.5205641,33.0968699,"taylor, ar 71861, usa","71861"
"185",-90.2432307,35.1926203,"marion, ar 72364, usa","72364"
"186",-94.3667907,35.3447622,"fort smith, ar 72903, usa","72903"
"187",-92.5197932,35.6051787,"clinton, ar 72031, usa","72031"
"188",-93.7029002,34.1420464,"murfreesboro, ar 71958, usa","71958"
"189",-92.5792482,33.1872424,"el dorado, ar 71730, usa","71730"
"190",-94.0388918,36.1192532,"fayetteville, ar 72703, usa","72703"
"191",-91.6566377,35.3133777,"judsonia, ar 72081, usa","72081"
"192",-94.3000211,35.3307196,"barling, ar 72923, usa","72923"
"193",-93.9674371,36.3058572,"rogers, ar 72756, usa","72756"
"194",-92.4011124,34.8608793,"maumelle, ar 72113, usa","72113"
"195",-90.4879916,36.044855,"paragould, ar 72450, usa","72450"
"196",-92.2240576,34.7076942,"college station, ar 72053, usa","72053"
"197",-94.0491077,36.1731365,"springdale, ar 72764, usa","72764"
"198",-94.0491077,36.1731365,"springdale, ar 72764, usa","72764"
"199",-91.1929114,34.8345178,"brinkley, ar 72021, usa","72021"
"200",-92.4801989,34.7710126,"little rock, ar 72223, usa","72223"
"201",-92.3714901,34.7179437,"little rock, ar 72204, usa","72204"
"202",-90.5446912,36.4135521,"corning, ar 72422, usa","72422"
"203",-94.3359635,36.1197444,"fayetteville, ar 72704, usa","72704"
"204",-94.1718542,36.2989178,"rogers, ar 72758, usa","72758"
"205",-92.3542193,34.7486563,"little rock, ar 72205, usa","72205"
"206",-92.027319,33.1074892,"crossett, ar 71635, usa","71635"
"207",-92.086133,34.1132994,"pine bluff, ar 71603, usa","71603"
"208",-89.9066314,35.8933774,"blytheville, ar 72315, usa","72315"
"209",-90.0373201,35.6969927,"osceola, ar 72370, usa","72370"
"210",-93.0576199,36.1807833,"harrison, ar 72601, usa","72601"
"211",-91.949021,34.5373524,"england, ar 72046, usa","72046"
"212",-91.0203224,36.3021244,"pocahontas, ar 72455, usa","72455"
"213",-93.0776568,34.447771,"hot springs national park, ar 71913, usa","71913"
"214",-92.2433487,34.6429822,"little rock, ar 72206, usa","72206"
"215",-94.0082563,35.3461957,"charleston, ar 72933, usa","72933"
"216",-93.1478514,35.0311748,"ola, ar 72853, usa","72853"
"217",-90.7152749,34.727786,"marianna, ar 72360, usa","72360"
"218",-92.3542193,34.7486563,"little rock, ar 72205, usa","72205"
"219",-92.7381672,36.2752334,"yellville, ar 72687, usa","72687"
"220",-90.8675134,36.1296855,"walnut ridge, ar 72476, usa","72476"
"221",-92.0469151,34.9555346,"cabot, ar 72023, usa","72023"
"222",-93.4801349,35.0111286,"danville, ar 72833, usa","72833"
"223",-92.4801989,34.7710126,"little rock, ar 72223, usa","72223"
"224",-94.2128337,35.2077035,"greenwood, ar 72936, usa","72936"
"225",-92.4900943,34.6050315,"bryant, ar 72022, usa","72022"
"226",-90.7722974,35.8037083,"jonesboro, ar 72404, usa","72404"
"227",-92.6090043,34.4918643,"benton, ar 72015, usa","72015"
"228",-93.238251,35.9805462,"jasper, ar 72641, usa","72641"
"229",-92.8178291,34.3431454,"malvern, ar 72104, usa","72104"
"230",-104.8629746,39.7393313,"aurora, co 80010, usa","80010"
"231",-104.9564084,39.7271021,"denver, co 80206, usa","80206"
"232",-105.1083542,39.7775841,"wheat ridge, co 80033, usa","80033"
"233",-104.9330448,39.6696322,"denver, co 80222, usa","80222"
"234",-105.2838511,40.0454736,"boulder, co 80304, usa","80304"
"235",-105.0148322,39.6487896,"englewood, co 80110, usa","80110"
"236",-104.7695962,38.8064287,"colorado springs, co 80910, usa","80910"
"237",-105.0849687,39.7101457,"denver, co 80226, usa","80226"
"238",-104.6821048,40.4398216,"greeley, co 80631, usa","80631"
"239",-105.0849687,39.7101457,"denver, co 80226, usa","80226"
"240",-104.6821048,38.040147,"pueblo, co 81004, usa","81004"
"241",-104.9447261,39.8998278,"denver, co 80233, usa","80233"
"242",-108.5581899,39.159591,"grand junction, co 81506, usa","81506"
"243",-104.7812654,38.8560908,"colorado springs, co 80909, usa","80909"
"244",-107.71625,38.4948194,"montrose, co 81401, usa","81401"
"245",-105.0352855,39.8300502,"westminster, co 80030, usa","80030"
"246",-104.5422225,38.3060189,"pueblo, co 81001, usa","81001"
"247",-104.9330448,39.6696322,"denver, co 80222, usa","80222"
"248",-105.2428853,40.4853645,"loveland, co 80538, usa","80538"
"249",-105.1960795,40.372134,"loveland, co 80537, usa","80537"
"250",-105.044052,40.5417839,"fort collins, co 80525, usa","80525"
"251",-106.8178377,38.5084518,"gunnison, co 81230, usa","81230"
"252",-104.8279512,39.6631609,"aurora, co 80014, usa","80014"
"253",-104.8804893,38.7665005,"colorado springs, co 80906, usa","80906"
"254",-103.2201828,40.6391761,"sterling, co 80751, usa","80751"
"255",-104.8746508,38.8644663,"colorado springs, co 80904, usa","80904"
"256",-108.7600963,37.3437874,"cortez, co 81321, usa","81321"
"257",-103.5899733,40.1951544,"brush, co 80723, usa","80723"
"258",-105.1960795,40.372134,"loveland, co 80537, usa","80537"
"259",-105.0089888,40.6358803,"fort collins, co 80524, usa","80524"
"260",-104.7695962,38.8064287,"colorado springs, co 80910, usa","80910"
"261",-104.5422225,38.3060189,"pueblo, co 81001, usa","81001"
"262",-103.5899733,40.1951544,"brush, co 80723, usa","80723"
"263",-105.0674317,39.7376702,"denver, co 80214, usa","80214"
"264",-104.7695962,38.8064287,"colorado springs, co 80910, usa","80910"
"265",-103.2201828,40.6391761,"sterling, co 80751, usa","80751"
"266",-104.8512993,38.8163486,"colorado springs, co 80905, usa","80905"
"267",-104.8629746,39.7393313,"aurora, co 80010, usa","80010"
"268",-105.3131185,38.5558236,"cañon city, co 81212, usa","81212"
"269",-103.8216261,40.0466571,"fort morgan, co 80701, usa","80701"
"270",-105.3131185,38.5558236,"cañon city, co 81212, usa","81212"
"271",-105.6412527,40.4111363,"estes park, co 80517, usa","80517"
"272",-103.2663479,38.9744715,"hugo, co 80821, usa","80821"
"273",-105.2077798,39.5979553,"morrison, co 80465, usa","80465"
"274",-105.1142011,40.1733277,"longmont, co 80501, usa","80501"
"275",-105.0411298,39.6478446,"denver, co 80236, usa","80236"
"276",-105.0089888,40.6358803,"fort collins, co 80524, usa","80524"
"277",-104.9564084,39.8580556,"denver, co 80229, usa","80229"
"278",-107.71625,38.4948194,"montrose, co 81401, usa","81401"
"279",-104.9447261,39.8998278,"denver, co 80233, usa","80233"
"280",-104.8746508,38.8644663,"colorado springs, co 80904, usa","80904"
"281",-105.0674317,39.7376702,"denver, co 80214, usa","80214"
"282",-105.0031457,39.5897283,"littleton, co 80120, usa","80120"
"283",-104.9330448,39.6696322,"denver, co 80222, usa","80222"
"284",-105.0148322,39.6487896,"englewood, co 80110, usa","80110"
"285",-105.0674317,39.7376702,"denver, co 80214, usa","80214"
"286",-104.6821048,40.4398216,"greeley, co 80631, usa","80631"
"287",-104.7871004,40.3962637,"greeley, co 80634, usa","80634"
"288",-104.9710123,39.732746,"denver, co 80218, usa","80218"
"289",-103.4974258,37.9143802,"la junta, co 81050, usa","81050"
"290",-105.3131185,38.5558236,"cañon city, co 81212, usa","81212"
"291",-104.7871004,40.3962637,"greeley, co 80634, usa","80634"
"292",-106.2051484,38.5560641,"salida, co 81201, usa","81201"
"293",-105.044052,40.5417839,"fort collins, co 80525, usa","80525"
"294",-105.2077798,40.0005378,"boulder, co 80303, usa","80303"
"295",-104.9096846,39.6928764,"denver, co 80224, usa","80224"
"296",-104.8104424,38.8778926,"colorado springs, co 80907, usa","80907"
"297",-105.1142011,40.1733277,"longmont, co 80501, usa","80501"
"298",-105.044052,40.5417839,"fort collins, co 80525, usa","80525"
"299",-108.308934,39.0694158,"palisade, co 81526, usa","81526"
"300",-104.6821048,38.040147,"pueblo, co 81004, usa","81004"
"301",-104.9330448,39.6696322,"denver, co 80222, usa","80222"
"302",-104.5422225,38.3060189,"pueblo, co 81001, usa","81001"
"303",-104.6821048,38.040147,"pueblo, co 81004, usa","81004"
"304",-105.0411298,39.6478446,"denver, co 80236, usa","80236"
"305",-105.8290298,37.4526296,"alamosa, co 81101, usa","81101"
"306",-103.7752634,37.9649275,"rocky ford, co 81067, usa","81067"
"307",-104.6821048,38.040147,"pueblo, co 81004, usa","81004"
"308",-107.2429976,39.2165648,"carbondale, co 81623, usa","81623"
"309",-104.9739333,39.9311729,"thornton, co 80241, usa","80241"
"310",-105.8290298,37.4526296,"alamosa, co 81101, usa","81101"
"311",-104.8104424,39.9726732,"brighton, co 80601, usa","80601"
"312",-104.9096846,39.6928764,"denver, co 80224, usa","80224"
"313",-104.9330448,39.6696322,"denver, co 80222, usa","80222"
"314",-107.811,37.4951422,"durango, co 81301, usa","81301"
"315",-107.3375791,39.6044937,"glenwood springs, co 81601, usa","81601"
"316",-105.1375908,40.5293254,"fort collins, co 80526, usa","80526"
"317",-104.7695962,38.8064287,"colorado springs, co 80910, usa","80910"
"318",-104.8104424,38.8778926,"colorado springs, co 80907, usa","80907"
"319",-105.0849687,39.7101457,"denver, co 80226, usa","80226"
"320",-108.1903059,38.7450038,"delta, co 81416, usa","81416"
"321",-105.3131185,38.5558236,"cañon city, co 81212, usa","81212"
"322",-107.5505152,38.9065418,"paonia, co 81428, usa","81428"
"323",-104.7345937,38.8825531,"colorado springs, co 80917, usa","80917"
"324",-108.5522531,39.075059,"grand junction, co 81501, usa","81501"
"325",-104.7812654,38.8560908,"colorado springs, co 80909, usa","80909"
"326",-104.9564084,39.7271021,"denver, co 80206, usa","80206"
"327",-104.9330448,39.6696322,"denver, co 80222, usa","80222"
"328",-105.0089888,40.6358803,"fort collins, co 80524, usa","80524"
"329",-107.9625837,38.8426336,"eckert, co 81418, usa","81418"
"330",-104.9505671,39.6117926,"littleton, co 80121, usa","80121"
"331",-102.6675575,40.1402047,"yuma, co 80759, usa","80759"
"332",-107.763621,39.9777424,"meeker, co 81641, usa","81641"
"333",-105.1025075,40.3048178,"berthoud, co 80513, usa","80513"
"334",-104.8396248,39.7020217,"aurora, co 80012, usa","80012"
"335",-105.2077798,40.0406506,"boulder, co 80301, usa","80301"
"336",-104.798771,38.1700879,"pueblo, co 81005, usa","81005"
"337",-104.6296338,38.2897949,"pueblo, co 81003, usa","81003"
"338",-105.0674317,39.7376702,"denver, co 80214, usa","80214"
"339",-105.1083542,39.7775841,"wheat ridge, co 80033, usa","80033"
"340",-105.0382076,39.6961606,"denver, co 80219, usa","80219"
"341",-105.4302383,39.6184866,"evergreen, co 80439, usa","80439"
"342",-104.9155243,40.4891031,"windsor, co 80550, usa","80550"
"343",-105.1142011,40.1733277,"longmont, co 80501, usa","80501"
"344",-104.7754307,39.866593,"commerce city, co 80022, usa","80022"
"345",-102.1632718,39.260229,"burlington, co 80807, usa","80807"
"346",-104.8688126,39.4504837,"castle rock, co 80108, usa","80108"
"347",-108.5522531,39.075059,"grand junction, co 81501, usa","81501"
"348",-104.9096846,39.6928764,"denver, co 80224, usa","80224"
"349",-106.1110501,37.5799518,"monte vista, co 81144, usa","81144"
"350",-105.1083542,39.7775841,"wheat ridge, co 80033, usa","80033"
"351",-102.6675575,37.924499,"lamar, co 81052, usa","81052"
"352",-105.0674317,39.7376702,"denver, co 80214, usa","80214"
"353",-105.0674317,39.7376702,"denver, co 80214, usa","80214"
"354",-105.0674317,39.7376702,"denver, co 80214, usa","80214"
"355",-105.0382076,39.6961606,"denver, co 80219, usa","80219"
"356",-102.3463875,40.5371334,"holyoke, co 80734, usa","80734"
"357",-104.7812654,39.6288155,"aurora, co 80015, usa","80015"
"358",-104.9622498,39.0317375,"colorado springs, co 80921, usa","80921"
"359",-108.3801314,37.3227329,"mancos, co 81328, usa","81328"
"360",-108.5581899,39.159591,"grand junction, co 81506, usa","81506"
"361",-105.0674317,39.7376702,"denver, co 80214, usa","80214"
"362",-103.2663479,40.1125543,"akron, co 80720, usa","80720"
"363",-104.9826965,39.7312095,"denver, co 80203, usa","80203"
"364",-103.7752634,38.4621184,"ordway, co 81063, usa","81063"
"365",-102.1632718,40.0738166,"wray, co 80758, usa","80758"
"366",-104.7754307,39.866593,"commerce city, co 80022, usa","80022"
"367",-105.0674317,39.6166037,"littleton, co 80123, usa","80123"
"368",-105.0674317,39.8182494,"arvada, co 80003, usa","80003"
"369",-104.9680914,39.6448429,"englewood, co 80113, usa","80113"
"370",-104.9680914,39.7558119,"denver, co 80205, usa","80205"
"371",-105.2077798,40.0005378,"boulder, co 80303, usa","80303"
"372",-104.8804893,38.9301358,"colorado springs, co 80919, usa","80919"
"373",-105.0148322,39.7698122,"denver, co 80211, usa","80211"
"374",-105.1142011,40.1733277,"longmont, co 80501, usa","80501"
"375",-105.1200482,39.8163023,"arvada, co 80004, usa","80004"
"376",-108.5581899,39.159591,"grand junction, co 81506, usa","81506"
"377",-104.8279512,39.6631609,"aurora, co 80014, usa","80014"
"378",-105.1492869,38.7620103,"cripple creek, co 80813, usa","80813"
"379",-104.7871004,39.7542465,"aurora, co 80011, usa","80011"
"380",-106.8178377,40.5989331,"steamboat springs, co 80487, usa","80487"
"381",-104.9330448,39.6696322,"denver, co 80222, usa","80222"
"382",-104.9564084,39.5756558,"littleton, co 80122, usa","80122"
"383",-105.3131185,38.5558236,"cañon city, co 81212, usa","81212"
"384",-102.1175404,37.9831079,"holly, co 81047, usa","81047"
"385",-108.1903059,38.4200117,"olathe, co 81425, usa","81425"
"386",-104.6821048,38.040147,"pueblo, co 81004, usa","81004"
"387",-104.7695962,38.8064287,"colorado springs, co 80910, usa","80910"
"388",-105.0352855,39.8300502,"westminster, co 80030, usa","80030"
"389",-103.2663479,37.8159522,"las animas, co 81054, usa","81054"
"390",-104.053676,37.9314796,"fowler, co 81039, usa","81039"
"391",-104.8221147,39.2942344,"castle rock, co 80104, usa","80104"
"392",-104.8863279,39.665649,"denver, co 80231, usa","80231"
"393",-107.0067031,37.1604318,"pagosa springs, co 81147, usa","81147"
"394",-105.1142011,39.892517,"broomfield, co 80021, usa","80021"
"395",-104.7871004,40.3962637,"greeley, co 80634, usa","80634"
"396",-105.0031457,39.5897283,"littleton, co 80120, usa","80120"
"397",-104.8746508,38.8644663,"colorado springs, co 80904, usa","80904"
"398",-105.1609838,39.6849237,"denver, co 80228, usa","80228"
"399",-104.8746508,39.6166715,"englewood, co 80111, usa","80111"
"400",-105.1375908,40.5293254,"fort collins, co 80526, usa","80526"
"401",-104.8104424,39.9726732,"brighton, co 80601, usa","80601"
"402",-105.0674317,39.9389199,"broomfield, co 80020, usa","80020"
"403",-104.8367063,39.7503186,"aurora, co 80045, usa","80045"
"404",-108.3326648,39.8864774,"rifle, co 81650, usa","81650"
"405",-104.8746508,38.8644663,"colorado springs, co 80904, usa","80904"
"406",-104.9564084,39.8580556,"denver, co 80229, usa","80229"
"407",-107.763621,40.7685941,"craig, co 81625, usa","81625"
"408",-108.3326648,39.8864774,"rifle, co 81650, usa","81650"
"409",-104.9213643,39.7619439,"denver, co 80207, usa","80207"
"410",-104.8279512,39.6631609,"aurora, co 80014, usa","80014"
"411",-104.8104424,38.8778926,"colorado springs, co 80907, usa","80907"
"412",-106.1110501,37.5799518,"monte vista, co 81144, usa","81144"
"413",-104.8746508,39.6974551,"denver, co 80247, usa","80247"
"414",-104.8396248,39.7020217,"aurora, co 80012, usa","80012"
"415",-105.0089888,38.3286311,"florence, co 81226, usa","81226"
"416",-104.9505671,39.6117926,"littleton, co 80121, usa","80121"
"417",-104.5655273,37.1583021,"trinidad, co 81082, usa","81082"
"418",-104.7871004,40.3962637,"greeley, co 80634, usa","80634"
"419",-104.9505671,39.5511448,"littleton, co 80126, usa","80126"
"420",-106.0875326,37.3128275,"la jara, co 81140, usa","81140"
"421",-105.096661,39.6682515,"denver, co 80227, usa","80227"
"422",-104.7754307,39.4626087,"parker, co 80134, usa","80134"
"423",-105.1492869,39.5350229,"littleton, co 80127, usa","80127"
"424",-104.7754307,39.4626087,"parker, co 80134, usa","80134"
"425",-105.0265195,39.7380371,"denver, co 80204, usa","80204"
"426",-104.670443,39.5267931,"parker, co 80138, usa","80138"
"427",-105.1200482,39.8163023,"arvada, co 80004, usa","80004"
"428",-104.7695962,38.8064287,"colorado springs, co 80910, usa","80910"
"429",-105.1083542,39.747363,"denver, co 80215, usa","80215"
"430",-105.0148322,39.5477566,"littleton, co 80129, usa","80129"
"431",-104.9155243,40.4891031,"windsor, co 80550, usa","80550"
"432",-107.811,37.4951422,"durango, co 81301, usa","81301"
"433",-108.8313832,39.1444759,"fruita, co 81521, usa","81521"
"434",-105.0148322,39.7698122,"denver, co 80211, usa","80211"
"435",-104.0769024,39.2255329,"simla, co 80835, usa","80835"
"436",-105.0352855,39.8300502,"westminster, co 80030, usa","80030"
"437",-102.1632718,40.8765649,"julesburg, co 80737, usa","80737"
"438",-102.1632718,37.4334472,"walsh, co 81090, usa","81090"
"439",-102.7135121,37.5429023,"springfield, co 81073, usa","81073"
"440",-104.7520939,37.6365381,"walsenburg, co 81089, usa","81089"
"441",-102.4839212,38.8564154,"cheyenne wells, co 80810, usa","80810"
"442",-104.8804893,38.7665005,"colorado springs, co 80906, usa","80906"
"443",-104.7812654,38.8560908,"colorado springs, co 80909, usa","80909"
"444",-116.5627065,48.7987617,"bonners ferry, id 83805, usa","83805"
"445",-115.6912313,43.1327549,"mountain home, id 83647, usa","83647"
"446",-112.6193088,43.3843255,"blackfoot, id 83221, usa","83221"
"447",-116.937518,44.3591675,"weiser, id 83672, usa","83672"
"448",-112.3540741,42.8945981,"pocatello, id 83201, usa","83201"
"449",-116.6462445,43.6686454,"caldwell, id 83605, usa","83605"
"450",-116.7836121,44.0830452,"payette, id 83661, usa","83661"
"451",-112.3540741,42.8945981,"pocatello, id 83201, usa","83201"
"452",-116.6132313,43.5896264,"nampa, id 83651, usa","83651"
"453",-116.4956539,43.920401,"emmett, id 83617, usa","83617"
"454",-116.9025302,46.2035088,"lewiston, id 83501, usa","83501"
"455",-116.1933302,43.5921208,"boise, id 83706, usa","83706"
"456",-116.7076758,47.6719353,"coeur d'alene, id 83814, usa","83814"
"457",-116.1135132,46.5030217,"orofino, id 83544, usa","83544"
"458",-116.6462445,43.6686454,"caldwell, id 83605, usa","83605"
"459",-116.7076758,47.6719353,"coeur d'alene, id 83814, usa","83814"
"460",-116.7076758,47.6719353,"coeur d'alene, id 83814, usa","83814"
"461",-116.5300267,48.4193918,"sandpoint, id 83864, usa","83864"
"462",-114.4397311,43.0265357,"shoshone, id 83352, usa","83352"
"463",-115.9641404,47.5124768,"silverton, id 83867, usa","83867"
"464",-111.7137694,42.1818053,"preston, id 83263, usa","83263"
"465",-111.5229817,42.7447764,"soda springs, id 83276, usa","83276"
"466",-112.4768287,42.178238,"malad city, id 83252, usa","83252"
"467",-113.6420148,42.7154057,"rupert, id 83350, usa","83350"
"468",-116.0899308,47.5291914,"kellogg, id 83837, usa","83837"
"469",-112.9594674,42.7127019,"american falls, id 83211, usa","83211"
"470",-116.9667226,46.7251492,"moscow, id 83843, usa","83843"
"471",-113.8108805,42.4176973,"burley, id 83318, usa","83318"
"472",-114.2559471,43.6006653,"hailey, id 83333, usa","83333"
"473",-111.2976263,42.3220004,"montpelier, id 83254, usa","83254"
"474",-112.3540741,42.8945981,"pocatello, id 83201, usa","83201"
"475",-116.5622428,47.2237308,"st maries, id 83861, usa","83861"
"476",-116.6132313,43.5896264,"nampa, id 83651, usa","83651"
"477",-116.2249298,43.5698551,"boise, id 83705, usa","83705"
"478",-116.2863998,43.6320897,"boise, id 83704, usa","83704"
"479",-116.1006931,45.8917511,"grangeville, id 83530, usa","83530"
"480",-113.8108805,42.4176973,"burley, id 83318, usa","83318"
"481",-115.8980516,45.0942822,"mccall, id 83638, usa","83638"
"482",-114.3719342,42.3485223,"kimberly, id 83341, usa","83341"
"483",-116.242429,43.6574505,"boise, id 83703, usa","83703"
"484",-116.9424389,43.5939397,"homedale, id 83628, usa","83628"
"485",-114.8849907,42.6233721,"buhl, id 83316, usa","83316"
"486",-116.1170738,43.6156568,"boise, id 83712, usa","83712"
"487",-111.9044611,43.4265851,"idaho falls, id 83406, usa","83406"
"488",-111.8804601,43.5541523,"idaho falls, id 83401, usa","83401"
"489",-116.9667226,46.7251492,"moscow, id 83843, usa","83843"
"490",-116.589439,43.4891372,"nampa, id 83686, usa","83686"
"491",-116.4956539,43.920401,"emmett, id 83617, usa","83617"
"492",-111.3748003,44.0915679,"ashton, id 83420, usa","83420"
"493",-116.2863998,43.6320897,"boise, id 83704, usa","83704"
"494",-116.589439,43.4891372,"nampa, id 83686, usa","83686"
"495",-116.9025302,46.2035088,"lewiston, id 83501, usa","83501"
"496",-114.5613507,42.3986045,"twin falls, id 83301, usa","83301"
"497",-111.8807426,43.8006736,"rexburg, id 83440, usa","83440"
"498",-114.5613507,42.3986045,"twin falls, id 83301, usa","83301"
"499",-116.6132313,43.5896264,"nampa, id 83651, usa","83651"
"500",-112.6193088,43.3843255,"blackfoot, id 83221, usa","83221"
"501",-114.5613507,42.3986045,"twin falls, id 83301, usa","83301"
"502",-116.1630431,43.6624385,"boise, id 83702, usa","83702"
"503",-112.026147,43.49428,"idaho falls, id 83403, usa","83403"
"504",-116.9025302,46.2035088,"lewiston, id 83501, usa","83501"
"505",-116.1933302,43.5921208,"boise, id 83706, usa","83706"
"506",-116.781196,47.7276369,"coeur d'alene, id 83815, usa","83815"
"507",-116.2863998,43.6320897,"boise, id 83704, usa","83704"
"508",-116.4034565,43.5644359,"meridian, id 83642, usa","83642"
"509",-116.5300267,48.4193918,"sandpoint, id 83864, usa","83864"
"510",-116.9025302,46.2035088,"lewiston, id 83501, usa","83501"
"511",-113.9660111,44.9479845,"salmon, id 83467, usa","83467"
"512",-116.4034565,43.5644359,"meridian, id 83642, usa","83642"
"513",-116.2173488,43.6136643,"boise, id 83707, usa","83707"
"514",-112.3540741,42.8945981,"pocatello, id 83201, usa","83201"
"515",-116.9025302,46.2035088,"lewiston, id 83501, usa","83501"
"516",-114.729906,42.9603186,"gooding, id 83330, usa","83330"
"517",-116.9745742,47.7318837,"post falls, id 83854, usa","83854"
"518",-112.4332314,42.9904057,"pocatello, id 83202, usa","83202"
"519",-111.9044611,43.4265851,"idaho falls, id 83406, usa","83406"
"520",-112.0143728,43.4233213,"idaho falls, id 83404, usa","83404"
"521",-116.1933302,43.5921208,"boise, id 83706, usa","83706"
"522",-93.6775362,41.5774667,"des moines, ia 50312, usa","50312"
"523",-91.6663523,42.0166364,"cedar rapids, ia 52402, usa","52402"
"524",-92.6586401,43.0275603,"charles city, ia 50616, usa","50616"
"525",-91.5015009,41.6113703,"iowa city, ia 52240, usa","52240"
"526",-90.5588787,41.5349127,"davenport, ia 52803, usa","52803"
"527",-92.3616203,42.4285686,"waterloo, ia 50701, usa","50701"
"528",-91.5886966,41.9781094,"cedar rapids, ia 52403, usa","52403"
"529",-90.6204165,41.5795478,"davenport, ia 52806, usa","52806"
"530",-93.2181477,43.1683261,"mason city, ia 50401, usa","50401"
"531",-92.3172324,42.4638414,"waterloo, ia 50702, usa","50702"
"532",-94.7484518,42.2760969,"lake city, ia 51449, usa","51449"
"533",-90.6962853,42.5292381,"dubuque, ia 52001, usa","52001"
"534",-91.2217459,40.8410731,"west burlington, ia 52655, usa","52655"
"535",-90.6962853,42.5292381,"dubuque, ia 52001, usa","52001"
"536",-93.8156689,41.8779511,"madrid, ia 50156, usa","50156"
"537",-90.2620042,41.8796431,"clinton, ia 52732, usa","52732"
"538",-93.596457,41.6099344,"des moines, ia 50316, usa","50316"
"539",-91.5015009,42.7173515,"strawberry point, ia 52076, usa","52076"
"540",-91.5015009,41.6113703,"iowa city, ia 52240, usa","52240"
"541",-96.3013432,42.3976322,"sergeant bluff, ia 51054, usa","51054"
"542",-90.5163312,41.6100065,"davenport, ia 52807, usa","52807"
"543",-91.5596117,40.9885488,"mt pleasant, ia 52641, usa","52641"
"544",-94.1309067,41.825722,"perry, ia 50220, usa","50220"
"545",-91.4241426,40.442894,"keokuk, ia 52632, usa","52632"
"546",-92.3616203,42.4285686,"waterloo, ia 50701, usa","50701"
"547",-95.0806918,41.5888944,"elk horn, ia 51531, usa","51531"
"548",-94.19234,42.5136902,"fort dodge, ia 50501, usa","50501"
"549",-96.2163597,43.064212,"sioux center, ia 51250, usa","51250"
"550",-95.018246,40.7285695,"clarinda, ia 51632, usa","51632"
"551",-96.4024118,42.5338852,"sioux city, ia 51104, usa","51104"
"552",-93.4498346,41.6393289,"altoona, ia 50009, usa","50009"
"553",-93.6319131,41.7332684,"ankeny, ia 50023, usa","50023"
"554",-92.2827384,42.5479071,"waterloo, ia 50703, usa","50703"
"555",-93.6217802,41.3443814,"indianola, ia 50125, usa","50125"
"556",-90.6867939,41.5292258,"davenport, ia 52804, usa","52804"
"557",-93.7232005,41.799919,"polk city, ia 50226, usa","50226"
"558",-91.5789994,42.0871391,"marion, ia 52302, usa","52302"
"559",-91.6080974,41.6597963,"iowa city, ia 52246, usa","52246"
"560",-92.797901,43.3146633,"osage, ia 50461, usa","50461"
"561",-96.4396888,42.5171387,"sioux city, ia 51103, usa","51103"
"562",-93.6116494,41.5346558,"des moines, ia 50315, usa","50315"
"563",-91.9294681,42.6718614,"oelwein, ia 50662, usa","50662"
"564",-95.435853,43.1619472,"hartley, ia 51346, usa","51346"
"565",-91.7538817,43.3932586,"decorah, ia 52101, usa","52101"
"566",-93.682608,41.4824858,"norwalk, ia 50211, usa","50211"
"567",-95.2475518,42.3329915,"odebolt, ia 51458, usa","51458"
"568",-96.195132,43.4315633,"rock rapids, ia 51246, usa","51246"
"569",-93.2181477,43.1683261,"mason city, ia 50401, usa","50401"
"570",-95.2684437,40.9596044,"red oak, ia 51566, usa","51566"
"571",-93.6217802,41.3443814,"indianola, ia 50125, usa","50125"
"572",-91.8123324,42.9857542,"west union, ia 52175, usa","52175"
"573",-94.028678,41.3308893,"winterset, ia 50273, usa","50273"
"574",-94.9974461,40.9515124,"villisca, ia 50864, usa","50864"
"575",-94.2743628,43.0563377,"algona, ia 50511, usa","50511"
"576",-95.2684437,40.9596044,"red oak, ia 51566, usa","51566"
"577",-94.7691586,43.4230145,"estherville, ia 51334, usa","51334"
"578",-95.624767,41.8416859,"dunlap, ia 51529, usa","51529"
"579",-94.0491077,42.2635154,"dayton, ia 50530, usa","50530"
"580",-92.4999918,42.5629855,"cedar falls, ia 50613, usa","50613"
"581",-91.4918235,41.6613587,"iowa city, ia 52245, usa","52245"
"582",-94.356513,41.0781268,"creston, ia 50801, usa","50801"
"583",-95.7721204,41.2567691,"council bluffs, ia 51503, usa","51503"
"584",-93.596457,41.6099344,"des moines, ia 50316, usa","50316"
"585",-95.7932008,41.634827,"logan, ia 51546, usa","51546"
"586",-91.949021,40.7400044,"keosauqua, ia 52565, usa","52565"
"587",-96.195132,42.8132707,"le mars, ia 51031, usa","51031"
"588",-95.4568133,42.3232317,"ida grove, ia 51445, usa","51445"
"589",-95.5429539,42.4892557,"holstein, ia 51025, usa","51025"
"590",-93.8146526,41.7671232,"granger, ia 50109, usa","50109"
"591",-92.8976254,42.0812762,"marshalltown, ia 50158, usa","50158"
"592",-92.9575607,43.4263527,"st ansgar, ia 50472, usa","50472"
"593",-92.4208713,41.0543785,"ottumwa, ia 52501, usa","52501"
"594",-93.642048,43.2523362,"forest city, ia 50436, usa","50436"
"595",-91.5886966,41.6999226,"coralville, ia 52241, usa","52241"
"596",-96.195132,43.4315633,"rock rapids, ia 51246, usa","51246"
"597",-92.8976254,41.444905,"pella, ia 50219, usa","50219"
"598",-94.7484518,41.4435031,"anita, ia 50020, usa","50020"
"599",-90.2620042,41.8796431,"clinton, ia 52732, usa","52732"
"600",-94.8313257,42.85946,"laurens, ia 50554, usa","50554"
"601",-91.1544963,41.0134749,"mediapolis, ia 52637, usa","52637"
"602",-93.3792057,40.7880788,"corydon, ia 50060, usa","50060"
"603",-92.4208713,41.0543785,"ottumwa, ia 52501, usa","52501"
"604",-94.19234,40.6804988,"mt ayr, ia 50854, usa","50854"
"605",-92.8751491,40.7325108,"centerville, ia 52544, usa","52544"
"606",-93.2080991,43.2749571,"manly, ia 50456, usa","50456"
"607",-91.3469247,40.6471631,"fort madison, ia 52627, usa","52627"
"608",-90.6962853,42.5292381,"dubuque, ia 52001, usa","52001"
"609",-95.4149003,41.3341509,"oakland, ia 51560, usa","51560"
"610",-94.8520636,42.0154317,"carroll, ia 51401, usa","51401"
"611",-94.9350929,41.7741918,"audubon, ia 50025, usa","50025"
"612",-94.356513,42.0352785,"jefferson, ia 50129, usa","50129"
"613",-91.8708613,41.4661178,"wellman, ia 52356, usa","52356"
"614",-94.5211935,40.9106641,"lenox, ia 50851, usa","50851"
"615",-94.5418141,42.5199835,"manson, ia 50563, usa","50563"
"616",-94.5830789,41.3302126,"fontanelle, ia 50846, usa","50846"
"617",-95.3520876,41.9932314,"denison, ia 51442, usa","51442"
"618",-91.5596117,43.1253622,"postville, ia 52162, usa","52162"
"619",-91.4821482,43.2812542,"waukon, ia 52172, usa","52172"
"620",-92.797901,42.3401385,"grundy center, ia 50638, usa","50638"
"621",-92.6586401,43.0275603,"charles city, ia 50616, usa","50616"
"622",-96.471658,43.0113516,"hawarden, ia 51023, usa","51023"
"623",-96.0044121,43.3456274,"george, ia 51237, usa","51237"
"624",-96.1314928,43.184723,"hull, ia 51239, usa","51239"
"625",-94.9974461,42.6184084,"newell, ia 50568, usa","50568"
"626",-92.3172324,42.4638414,"waterloo, ia 50702, usa","50702"
"627",-93.7029002,40.6971957,"leon, ia 50144, usa","50144"
"628",-94.3359635,41.6989674,"panora, ia 50216, usa","50216"
"629",-92.9175955,42.2584059,"conrad, ia 50621, usa","50621"
"630",-93.4397386,41.4500127,"carlisle, ia 50047, usa","50047"
"631",-96.1102943,42.0343809,"onawa, ia 51040, usa","51040"
"632",-92.8751491,40.7325108,"centerville, ia 52544, usa","52544"
"633",-91.2187754,43.3609059,"lansing, ia 52151, usa","52151"
"634",-91.5789994,40.6442338,"donnellson, ia 52625, usa","52625"
"635",-93.5711466,41.7152759,"ankeny, ia 50021, usa","50021"
"636",-92.7381672,41.7679201,"grinnell, ia 50112, usa","50112"
"637",-91.2698475,41.8928024,"mechanicsville, ia 52306, usa","52306"
"638",-93.318747,41.6531402,"mitchellville, ia 50169, usa","50169"
"639",-94.19234,42.5136902,"fort dodge, ia 50501, usa","50501"
"640",-96.4396888,42.5171387,"sioux city, ia 51103, usa","51103"
"641",-95.7932008,42.149397,"mapleton, ia 51034, usa","51034"
"642",-93.596457,41.6099344,"des moines, ia 50316, usa","50316"
"643",-94.19234,40.6804988,"mt ayr, ia 50854, usa","50854"
"644",-93.8858955,42.2691496,"stratford, ia 50249, usa","50249"
"645",-96.4024118,42.5338852,"sioux city, ia 51104, usa","51104"
"646",-93.6268464,41.608982,"des moines, ia 50314, usa","50314"
"647",-93.6116494,41.5346558,"des moines, ia 50315, usa","50315"
"648",-92.6785092,41.3100009,"oskaloosa, ia 52577, usa","52577"
"649",-94.356513,41.0781268,"creston, ia 50801, usa","50801"
"650",-91.5886966,41.9781094,"cedar rapids, ia 52403, usa","52403"
"651",-91.1929114,42.2103309,"monticello, ia 52310, usa","52310"
"652",-90.4596721,41.5703144,"bettendorf, ia 52722, usa","52722"
"653",-95.7089241,41.0392443,"glenwood, ia 51534, usa","51534"
"654",-93.1177555,42.3319108,"eldora, ia 50627, usa","50627"
"655",-96.4503434,43.340575,"inwood, ia 51240, usa","51240"
"656",-94.6243751,42.3990552,"rockwell city, ia 50579, usa","50579"
"657",-94.7691586,40.9813114,"corning, ia 50841, usa","50841"
"658",-92.4801989,42.1897902,"traer, ia 50675, usa","50675"
"659",-91.3083685,41.6934817,"west branch, ia 52358, usa","52358"
"660",-95.018246,41.4520379,"atlantic, ia 50022, usa","50022"
"661",-95.7721204,41.2567691,"council bluffs, ia 51503, usa","51503"
"662",-94.19234,42.5136902,"fort dodge, ia 50501, usa","50501"
"663",-94.6863782,40.6615395,"bedford, ia 50833, usa","50833"
"664",-93.7841503,41.0177836,"osceola, ia 50213, usa","50213"
"665",-95.3311652,41.4579402,"avoca, ia 51521, usa","51521"
"666",-92.4999918,41.614001,"montezuma, ia 50171, usa","50171"
"667",-96.1739116,42.1295444,"whiting, ia 51063, usa","51063"
"668",-92.341887,43.0344596,"new hampton, ia 50659, usa","50659"
"669",-92.4999918,42.5629855,"cedar falls, ia 50613, usa","50613"
"670",-91.5789994,42.0871391,"marion, ia 52302, usa","52302"
"671",-92.1843285,42.3337488,"la porte city, ia 50651, usa","50651"
"672",-91.2313618,43.0323182,"mcgregor, ia 52157, usa","52157"
"673",-92.341887,43.0344596,"new hampton, ia 50659, usa","50659"
"674",-91.8891436,42.4685995,"independence, ia 50644, usa","50644"
"675",-91.4628042,40.5238363,"montrose, ia 52639, usa","52639"
"676",-93.318747,41.0522291,"chariton, ia 50049, usa","50049"
"677",-91.9294681,41.003145,"fairfield, ia 52556, usa","52556"
"678",-92.2827384,42.5479071,"waterloo, ia 50703, usa","50703"
"679",-93.1378173,41.2783751,"knoxville, ia 50138, usa","50138"
"680",-92.5990835,42.6977672,"shell rock, ia 50670, usa","50670"
"681",-91.6955092,41.9270157,"cedar rapids, ia 52404, usa","52404"
"682",-96.195132,42.8132707,"le mars, ia 51031, usa","51031"
"683",-94.8520636,42.5660014,"fonda, ia 50540, usa","50540"
"684",-92.8178291,41.0453846,"albia, ia 52531, usa","52531"
"685",-94.0082563,40.626219,"lamoni, ia 50140, usa","50140"
"686",-93.1177555,42.3319108,"eldora, ia 50627, usa","50627"
"687",-91.8806237,41.8149271,"amana, ia 52203, usa","52203"
"688",-93.2986106,42.1494998,"zearing, ia 50278, usa","50278"
"689",-91.6663523,42.0166364,"cedar rapids, ia 52402, usa","52402"
"690",-95.7932008,42.4636132,"correctionville, ia 51016, usa","51016"
"691",-93.2784825,41.374673,"pleasantville, ia 50225, usa","50225"
"692",-92.1843285,41.3003481,"sigourney, ia 52591, usa","52591"
"693",-92.3813621,40.6913838,"bloomfield, ia 52537, usa","52537"
"694",-91.4628042,41.1308821,"winfield, ia 52659, usa","52659"
"695",-96.0255738,42.5885108,"kingsley, ia 51028, usa","51028"
"696",-95.5197394,42.7699915,"cherokee, ia 51012, usa","51012"
"697",-91.2698475,41.0928923,"morning sun, ia 52640, usa","52640"
"698",-95.1223608,40.9863152,"stanton, ia 51573, usa","51573"
"699",-91.4628042,41.930205,"mt vernon, ia 52314, usa","52314"
"700",-91.1161166,42.7608133,"guttenberg, ia 52052, usa","52052"
"701",-93.2986106,42.3071863,"hubbard, ia 50122, usa","50122"
"702",-92.797901,42.7321672,"allison, ia 50602, usa","50602"
"703",-91.8891436,42.4685995,"independence, ia 50644, usa","50644"
"704",-91.4821482,43.2812542,"waukon, ia 52172, usa","52172"
"705",-92.9975593,42.7661699,"dumont, ia 50625, usa","50625"
"706",-91.9294681,42.6718614,"oelwein, ia 50662, usa","50662"
"707",-91.9294681,42.6718614,"oelwein, ia 50662, usa","50662"
"708",-95.624767,42.3151209,"battle creek, ia 51006, usa","51006"
"709",-94.9974461,42.4226585,"sac city, ia 50583, usa","50583"
"710",-94.2743628,42.2750407,"gowrie, ia 50543, usa","50543"
"711",-93.4902391,41.5783038,"pleasant hill, ia 50327, usa","50327"
"712",-92.9175955,42.611891,"aplington, ia 50604, usa","50604"
"713",-92.9975593,43.1549417,"nora springs, ia 50458, usa","50458"
"714",-92.2531929,41.8876952,"belle plaine, ia 52208, usa","52208"
"715",-93.7333537,41.5507357,"west des moines, ia 50265, usa","50265"
"716",-95.1223608,41.2273822,"griswold, ia 51535, usa","51535"
"717",-94.6863782,43.1177101,"emmetsburg, ia 50536, usa","50536"
"718",-94.5005808,43.4146453,"armstrong, ia 50514, usa","50514"
"719",-93.2986106,42.6993464,"hampton, ia 50441, usa","50441"
"720",-91.9294681,41.3249452,"keota, ia 52248, usa","52248"
"721",-92.8178291,42.8681925,"greene, ia 50636, usa","50636"
"722",-95.7089241,41.718526,"woodbine, ia 51579, usa","51579"
"723",-94.6863782,41.8639461,"coon rapids, ia 50058, usa","50058"
"724",-95.1849219,42.6296202,"storm lake, ia 50588, usa","50588"
"725",-93.4599326,42.065743,"nevada, ia 50201, usa","50201"
"726",-93.7841503,42.7624458,"clarion, ia 50525, usa","50525"
"727",-93.8044831,43.1310144,"britt, ia 50423, usa","50423"
"728",-93.642048,43.0975464,"garner, ia 50438, usa","50438"
"729",-93.3792057,43.1636942,"clear lake, ia 50428, usa","50428"
"730",-93.5205641,43.4104459,"lake mills, ia 50450, usa","50450"
"731",-93.2181477,43.1683261,"mason city, ia 50401, usa","50401"
"732",-95.4253757,41.7818767,"earling, ia 51530, usa","51530"
"733",-93.6217802,41.3443814,"indianola, ia 50125, usa","50125"
"734",-95.2057909,41.861425,"manilla, ia 51454, usa","51454"
"735",-95.3520876,41.6760825,"harlan, ia 51537, usa","51537"
"736",-95.940971,41.567601,"missouri valley, ia 51555, usa","51555"
"737",-90.4879916,42.2746517,"bellevue, ia 52031, usa","52031"
"738",-91.2698475,42.0909629,"anamosa, ia 52205, usa","52205"
"739",-90.4224967,41.5693601,"pleasant valley, ia 52767, usa","52767"
"740",-90.8484524,41.8569545,"wheatland, ia 52777, usa","52777"
"741",-91.3855161,42.6797057,"edgewood, ia 52042, usa","52042"
"742",-93.6217802,42.8456421,"belmond, ia 50421, usa","50421"
"743",-92.1843285,41.3003481,"sigourney, ia 52591, usa","52591"
"744",-93.1378173,41.2783751,"knoxville, ia 50138, usa","50138"
"745",-94.4182089,41.2965939,"greenfield, ia 50849, usa","50849"
"746",-93.1980527,42.8777022,"sheffield, ia 50475, usa","50475"
"747",-92.8976254,42.0812762,"marshalltown, ia 50158, usa","50158"
"748",-92.4011124,43.2850294,"elma, ia 50628, usa","50628"
"749",-95.5827334,43.0581704,"primghar, ia 51245, usa","51245"
"750",-91.4241426,41.4924948,"lone tree, ia 52755, usa","52755"
"751",-91.5886966,41.9781094,"cedar rapids, ia 52403, usa","52403"
"752",-93.1578875,42.0150871,"state center, ia 50247, usa","50247"
"753",-91.4048249,42.8162006,"elkader, ia 52043, usa","52043"
"754",-93.2181477,42.4666849,"iowa falls, ia 50126, usa","50126"
"755",-91.3469247,40.8497995,"danville, ia 52623, usa","52623"
"756",-91.4241426,40.442894,"keokuk, ia 52632, usa","52632"
"757",-95.7932008,42.7759565,"marcus, ia 51035, usa","51035"
"758",-93.1578875,41.8168074,"baxter, ia 50028, usa","50028"
"759",-93.682608,41.4824858,"norwalk, ia 50211, usa","50211"
"760",-95.7721204,43.4536997,"sibley, ia 51249, usa","51249"
"761",-95.2057909,43.3077243,"milford, ia 51351, usa","51351"
"762",-95.1640605,42.9226915,"sioux rapids, ia 50585, usa","50585"
"763",-91.4241426,40.9297299,"new london, ia 52645, usa","52645"
"764",-95.940971,42.8267409,"remsen, ia 51050, usa","51050"
"765",-93.1980527,42.9943768,"rockwell, ia 50469, usa","50469"
"766",-94.2128337,43.3099928,"bancroft, ia 50517, usa","50517"
"767",-93.7841503,42.4494381,"webster city, ia 50595, usa","50595"
"768",-94.8728093,41.5978817,"exira, ia 50076, usa","50076"
"769",-94.9974461,42.7744794,"albert city, ia 50510, usa","50510"
"770",-94.6863782,42.5728882,"pomeroy, ia 50575, usa","50575"
"771",-94.19234,41.0036917,"afton, ia 50830, usa","50830"
"772",-91.2698475,41.5742291,"west liberty, ia 52776, usa","52776"
"773",-93.0576199,41.6802825,"newton, ia 50208, usa","50208"
"774",-93.0576199,41.6802825,"newton, ia 50208, usa","50208"
"775",-93.5913939,42.0320531,"ames, ia 50010, usa","50010"
"776",-93.5913939,42.0320531,"ames, ia 50010, usa","50010"
"777",-93.595529,42.1871555,"story city, ia 50248, usa","50248"
"778",-95.5197394,42.7699915,"cherokee, ia 51012, usa","51012"
"779",-94.1309067,41.825722,"perry, ia 50220, usa","50220"
"780",-93.0576199,41.6802825,"newton, ia 50208, usa","50208"
"781",-95.5197394,42.7699915,"cherokee, ia 51012, usa","51012"
"782",-96.195132,42.8132707,"le mars, ia 51031, usa","51031"
"783",-94.0491077,43.2386807,"titonka, ia 50480, usa","50480"
"784",-90.9438468,41.4774192,"muscatine, ia 52761, usa","52761"
"785",-92.797901,43.3146633,"osage, ia 50461, usa","50461"
"786",-94.0491077,42.0267419,"ogden, ia 50212, usa","50212"
"787",-96.4024118,42.5338852,"sioux city, ia 51104, usa","51104"
"788",-90.5588787,41.5349127,"davenport, ia 52803, usa","52803"
"789",-91.7733566,42.8306065,"fayette, ia 52142, usa","52142"
"790",-92.7580701,43.4698303,"stacyville, ia 50476, usa","50476"
"791",-91.1161166,40.8522544,"burlington, ia 52601, usa","52601"
"792",-91.5789994,42.0871391,"marion, ia 52302, usa","52302"
"793",-93.6319131,41.7332684,"ankeny, ia 50023, usa","50023"
"794",-92.4208713,42.7992829,"waverly, ia 50677, usa","50677"
"795",-93.0576199,42.5495017,"ackley, ia 50601, usa","50601"
"796",-94.4593791,42.9522745,"west bend, ia 50597, usa","50597"
"797",-95.3311652,43.4174509,"lake park, ia 51347, usa","51347"
"798",-92.6785092,42.1853449,"gladbrook, ia 50635, usa","50635"
"799",-95.7721204,41.2567691,"council bluffs, ia 51503, usa","51503"
"800",-93.7232005,41.68061,"johnston, ia 50131, usa","50131"
"801",-95.1849219,43.1735854,"spencer, ia 51301, usa","51301"
"802",-92.5594214,42.0299486,"toledo, ia 52342, usa","52342"
"803",-92.8976254,42.0812762,"marshalltown, ia 50158, usa","50158"
"804",-91.1736994,41.1543025,"wapello, ia 52653, usa","52653"
"805",-91.714958,41.3082706,"washington, ia 52353, usa","52353"
"806",-94.8520636,42.0154317,"carroll, ia 51401, usa","51401"
"807",-92.1646722,41.5609112,"north english, ia 52316, usa","52316"
"808",-94.5005808,40.8105304,"clearfield, ia 50840, usa","50840"
"809",-95.4568133,42.9867403,"sutherland, ia 51058, usa","51058"
"810",-93.7333537,41.6304923,"urbandale, ia 50322, usa","50322"
"811",-94.7070616,42.7087887,"pocahontas, ia 50574, usa","50574"
"812",-92.5990835,41.9101735,"tama, ia 52339, usa","52339"
"813",-93.7841503,42.4494381,"webster city, ia 50595, usa","50595"
"814",-92.4999918,42.5629855,"cedar falls, ia 50613, usa","50613"
"815",-95.7721204,41.2567691,"council bluffs, ia 51503, usa","51503"
"816",-93.7841503,42.9182415,"kanawha, ia 50447, usa","50447"
"817",-93.8655303,42.0528293,"boone, ia 50036, usa","50036"
"818",-92.6586401,43.0275603,"charles city, ia 50616, usa","50616"
"819",-91.7344155,41.52823,"kalona, ia 52247, usa","52247"
"820",-90.6962853,42.5292381,"dubuque, ia 52001, usa","52001"
"821",-93.2181477,42.4666849,"iowa falls, ia 50126, usa","50126"
"822",-96.333242,42.4644043,"sioux city, ia 51106, usa","51106"
"823",-95.624767,40.7612702,"sidney, ia 51652, usa","51652"
"824",-91.7538817,43.3932586,"decorah, ia 52101, usa","52101"
"825",-91.3469247,41.2529268,"columbus junction, ia 52738, usa","52738"
"826",-91.5596117,40.9885488,"mt pleasant, ia 52641, usa","52641"
"827",-93.6724649,41.632449,"des moines, ia 50310, usa","50310"
"828",-92.7381672,41.7679201,"grinnell, ia 50112, usa","50112"
"829",-92.7381672,41.7679201,"grinnell, ia 50112, usa","50112"
"830",-91.714958,41.3082706,"washington, ia 52353, usa","52353"
"831",-91.714958,41.3082706,"washington, ia 52353, usa","52353"
"832",-95.1849219,43.1735854,"spencer, ia 51301, usa","51301"
"833",-93.238251,43.4572735,"northwood, ia 50459, usa","50459"
"834",-94.9143239,43.1275099,"ruthven, ia 51358, usa","51358"
"835",-93.6775362,41.5774667,"des moines, ia 50312, usa","50312"
"836",-95.1223608,42.2600262,"wall lake, ia 51466, usa","51466"
"837",-95.018246,40.7285695,"clarinda, ia 51632, usa","51632"
"838",-92.1057549,43.4258915,"cresco, ia 52136, usa","52136"
"839",-92.1057549,43.4258915,"cresco, ia 52136, usa","52136"
"840",-94.6863782,43.1177101,"emmetsburg, ia 50536, usa","50536"
"841",-92.2827384,42.7826013,"tripoli, ia 50676, usa","50676"
"842",-92.6387795,42.8139853,"clarksville, ia 50619, usa","50619"
"843",-94.028678,41.3308893,"winterset, ia 50273, usa","50273"
"844",-93.8655303,42.0528293,"boone, ia 50036, usa","50036"
"845",-95.0390536,42.3030381,"lake view, ia 51450, usa","51450"
"846",-93.9266502,42.6600478,"eagle grove, ia 50533, usa","50533"
"847",-94.3359635,41.499702,"stuart, ia 50250, usa","50250"
"848",-92.1253854,42.8246328,"sumner, ia 50674, usa","50674"
"849",-91.4821482,42.5021738,"manchester, ia 52057, usa","52057"
"850",-94.2743628,43.0563377,"algona, ia 50511, usa","50511"
"851",-93.1378173,40.6327966,"seymour, ia 52590, usa","52590"
"852",-94.028678,41.3308893,"winterset, ia 50273, usa","50273"
"853",-93.5509074,41.6163301,"des moines, ia 50317, usa","50317"
"854",-92.4999918,42.5629855,"cedar falls, ia 50613, usa","50613"
"855",-90.2620042,41.8796431,"clinton, ia 52732, usa","52732"
"856",-90.6204165,41.5795478,"davenport, ia 52806, usa","52806"
"857",-91.5789994,42.0871391,"marion, ia 52302, usa","52302"
"858",-90.2620042,41.8796431,"clinton, ia 52732, usa","52732"
"859",-90.6962853,42.5292381,"dubuque, ia 52001, usa","52001"
"860",-93.6724649,41.632449,"des moines, ia 50310, usa","50310"
"861",-92.2827384,42.1543929,"dysart, ia 52224, usa","52224"
"862",-90.6393702,42.1159649,"maquoketa, ia 52060, usa","52060"
"863",-93.0576199,41.6802825,"newton, ia 50208, usa","50208"
"864",-92.5792482,42.3255713,"reinbeck, ia 50669, usa","50669"
"865",-94.7691586,43.4230145,"estherville, ia 51334, usa","51334"
"866",-95.7721204,41.2567691,"council bluffs, ia 51503, usa","51503"
"867",-94.5830789,41.6893951,"guthrie center, ia 50115, usa","50115"
"868",-92.1057549,43.4258915,"cresco, ia 52136, usa","52136"
"869",-95.1022624,43.4226114,"spirit lake, ia 51360, usa","51360"
"870",-95.3311652,40.7347774,"shenandoah, ia 51601, usa","51601"
"871",-95.7089241,41.0392443,"glenwood, ia 51534, usa","51534"
"872",-95.3311652,40.7347774,"shenandoah, ia 51601, usa","51601"
"873",-95.3520876,41.9932314,"denison, ia 51442, usa","51442"
"874",-94.2538452,42.7264891,"humboldt, ia 50548, usa","50548"
"875",-94.2538452,42.7264891,"humboldt, ia 50548, usa","50548"
"876",-95.4149003,42.6775463,"aurelia, ia 51005, usa","51005"
"877",-93.2181477,43.1683261,"mason city, ia 50401, usa","50401"
"878",-91.6906483,42.0509294,"hiawatha, ia 52233, usa","52233"
"879",-96.0891032,43.0323525,"orange city, ia 51041, usa","51041"
"880",-94.19234,42.5136902,"fort dodge, ia 50501, usa","50501"
"881",-96.333242,42.4644043,"sioux city, ia 51106, usa","51106"
"882",-92.5594214,43.3973939,"riceville, ia 50466, usa","50466"
"883",-91.7490143,41.9906493,"cedar rapids, ia 52405, usa","52405"
"884",-93.0576199,41.6802825,"newton, ia 50208, usa","50208"
"885",-91.5886966,41.6999226,"coralville, ia 52241, usa","52241"
"886",-95.6773512,40.8696903,"tabor, ia 51653, usa","51653"
"887",-91.6566377,41.1282672,"wayland, ia 52654, usa","52654"
"888",-93.8146526,41.5680235,"west des moines, ia 50266, usa","50266"
"889",-92.4208713,41.0543785,"ottumwa, ia 52501, usa","52501"
"890",-91.5015009,41.8105493,"solon, ia 52333, usa","52333"
"891",-92.0077316,42.1595183,"vinton, ia 52349, usa","52349"
"892",-90.4596721,41.5703144,"bettendorf, ia 52722, usa","52722"
"893",-95.7721204,43.4536997,"sibley, ia 51249, usa","51249"
"894",-94.0491077,41.629789,"adel, ia 50003, usa","50003"
"895",-90.6962853,42.5292381,"dubuque, ia 52001, usa","52001"
"896",-93.8197381,41.6326419,"urbandale, ia 50323, usa","50323"
"897",-93.8655303,42.0528293,"boone, ia 50036, usa","50036"
"898",-90.6962853,42.5292381,"dubuque, ia 52001, usa","52001"
"899",-95.018246,41.4520379,"atlantic, ia 50022, usa","50022"
"900",-92.8178291,41.0453846,"albia, ia 52531, usa","52531"
"901",-90.7722974,42.5287528,"dubuque, ia 52002, usa","52002"
"902",-92.0077316,41.6435634,"williamsburg, ia 52361, usa","52361"
"903",-91.7490143,41.9906493,"cedar rapids, ia 52405, usa","52405"
"904",-91.0011902,42.2516146,"cascade, ia 52033, usa","52033"
"905",-91.4628042,40.726898,"west point, ia 52656, usa","52656"
"906",-92.6785092,41.3100009,"oskaloosa, ia 52577, usa","52577"
"907",-91.1161166,40.8522544,"burlington, ia 52601, usa","52601"
"908",-95.6668306,43.2086812,"sanborn, ia 51248, usa","51248"
"909",-90.5163312,41.6100065,"davenport, ia 52807, usa","52807"
"910",-91.7733566,43.1416437,"ossian, ia 52161, usa","52161"
"911",-93.682608,42.0390586,"ames, ia 50014, usa","50014"
"912",-90.9438468,41.4774192,"muscatine, ia 52761, usa","52761"
"913",-90.6393702,42.1159649,"maquoketa, ia 52060, usa","52060"
"914",-93.7333537,41.6304923,"urbandale, ia 50322, usa","50322"
"915",-93.8757119,41.6058638,"waukee, ia 50263, usa","50263"
"916",-90.6962853,42.5292381,"dubuque, ia 52001, usa","52001"
"917",-90.9438468,41.4774192,"muscatine, ia 52761, usa","52761"
"918",-93.9470396,43.3772889,"buffalo center, ia 50424, usa","50424"
"919",-91.6663523,42.0166364,"cedar rapids, ia 52402, usa","52402"
"920",-92.6785092,41.3100009,"oskaloosa, ia 52577, usa","52577"
"921",-91.0490374,41.8850964,"clarence, ia 52216, usa","52216"
"922",-93.9266502,41.7136523,"dallas center, ia 50063, usa","50063"
"923",-91.5596117,40.9885488,"mt pleasant, ia 52641, usa","52641"
"924",-93.6775362,41.5774667,"des moines, ia 50312, usa","50312"
"925",-92.4406387,41.754714,"brooklyn, ia 52211, usa","52211"
"926",-96.5143087,42.8538327,"akron, ia 51001, usa","51001"
"927",-95.1849219,42.6296202,"storm lake, ia 50588, usa","50588"
"928",-93.8146526,41.5680235,"west des moines, ia 50266, usa","50266"
"929",-92.8976254,41.444905,"pella, ia 50219, usa","50219"
"930",-91.09694,41.7156082,"tipton, ia 52772, usa","52772"
"931",-93.7333537,41.5507357,"west des moines, ia 50265, usa","50265"
"932",-91.9294681,41.003145,"fairfield, ia 52556, usa","52556"
"933",-92.3123031,42.6550162,"denver, ia 50622, usa","50622"
"934",-92.2433487,42.0365407,"keystone, ia 52249, usa","52249"
"935",-93.7943157,41.6882419,"grimes, ia 50111, usa","50111"
"936",-94.1309067,41.825722,"perry, ia 50220, usa","50220"
"937",-92.8976254,41.444905,"pella, ia 50219, usa","50219"
"938",-93.6243133,41.5816456,"des moines, ia 50309, usa","50309"
"939",-93.0576199,41.6802825,"newton, ia 50208, usa","50208"
"940",-93.4498346,41.6393289,"altoona, ia 50009, usa","50009"
"941",-91.0011902,41.6167965,"wilton, ia 52778, usa","52778"
"942",-93.7232005,41.68061,"johnston, ia 50131, usa","50131"
"943",-92.8976254,42.0812762,"marshalltown, ia 50158, usa","50158"
"944",-92.0077316,42.1595183,"vinton, ia 52349, usa","52349"
"945",-91.8891436,42.4685995,"independence, ia 50644, usa","50644"
"946",-95.0390536,41.9084705,"manning, ia 51455, usa","51455"
"947",-94.8520636,42.0154317,"carroll, ia 51401, usa","51401"
"948",-90.5068824,41.8192126,"dewitt, ia 52742, usa","52742"
"949",-93.2986106,42.6993464,"hampton, ia 50441, usa","50441"
"950",-94.356513,42.0352785,"jefferson, ia 50129, usa","50129"
"951",-92.797901,42.3401385,"grundy center, ia 50638, usa","50638"
"952",-92.1057549,41.78121,"marengo, ia 52301, usa","52301"
"953",-95.8775964,43.1980494,"sheldon, ia 51201, usa","51201"
"954",-93.4599326,42.065743,"nevada, ia 50201, usa","50201"
"955",-96.365157,43.1912526,"rock valley, ia 51247, usa","51247"
"956",-91.1544963,42.5255513,"dyersville, ia 52040, usa","52040"
"957",-94.6863782,43.1177101,"emmetsburg, ia 50536, usa","50536"
"958",-91.714958,41.3082706,"washington, ia 52353, usa","52353"
"959",-95.018246,40.7285695,"clarinda, ia 51632, usa","51632"
"960",-93.596457,41.6099344,"des moines, ia 50316, usa","50316"
"961",-94.2538452,42.7264891,"humboldt, ia 50548, usa","50548"
"962",-92.8751491,40.7325108,"centerville, ia 52544, usa","52544"
"963",-92.3813621,40.6913838,"bloomfield, ia 52537, usa","52537"
"964",-91.4241426,40.442894,"keokuk, ia 52632, usa","52632"
"965",-97.3138554,37.67231,"wichita, ks 67211, usa","67211"
"966",-95.6931356,39.0105228,"topeka, ks 66611, usa","66611"
"967",-94.7070616,37.3960411,"pittsburg, ks 66762, usa","66762"
"968",-94.9974461,38.4836924,"osawatomie, ks 66064, usa","66064"
"969",-97.276076,37.701103,"wichita, ks 67208, usa","67208"
"970",-96.5356449,39.0961493,"manhattan, ks 66502, usa","66502"
"971",-95.6405374,39.0442537,"topeka, ks 66607, usa","66607"
"972",-97.9374948,38.1116209,"hutchinson, ks 67502, usa","67502"
"973",-94.7898731,38.8271089,"olathe, ks 66062, usa","66062"
"974",-97.394882,37.2799199,"wellington, ks 67152, usa","67152"
"975",-97.3678624,37.6689444,"wichita, ks 67213, usa","67213"
"976",-94.7381013,38.9647235,"lenexa, ks 66215, usa","66215"
"977",-94.70189,39.0234301,"shawnee, ks 66203, usa","66203"
"978",-96.7922355,37.8251682,"el dorado, ks 67042, usa","67042"
"979",-96.8779926,38.9934413,"junction city, ks 66441, usa","66441"
"980",-97.654811,38.8619254,"salina, ks 67401, usa","67401"
"981",-94.9558696,38.8201968,"gardner, ks 66030, usa","66030"
"982",-97.3624598,37.547473,"haysville, ks 67060, usa","67060"
"983",-94.6967189,39.1535492,"kansas city, ks 66104, usa","66104"
"984",-95.1640605,39.5167357,"atchison, ks 66002, usa","66002"
"985",-95.4987565,38.7959407,"overbrook, ks 66524, usa","66524"
"986",-97.9374948,38.1116209,"hutchinson, ks 67502, usa","67502"
"987",-95.2057909,39.0176677,"lawrence, ks 66044, usa","66044"
"988",-95.7247169,39.0401557,"topeka, ks 66604, usa","66604"
"989",-97.1144039,37.700398,"andover, ks 67002, usa","67002"
"990",-94.7122337,38.9709751,"overland park, ks 66214, usa","66214"
"991",-94.7743365,39.1140535,"kansas city, ks 66112, usa","66112"
"992",-94.9974461,39.2758776,"leavenworth, ks 66048, usa","66048"
"993",-100.9219918,37.0428093,"liberal, ks 67905, usa","67905"
"994",-95.85121,39.013101,"topeka, ks 66614, usa","66614"
"995",-97.2329255,37.7037608,"wichita, ks 67206, usa","67206"
"996",-95.624767,37.0570857,"coffeyville, ks 67337, usa","67337"
"997",-95.6931356,39.0105228,"topeka, ks 66611, usa","66611"
"998",-95.85121,39.013101,"topeka, ks 66614, usa","66614"
"999",-96.195132,38.3636133,"emporia, ks 66801, usa","66801"
"1000",-96.5356449,39.0961493,"manhattan, ks 66502, usa","66502"
"1001",-100.7097867,38.0792424,"garden city, ks 67846, usa","67846"
"1002",-94.6760395,38.946393,"overland park, ks 66212, usa","66212"
"1003",-94.6398693,38.9530417,"overland park, ks 66207, usa","66207"
"1004",-97.2113605,37.7685329,"wichita, ks 67226, usa","67226"
"1005",-94.70189,38.9193108,"overland park, ks 66210, usa","66210"
"1006",-94.6398693,38.9009431,"leawood, ks 66209, usa","66209"
"1007",-97.654811,38.8619254,"salina, ks 67401, usa","67401"
"1008",-97.654811,38.8619254,"salina, ks 67401, usa","67401"
"1009",-94.6812086,38.9930421,"overland park, ks 66204, usa","66204"
"1010",-94.6192114,38.9538595,"leawood, ks 66206, usa","66206"
"1011",-96.6851982,39.2326802,"manhattan, ks 66503, usa","66503"
"1012",-97.654811,38.8619254,"salina, ks 67401, usa","67401"
"1013",-98.5501283,39.4815776,"downs, ks 67437, usa","67437"
"1014",-101.0711758,39.3702882,"colby, ks 67701, usa","67701"
"1015",-98.4403573,38.8076722,"wilson, ks 67490, usa","67490"
"1016",-100.0359661,37.7614526,"dodge city, ks 67801, usa","67801"
"1017",-94.7070616,37.3960411,"pittsburg, ks 66762, usa","66762"
"1018",-95.2684437,37.3084425,"parsons, ks 67357, usa","67357"
"1019",-94.7898731,38.8271089,"olathe, ks 66062, usa","66062"
"1020",-95.435853,37.6413234,"chanute, ks 66720, usa","66720"
"1021",-95.0806918,39.1063191,"tonganoxie, ks 66086, usa","66086"
"1022",-94.9558696,39.8140227,"wathena, ks 66090, usa","66090"
"1023",-97.2005806,37.568069,"derby, ks 67037, usa","67037"
"1024",-94.8002333,39.0870168,"kansas city, ks 66111, usa","66111"
"1025",-96.195132,39.4457756,"onaga, ks 66521, usa","66521"
"1026",-97.1144039,37.573299,"rose hill, ks 67133, usa","67133"
"1027",-96.5143087,38.2833421,"cottonwood falls, ks 66845, usa","66845"
"1028",-95.1849219,37.9068788,"moran, ks 66755, usa","66755"
"1029",-95.4149003,37.9599544,"iola, ks 66749, usa","66749"
"1030",-94.9039424,39.2487605,"lansing, ks 66043, usa","66043"
"1031",-94.8002333,39.0870168,"kansas city, ks 66111, usa","66111"
"1032",-98.2431747,38.7594292,"ellsworth, ks 67439, usa","67439"
"1033",-96.2800864,37.0883722,"sedan, ks 67361, usa","67361"
"1034",-94.6657027,37.1414228,"galena, ks 66739, usa","66739"
"1035",-99.1456153,38.2540992,"larned, ks 67550, usa","67550"
"1036",-97.9374948,38.1116209,"hutchinson, ks 67502, usa","67502"
"1037",-95.624767,37.0570857,"coffeyville, ks 67337, usa","67337"
"1038",-94.6657027,38.5812063,"louisburg, ks 66053, usa","66053"
"1039",-96.4503434,38.6847195,"council grove, ks 66846, usa","66846"
"1040",-94.6760395,38.946393,"overland park, ks 66212, usa","66212"
"1041",-95.8564864,39.8746947,"sabetha, ks 66534, usa","66534"
"1042",-94.7381013,38.9647235,"lenexa, ks 66215, usa","66215"
"1043",-94.9558696,38.8201968,"gardner, ks 66030, usa","66030"
"1044",-97.2221421,38.9726281,"abilene, ks 67410, usa","67410"
"1045",-94.8002333,39.0870168,"kansas city, ks 66111, usa","66111"
"1046",-97.633113,39.8327687,"belleville, ks 66935, usa","66935"
"1047",-99.0571089,39.8322263,"kensington, ks 66951, usa","66951"
"1048",-95.435853,37.6413234,"chanute, ks 66720, usa","66720"
"1049",-95.0806918,38.6895217,"wellsville, ks 66092, usa","66092"
"1050",-97.4327273,37.6648693,"wichita, ks 67209, usa","67209"
"1051",-97.4597725,37.9324856,"sedgwick, ks 67135, usa","67135"
"1052",-95.7247169,39.0401557,"topeka, ks 66604, usa","66604"
"1053",-95.8564864,38.6323834,"osage city, ks 66523, usa","66523"
"1054",-94.70189,39.0234301,"shawnee, ks 66203, usa","66203"
"1055",-94.7691586,37.8397637,"fort scott, ks 66701, usa","66701"
"1056",-97.9374948,38.1116209,"hutchinson, ks 67502, usa","67502"
"1057",-94.8728093,38.9071042,"olathe, ks 66061, usa","66061"
"1058",-94.9350929,37.1519219,"columbus, ks 66725, usa","66725"
"1059",-94.7381013,39.0063606,"shawnee, ks 66216, usa","66216"
"1060",-97.0713572,39.1684697,"wakefield, ks 67487, usa","67487"
"1061",-97.2814718,37.6637319,"wichita, ks 67218, usa","67218"
"1062",-97.3678624,37.7006858,"wichita, ks 67203, usa","67203"
"1063",-99.4783816,37.9550665,"kinsley, ks 67547, usa","67547"
"1064",-94.8520636,38.5945886,"paola, ks 66071, usa","66071"
"1065",-95.3730176,38.8851891,"lawrence, ks 66047, usa","66047"
"1066",-96.195132,38.3636133,"emporia, ks 66801, usa","66801"
"1067",-94.6967189,39.1535492,"kansas city, ks 66104, usa","66104"
"1068",-97.7416703,39.1051078,"minneapolis, ks 67467, usa","67467"
"1069",-98.8803925,38.857973,"russell, ks 67665, usa","67665"
"1070",-96.365157,37.8490294,"eureka, ks 67045, usa","67045"
"1071",-95.624767,37.0570857,"coffeyville, ks 67337, usa","67337"
"1072",-98.8142264,38.3423212,"great bend, ks 67530, usa","67530"
"1073",-96.9853474,37.5385921,"douglass, ks 67039, usa","67039"
"1074",-97.5897372,37.6707266,"goddard, ks 67052, usa","67052"
"1075",-98.7921836,39.7709532,"smith center, ks 66967, usa","66967"
"1076",-95.7247169,39.0609319,"topeka, ks 66606, usa","66606"
"1077",-94.7743365,39.1140535,"kansas city, ks 66112, usa","66112"
"1078",-98.1994276,38.2195252,"sterling, ks 67579, usa","67579"
"1079",-97.654811,38.8619254,"salina, ks 67401, usa","67401"
"1080",-97.4327273,37.7071863,"wichita, ks 67212, usa","67212"
"1081",-97.286868,38.0697247,"newton, ks 67114, usa","67114"
"1082",-95.2684437,37.3084425,"parsons, ks 67357, usa","67357"
"1083",-96.195132,38.3636133,"emporia, ks 66801, usa","66801"
"1084",-95.3730176,38.9684867,"lawrence, ks 66049, usa","66049"
"1085",-100.0359661,37.7614526,"dodge city, ks 67801, usa","67801"
"1086",-96.9638624,37.0501923,"arkansas city, ks 67005, usa","67005"
"1087",-97.1359377,39.3092773,"clay center, ks 67432, usa","67432"
"1088",-96.9638624,37.0501923,"arkansas city, ks 67005, usa","67005"
"1089",-98.7921836,37.6081704,"pratt, ks 67124, usa","67124"
"1090",-95.7089241,37.3945906,"neodesha, ks 66757, usa","66757"
"1091",-99.3229213,38.9062422,"hays, ks 67601, usa","67601"
"1092",-95.3311652,39.4266101,"nortonville, ks 66060, usa","66060"
"1093",-96.7922355,37.8251682,"el dorado, ks 67042, usa","67042"
"1094",-96.9638624,37.2208916,"winfield, ks 67156, usa","67156"
"1095",-99.5896043,38.9673163,"ellis, ks 67637, usa","67637"
"1096",-95.2684437,38.5766138,"ottawa, ks 66067, usa","66067"
"1097",-95.3311652,39.2196515,"oskaloosa, ks 66066, usa","66066"
"1098",-100.8451467,37.0980943,"liberal, ks 67901, usa","67901"
"1099",-95.5197394,37.297004,"cherryvale, ks 67335, usa","67335"
"1100",-98.1994276,38.3870724,"lyons, ks 67554, usa","67554"
"1101",-97.394882,37.2799199,"wellington, ks 67152, usa","67152"
"1102",-95.2475518,38.765734,"baldwin city, ks 66006, usa","66006"
"1103",-95.85121,39.013101,"topeka, ks 66614, usa","66614"
"1104",-94.6295394,38.9950997,"prairie village, ks 66208, usa","66208"
"1105",-97.4327273,37.7071863,"wichita, ks 67212, usa","67212"
"1106",-96.2800864,38.9440352,"alma, ks 66401, usa","66401"
"1107",-101.7979613,39.7877848,"st francis, ks 67756, usa","67756"
"1108",-98.0465185,39.4559255,"beloit, ks 67420, usa","67420"
"1109",-96.642433,39.8528438,"marysville, ks 66508, usa","66508"
"1110",-97.1359377,39.3092773,"clay center, ks 67432, usa","67432"
"1111",-94.7174062,37.5553183,"arma, ks 66712, usa","66712"
"1112",-98.5281613,38.3007812,"ellinwood, ks 67526, usa","67526"
"1113",-94.8728093,38.9071042,"olathe, ks 66061, usa","66061"
"1114",-100.5296115,39.9109261,"oberlin, ks 67749, usa","67749"
"1115",-97.394882,37.2799199,"wellington, ks 67152, usa","67152"
"1116",-96.3013432,39.2540853,"wamego, ks 66547, usa","66547"
"1117",-95.8564864,38.6323834,"osage city, ks 66523, usa","66523"
"1118",-101.7979613,39.2982189,"goodland, ks 67735, usa","67735"
"1119",-94.70189,37.4654895,"frontenac, ks 66763, usa","66763"
"1120",-101.1164452,39.8150561,"atwood, ks 67730, usa","67730"
"1121",-99.3229213,38.5740046,"la crosse, ks 67548, usa","67548"
"1122",-95.7510475,38.1970642,"burlington, ks 66839, usa","66839"
"1123",-96.1314928,39.675725,"centralia, ks 66415, usa","66415"
"1124",-95.8564864,39.8746947,"sabetha, ks 66534, usa","66534"
"1125",-100.0359661,37.7614526,"dodge city, ks 67801, usa","67801"
"1126",-97.9429421,38.032412,"south hutchinson, ks 67505, usa","67505"
"1127",-97.654811,38.3611897,"mcpherson, ks 67460, usa","67460"
"1128",-97.9374948,38.1116209,"hutchinson, ks 67502, usa","67502"
"1129",-94.7691586,37.8397637,"fort scott, ks 66701, usa","66701"
"1130",-97.286868,38.0697247,"newton, ks 67114, usa","67114"
"1131",-97.4489531,38.1331638,"hesston, ks 67062, usa","67062"
"1132",-97.2221421,38.304838,"hillsboro, ks 67063, usa","67063"
"1133",-95.7721204,37.8795813,"yates center, ks 66783, usa","66783"
"1134",-95.0390536,37.0405608,"chetopa, ks 67336, usa","67336"
"1135",-95.9621106,39.1476313,"rossville, ks 66533, usa","66533"
"1136",-97.8068851,37.6565287,"cheney, ks 67025, usa","67025"
"1137",-94.9143239,39.0718795,"bonner springs, ks 66012, usa","66012"
"1138",-97.3489551,38.0737456,"north newton, ks 67117, usa","67117"
"1139",-97.3462545,38.2394213,"goessel, ks 67053, usa","67053"
"1140",-97.7634019,38.1232781,"buhler, ks 67522, usa","67522"
"1141",-97.9374948,38.1116209,"hutchinson, ks 67502, usa","67502"
"1142",-97.8068851,38.2463541,"inman, ks 67546, usa","67546"
"1143",-97.276076,37.701103,"wichita, ks 67208, usa","67208"
"1144",-98.704075,39.3672748,"osborne, ks 67473, usa","67473"
"1145",-97.2113605,37.7685329,"wichita, ks 67226, usa","67226"
"1146",-95.1223608,39.3532738,"easton, ks 66020, usa","66020"
"1147",-95.2475518,39.8833139,"highland, ks 66035, usa","66035"
"1148",-94.8520636,38.5945886,"paola, ks 66071, usa","66071"
"1149",-97.5680595,38.1990675,"moundridge, ks 67107, usa","67107"
"1150",-95.2684437,37.3084425,"parsons, ks 67357, usa","67357"
"1151",-95.2684437,37.3084425,"parsons, ks 67357, usa","67357"
"1152",-96.4503434,39.679008,"frankfort, ks 66427, usa","66427"
"1153",-95.6405374,39.0442537,"topeka, ks 66607, usa","66607"
"1154",-98.1775638,38.9924325,"lincoln, ks 67455, usa","67455"
"1155",-97.654811,39.5235794,"concordia, ks 66901, usa","66901"
"1156",-97.654811,39.5235794,"concordia, ks 66901, usa","66901"
"1157",-97.654811,38.8619254,"salina, ks 67401, usa","67401"
"1158",-96.9853474,37.6657771,"augusta, ks 67010, usa","67010"
"1159",-94.8313257,38.741877,"spring hill, ks 66083, usa","66083"
"1160",-96.0467429,39.8444339,"seneca, ks 66538, usa","66538"
"1161",-100.7097867,38.0792424,"garden city, ks 67846, usa","67846"
"1162",-95.1849219,38.2444523,"garnett, ks 66032, usa","66032"
"1163",-95.1223608,37.1653694,"oswego, ks 67356, usa","67356"
"1164",-95.7089241,39.4500064,"holton, ks 66436, usa","66436"
"1165",-96.2800864,37.5145194,"howard, ks 67349, usa","67349"
"1166",-97.654811,38.3611897,"mcpherson, ks 67460, usa","67460"
"1167",-96.0467429,39.8444339,"seneca, ks 66538, usa","66538"
"1168",-94.9143239,37.5153954,"girard, ks 66743, usa","66743"
"1169",-94.6398693,38.9009431,"leawood, ks 66209, usa","66209"
"1170",-95.435853,37.6413234,"chanute, ks 66720, usa","66720"
"1171",-95.2057909,38.4326732,"richmond, ks 66080, usa","66080"
"1172",-95.3730176,38.9684867,"lawrence, ks 66049, usa","66049"
"1173",-97.5044752,38.0019199,"halstead, ks 67056, usa","67056"
"1174",-94.8728093,38.9071042,"olathe, ks 66061, usa","66061"
"1175",-97.2005806,37.2280324,"oxford, ks 67119, usa","67119"
"1176",-97.0713572,37.9564985,"whitewater, ks 67154, usa","67154"
"1177",-97.2814718,37.6637319,"wichita, ks 67218, usa","67218"
"1178",-97.5030669,37.5068018,"clearwater, ks 67026, usa","67026"
"1179",-96.0891032,38.8500753,"eskridge, ks 66423, usa","66423"
"1180",-97.2437105,37.4805733,"mulvane, ks 67110, usa","67110"
"1181",-97.0498442,38.1473117,"peabody, ks 66866, usa","66866"
"1182",-100.8451467,37.0980943,"liberal, ks 67901, usa","67901"
"1183",-94.6657027,37.1414228,"galena, ks 66739, usa","66739"
"1184",-95.85121,39.013101,"topeka, ks 66614, usa","66614"
"1185",-95.7721204,37.1996252,"independence, ks 67301, usa","67301"
"1186",-94.7070616,37.3960411,"pittsburg, ks 66762, usa","66762"
"1187",-97.3678624,37.7006858,"wichita, ks 67203, usa","67203"
"1188",-97.286868,38.0697247,"newton, ks 67114, usa","67114"
"1189",-95.1640605,37.5047589,"st paul, ks 66771, usa","66771"
"1190",-94.7898731,37.0508633,"baxter springs, ks 66713, usa","66713"
"1191",-96.4503434,39.4319021,"westmoreland, ks 66549, usa","66549"
"1192",-94.9662608,38.9552537,"de soto, ks 66018, usa","66018"
"1193",-97.8068851,39.3693101,"glasco, ks 67445, usa","67445"
"1194",-97.0283383,38.9637077,"chapman, ks 67431, usa","67431"
"1195",-97.1036396,38.8864092,"enterprise, ks 67441, usa","67441"
"1196",-96.8565427,39.3880252,"leonardville, ks 66449, usa","66449"
"1197",-94.7381013,39.0063606,"shawnee, ks 66216, usa","66216"
"1198",-99.5896043,39.7075249,"logan, ks 67646, usa","67646"
"1199",-97.6765157,37.8341526,"mt hope, ks 67108, usa","67108"
"1200",-97.2221421,38.304838,"hillsboro, ks 67063, usa","67063"
"1201",-97.3678624,37.6689444,"wichita, ks 67213, usa","67213"
"1202",-96.9638624,37.2208916,"winfield, ks 67156, usa","67156"
"1203",-97.9810845,37.7716511,"pretty prairie, ks 67570, usa","67570"
"1204",-96.8779926,38.6603432,"herington, ks 67449, usa","67449"
"1205",-94.8728093,38.9071042,"olathe, ks 66061, usa","66061"
"1206",-97.3732655,39.5623779,"clyde, ks 66938, usa","66938"
"1207",-97.1144039,39.7018095,"linn, ks 66953, usa","66953"
"1208",-98.7921836,37.6081704,"pratt, ks 67124, usa","67124"
"1209",-97.8939317,38.5752516,"marquette, ks 67464, usa","67464"
"1210",-99.3229213,38.9062422,"hays, ks 67601, usa","67601"
"1211",-94.6295394,38.9950997,"prairie village, ks 66208, usa","66208"
"1212",-99.5896043,37.5458109,"bucklin, ks 67834, usa","67834"
"1213",-97.4327273,37.6648693,"wichita, ks 67209, usa","67209"
"1214",-95.0806918,38.8982572,"eudora, ks 66025, usa","66025"
"1215",-94.7898731,38.8271089,"olathe, ks 66062, usa","66062"
"1216",-97.633113,37.413571,"conway springs, ks 67031, usa","67031"
"1217",-98.0465185,39.4559255,"beloit, ks 67420, usa","67420"
"1218",-99.9465077,39.8405985,"norton, ks 67654, usa","67654"
"1219",-97.6765157,38.5897428,"lindsborg, ks 67456, usa","67456"
"1220",-95.5197394,39.8911985,"hiawatha, ks 66434, usa","66434"
"1221",-97.9810845,38.3184485,"little river, ks 67457, usa","67457"
"1222",-95.7721204,37.1996252,"independence, ks 67301, usa","67301"
"1223",-97.0713572,39.8274718,"washington, ks 66968, usa","66968"
"1224",-99.9395226,37.7367902,"fort dodge, ks 67843, usa","67843"
"1225",-97.2005806,37.568069,"derby, ks 67037, usa","67037"
"1226",-99.9465077,38.9372767,"wakeeney, ks 67672, usa","67672"
"1227",-96.9638624,37.2208916,"winfield, ks 67156, usa","67156"
"1228",-94.6398693,38.9009431,"leawood, ks 66209, usa","66209"
"1229",-97.633113,39.8327687,"belleville, ks 66935, usa","66935"
"1230",-94.6657027,38.0764935,"prescott, ks 66767, usa","66767"
"1231",-97.1144039,37.700398,"andover, ks 67002, usa","67002"
"1232",-98.090174,37.5739154,"kingman, ks 67068, usa","67068"
"1233",-98.8142264,38.3423212,"great bend, ks 67530, usa","67530"
"1234",-95.7247169,39.0401557,"topeka, ks 66604, usa","66604"
"1235",-101.7979613,38.9697127,"sharon springs, ks 67758, usa","67758"
"1236",-100.8903099,38.562531,"scott city, ks 67871, usa","67871"
"1237",-100.2151578,37.4085574,"fowler, ks 67844, usa","67844"
"1238",-97.2329255,37.7037608,"wichita, ks 67206, usa","67206"
"1239",-100.4846227,37.5536789,"montezuma, ks 67867, usa","67867"
"1240",-98.7921836,38.0296026,"st john, ks 67576, usa","67576"
"1241",-98.6005445,37.9624578,"stafford, ks 67578, usa","67578"
"1242",-95.1640605,39.5167357,"atchison, ks 66002, usa","66002"
"1243",-97.1682514,37.7500219,"wichita, ks 67228, usa","67228"
"1244",-94.9039424,39.2487605,"lansing, ks 66043, usa","66043"
"1245",-97.3678624,37.6689444,"wichita, ks 67213, usa","67213"
"1246",-99.3229213,38.9062422,"hays, ks 67601, usa","67601"
"1247",-99.2785583,39.8554659,"phillipsburg, ks 67661, usa","67661"
"1248",-97.4056928,37.7564665,"wichita, ks 67205, usa","67205"
"1249",-94.6760395,38.8630091,"overland park, ks 66223, usa","66223"
"1250",-94.6398693,38.9530417,"overland park, ks 66207, usa","66207"
"1251",-97.3678624,37.7006858,"wichita, ks 67203, usa","67203"
"1252",-94.6295394,39.0575219,"kansas city, ks 66103, usa","66103"
"1253",-98.352656,37.6402065,"cunningham, ks 67035, usa","67035"
"1254",-95.5407299,39.6642579,"horton, ks 66439, usa","66439"
"1255",-95.7247169,39.0609319,"topeka, ks 66606, usa","66606"
"1256",-94.7381013,38.9647235,"lenexa, ks 66215, usa","66215"
"1257",-101.7979613,38.1411222,"syracuse, ks 67878, usa","67878"
"1258",-98.7921836,39.7709532,"smith center, ks 66967, usa","66967"
"1259",-99.9465077,38.9372767,"wakeeney, ks 67672, usa","67672"
"1260",-97.0498442,38.3991825,"marion, ks 66861, usa","66861"
"1261",-100.5296115,39.9109261,"oberlin, ks 67749, usa","67749"
"1262",-99.8124935,37.1462282,"ashland, ks 67831, usa","67831"
"1263",-101.4339148,38.5102583,"leoti, ks 67861, usa","67861"
"1264",-99.9465077,38.6886731,"ransom, ks 67572, usa","67572"
"1265",-100.3048897,37.1466313,"meade, ks 67864, usa","67864"
"1266",-99.5006143,37.1292859,"protection, ks 67127, usa","67127"
"1267",-99.3229213,38.5740046,"la crosse, ks 67548, usa","67548"
"1268",-99.0571089,37.6725351,"haviland, ks 67059, usa","67059"
"1269",-101.2523792,37.5245985,"ulysses, ks 67880, usa","67880"
"1270",-101.7979613,38.4738028,"tribune, ks 67879, usa","67879"
"1271",-101.0711758,39.3702882,"colby, ks 67701, usa","67701"
"1272",-100.2151578,38.9965725,"quinter, ks 67752, usa","67752"
"1273",-99.3229213,39.2367791,"plainville, ks 67663, usa","67663"
"1274",-97.0498442,38.1473117,"peabody, ks 66866, usa","66866"
"1275",-96.0891032,39.2239661,"st marys, ks 66536, usa","66536"
"1276",-95.6720907,39.0842713,"topeka, ks 66608, usa","66608"
"1277",-95.2475518,39.3477038,"winchester, ks 66097, usa","66097"
"1278",-101.0033112,37.4850554,"satanta, ks 67870, usa","67870"
"1279",-97.7416703,39.1051078,"minneapolis, ks 67467, usa","67467"
"1280",-100.3497895,38.4456222,"dighton, ks 67839, usa","67839"
"1281",-100.3947116,39.3921705,"hoxie, ks 67740, usa","67740"
"1282",-101.6612934,37.5266566,"johnson city, ks 67855, usa","67855"
"1283",-99.8571416,39.274906,"hill city, ks 67642, usa","67642"
"1284",-97.5680595,38.1990675,"moundridge, ks 67107, usa","67107"
"1285",-99.9465077,37.4316069,"minneola, ks 67865, usa","67865"
"1286",-95.624767,38.3713564,"waverly, ks 66871, usa","66871"
"1287",-100.3048897,37.9900677,"cimarron, ks 67835, usa","67835"
"1288",-101.9348069,37.0772045,"elkhart, ks 67950, usa","67950"
"1289",-95.6405374,39.0442537,"topeka, ks 66607, usa","66607"
"1290",-101.2977322,38.0655476,"lakin, ks 67860, usa","67860"
"1291",-98.2869478,37.2419952,"attica, ks 67009, usa","67009"
"1292",-101.2977322,37.1402172,"hugoton, ks 67951, usa","67951"
"1293",-95.1849219,38.2444523,"garnett, ks 66032, usa","66032"
"1294",-99.2342196,37.1504369,"coldwater, ks 67029, usa","67029"
"1295",-95.1640605,39.5167357,"atchison, ks 66002, usa","66002"
"1296",-96.9638624,37.2208916,"winfield, ks 67156, usa","67156"
"1297",-95.435853,39.3183799,"valley falls, ks 66088, usa","66088"
"1298",-98.4853417,37.0171881,"kiowa, ks 67070, usa","67070"
"1299",-95.9198387,37.0427421,"caney, ks 67333, usa","67333"
"1300",-100.8451467,39.0218133,"oakley, ks 67748, usa","67748"
"1301",-98.8803925,38.857973,"russell, ks 67665, usa","67665"
"1302",-99.9465077,38.3557294,"ness city, ks 67560, usa","67560"
"1303",-99.9912254,38.1429747,"jetmore, ks 67854, usa","67854"
"1304",-97.3678624,37.7006858,"wichita, ks 67203, usa","67203"
"1305",-98.090174,37.1492298,"anthony, ks 67003, usa","67003"
"1306",-95.4149003,37.9599544,"iola, ks 66749, usa","66749"
"1307",-99.3229213,39.4835551,"stockton, ks 67669, usa","67669"
"1308",-94.8728093,38.9071042,"olathe, ks 66061, usa","66061"
"1309",-94.7898731,38.8271089,"olathe, ks 66062, usa","66062"
"1310",-90.5771493,38.6633659,"chesterfield, mo 63017, usa","63017"
"1311",-92.086133,37.1718715,"cabool, mo 65689, usa","65689"
"1312",-90.5771493,38.6633659,"chesterfield, mo 63017, usa","63017"
"1313",-92.7580701,38.0097583,"camdenton, mo 65020, usa","65020"
"1314",-94.4284985,38.9143473,"lee's summit, mo 64081, usa","64081"
"1315",-90.5771493,38.6633659,"chesterfield, mo 63017, usa","63017"
"1316",-91.4241426,39.705018,"hannibal, mo 63401, usa","63401"
"1317",-94.3359635,37.8352892,"nevada, mo 64772, usa","64772"
"1318",-90.3465971,38.8095735,"florissant, mo 63031, usa","63031"
"1319",-90.4691097,38.8405221,"st charles, mo 63301, usa","63301"
"1320",-90.3465971,38.8095735,"florissant, mo 63031, usa","63031"
"1321",-90.5771493,38.6633659,"chesterfield, mo 63017, usa","63017"
"1322",-92.6586401,37.7364113,"lebanon, mo 65536, usa","65536"
"1323",-90.4927134,38.5522581,"valley park, mo 63088, usa","63088"
"1324",-92.1155691,37.8216933,"st robert, mo 65584, usa","65584"
"1325",-90.417231,38.531543,"st. louis, mo 63127, usa","63127"
"1326",-90.6204165,38.5043782,"eureka, mo 63025, usa","63025"
"1327",-89.5403279,37.2856186,"cape girardeau, mo 63703, usa","63703"
"1328",-94.5521274,39.0345609,"kansas city, mo 64130, usa","64130"
"1329",-93.2181477,38.6508007,"sedalia, mo 65301, usa","65301"
"1330",-91.8708613,36.7242055,"west plains, mo 65775, usa","65775"
"1331",-90.5771493,38.6633659,"chesterfield, mo 63017, usa","63017"
"1332",-93.3288183,37.1756964,"springfield, mo 65807, usa","65807"
"1333",-90.5446912,37.8287491,"park hills, mo 63601, usa","63601"
"1334",-90.3513021,38.5842641,"st. louis, mo 63119, usa","63119"
"1335",-90.4691097,38.8405221,"st charles, mo 63301, usa","63301"
"1336",-93.3892894,37.1953893,"springfield, mo 65802, usa","65802"
"1337",-92.4208713,39.750404,"macon, mo 63552, usa","63552"
"1338",-91.8708613,36.7242055,"west plains, mo 65775, usa","65775"
"1339",-89.2847251,36.9089617,"charleston, mo 63834, usa","63834"
"1340",-90.554149,38.7250374,"st charles, mo 63303, usa","63303"
"1341",-94.5779191,38.9450668,"kansas city, mo 64131, usa","64131"
"1342",-90.0559939,36.241375,"kennett, mo 63857, usa","63857"
"1343",-92.9175955,39.677195,"marceline, mo 64658, usa","64658"
"1344",-90.5771493,38.6633659,"chesterfield, mo 63017, usa","63017"
"1345",-92.6685736,38.1280947,"osage beach, mo 65065, usa","65065"
"1346",-90.2526163,38.7470186,"st. louis, mo 63136, usa","63136"
"1347",-94.52,37.11,"joplin, mo 64803, usa","64803"
"1348",-92.6685736,38.1280947,"osage beach, mo 65065, usa","65065"
"1349",-91.0394635,38.7950192,"wright city, mo 63390, usa","63390"
"1350",-93.7232005,37.0032977,"aurora, mo 65605, usa","65605"
"1351",-89.5403279,37.2856186,"cape girardeau, mo 63703, usa","63703"
"1352",-93.2483058,37.1565149,"springfield, mo 65804, usa","65804"
"1353",-90.4879916,36.7378524,"poplar bluff, mo 63901, usa","63901"
"1354",-90.6204165,38.5043782,"eureka, mo 63025, usa","63025"
"1355",-92.5792482,40.1575874,"kirksville, mo 63501, usa","63501"
"1356",-94.5985613,39.0587452,"kansas city, mo 64111, usa","64111"
"1357",-92.4208713,39.750404,"macon, mo 63552, usa","63552"
"1358",-91.0394635,38.5434439,"washington, mo 63090, usa","63090"
"1359",-90.4879916,36.7378524,"poplar bluff, mo 63901, usa","63901"
"1360",-92.2433487,38.5686223,"jefferson city, mo 65109, usa","65109"
"1361",-89.5120084,36.6515743,"new madrid, mo 63869, usa","63869"
"1362",-89.8317729,36.1109624,"steele, mo 63877, usa","63877"
"1363",-90.3983829,38.2579063,"herculaneum, mo 63048, usa","63048"
"1364",-91.6158745,37.9993765,"st james, mo 65559, usa","65559"
"1365",-93.561026,36.9224038,"crane, mo 65633, usa","65633"
"1366",-90.4408037,38.767401,"bridgeton, mo 63044, usa","63044"
"1367",-91.5789994,39.7854554,"palmyra, mo 63461, usa","63461"
"1368",-93.1378173,40.2256155,"milan, mo 63556, usa","63556"
"1369",-93.318747,37.9529932,"hermitage, mo 65668, usa","65668"
"1370",-93.1177555,37.6189071,"buffalo, mo 65622, usa","65622"
"1371",-91.4821482,36.5570174,"thayer, mo 65791, usa","65791"
"1372",-92.5792482,40.1575874,"kirksville, mo 63501, usa","63501"
"1373",-91.949021,38.1738674,"vienna, mo 65582, usa","65582"
"1374",-92.3128326,39.0013395,"columbia, mo 65202, usa","65202"
"1375",-94.2743628,37.5189552,"lamar, mo 64759, usa","64759"
"1376",-92.7381672,36.8796799,"ava, mo 65608, usa","65608"
"1377",-93.7841503,38.3820458,"clinton, mo 64735, usa","64735"
"1378",-90.8865834,37.6566305,"belleview, mo 63623, usa","63623"
"1379",-94.3770704,36.852261,"neosho, mo 64850, usa","64850"
"1380",-94.356513,38.2780695,"butler, mo 64730, usa","64730"
"1381",-91.714958,37.8387943,"rolla, mo 65401, usa","65401"
"1382",-92.2433487,38.5686223,"jefferson city, mo 65109, usa","65109"
"1383",-93.4296446,36.6357425,"kimberling city, mo 65686, usa","65686"
"1384",-93.3288183,37.1756964,"springfield, mo 65807, usa","65807"
"1385",-93.4599326,39.393751,"carrollton, mo 64633, usa","64633"
"1386",-90.4785495,38.6624944,"st. louis, mo 63141, usa","63141"
"1387",-92.3128326,39.0013395,"columbia, mo 65202, usa","65202"
"1388",-94.5985613,38.9546734,"kansas city, mo 64114, usa","64114"
"1389",-94.5108862,37.1794866,"webb city, mo 64870, usa","64870"
"1390",-94.5727598,39.282939,"kansas city, mo 64155, usa","64155"
"1391",-94.5005808,37.0193161,"joplin, mo 64804, usa","64804"
"1392",-90.3842527,38.4948766,"st. louis, mo 63128, usa","63128"
"1393",-92.4208713,36.6280715,"gainesville, mo 65655, usa","65655"
"1394",-90.4596721,38.7254453,"maryland heights, mo 63043, usa","63043"
"1395",-90.8579818,38.8069481,"wentzville, mo 63385, usa","63385"
"1396",-94.2948884,37.1981868,"carthage, mo 64836, usa","64836"
"1397",-90.7342734,38.8809704,"o'fallon, mo 63366, usa","63366"
"1398",-93.318747,37.0581529,"nixa, mo 65714, usa","65714"
"1399",-90.403094,38.4317165,"arnold, mo 63010, usa","63010"
"1400",-90.2901815,38.7888018,"florissant, mo 63033, usa","63033"
"1401",-93.5205641,37.1380586,"republic, mo 65738, usa","65738"
"1402",-91.714958,37.8387943,"rolla, mo 65401, usa","65401"
"1403",-92.4208713,39.4199303,"moberly, mo 65270, usa","65270"
"1404",-90.3842527,38.4948766,"st. louis, mo 63128, usa","63128"
"1405",-91.2698475,38.876393,"jonesburg, mo 63351, usa","63351"
"1406",-91.949021,36.981149,"willow springs, mo 65793, usa","65793"
"1407",-94.8022232,39.7898725,"st joseph, mo 64506, usa","64506"
"1408",-90.7342734,38.5037223,"pacific, mo 63069, usa","63069"
"1409",-90.5771493,38.6633659,"chesterfield, mo 63017, usa","63017"
"1410",-94.4490836,39.0177186,"kansas city, mo 64133, usa","64133"
"1411",-91.0203224,38.1855633,"sullivan, mo 63080, usa","63080"
"1412",-90.2901815,38.7888018,"florissant, mo 63033, usa","63033"
"1413",-90.4785495,38.6624944,"st. louis, mo 63141, usa","63141"
"1414",-90.4408037,38.767401,"bridgeton, mo 63044, usa","63044"
"1415",-93.7841503,38.3820458,"clinton, mo 64735, usa","64735"
"1416",-90.4125181,37.7655626,"farmington, mo 63640, usa","63640"
"1417",-94.3359635,38.6357514,"harrisonville, mo 64701, usa","64701"
"1418",-90.266699,38.5844866,"st. louis, mo 63116, usa","63116"
"1419",-90.5352356,38.557323,"ballwin, mo 63021, usa","63021"
"1420",-94.2538452,39.7184481,"cameron, mo 64429, usa","64429"
"1421",-94.8728093,40.349238,"maryville, mo 64468, usa","64468"
"1422",-94.5315029,38.8895526,"grandview, mo 64030, usa","64030"
"1423",-94.2128337,39.3068524,"excelsior springs, mo 64024, usa","64024"
"1424",-93.8451731,39.1535288,"lexington, mo 64067, usa","64067"
"1425",-89.5403279,37.2856186,"cape girardeau, mo 63703, usa","63703"
"1426",-91.5596117,40.1757481,"canton, mo 63435, usa","63435"
"1427",-92.7381672,38.9139378,"boonville, mo 65233, usa","65233"
"1428",-94.3359635,38.6357514,"harrisonville, mo 64701, usa","64701"
"1429",-91.0203224,36.906743,"van buren, mo 63965, usa","63965"
"1430",-91.7733566,38.4505956,"linn, mo 65051, usa","65051"
"1431",-90.2901815,38.8515561,"florissant, mo 63034, usa","63034"
"1432",-94.5727598,39.220735,"kansas city, mo 64118, usa","64118"
"1433",-89.9813445,36.7604012,"dexter, mo 63841, usa","63841"
"1434",-91.4821482,36.9018995,"birch tree, mo 65438, usa","65438"
"1435",-90.3936722,38.1259347,"festus, mo 63028, usa","63028"
"1436",-92.2433487,37.8087252,"waynesville, mo 65583, usa","65583"
"1437",-91.0394635,38.5434439,"washington, mo 63090, usa","63090"
"1438",-94.4284985,38.9143473,"lee's summit, mo 64081, usa","64081"
"1439",-90.25731,38.647459,"st. louis, mo 63108, usa","63108"
"1440",-94.6295394,39.1718041,"riverside, mo 64150, usa","64150"
"1441",-93.561026,37.7763747,"humansville, mo 65674, usa","65674"
"1442",-89.9813445,36.7604012,"dexter, mo 63841, usa","63841"
"1443",-89.5247581,37.3067825,"cape girardeau, mo 63701, usa","63701"
"1444",-89.9813445,36.5877934,"malden, mo 63863, usa","63863"
"1445",-92.1057549,39.2601347,"centralia, mo 65240, usa","65240"
"1446",-89.5874819,36.9103926,"sikeston, mo 63801, usa","63801"
"1447",-90.1682271,36.1544228,"senath, mo 63876, usa","63876"
"1448",-90.4125181,37.7655626,"farmington, mo 63640, usa","63640"
"1449",-91.0011902,38.4176258,"union, mo 63084, usa","63084"
"1450",-90.2854839,38.65788,"st. louis, mo 63112, usa","63112"
"1451",-93.238251,36.6734189,"branson, mo 65616, usa","65616"
"1452",-93.3892894,37.1953893,"springfield, mo 65802, usa","65802"
"1453",-90.4596721,38.494606,"fenton, mo 63026, usa","63026"
"1454",-92.5594214,38.6041231,"california, mo 65018, usa","65018"
"1455",-91.5402327,39.081776,"wellsville, mo 63384, usa","63384"
"1456",-91.8708613,36.7242055,"west plains, mo 65775, usa","65775"
"1457",-90.3936722,38.1259347,"festus, mo 63028, usa","63028"
"1458",-90.3465971,38.8095735,"florissant, mo 63031, usa","63031"
"1459",-94.4542311,39.0747341,"independence, mo 64052, usa","64052"
"1460",-93.0375914,39.7977118,"brookfield, mo 64628, usa","64628"
"1461",-92.2630393,37.1472142,"mountain grove, mo 65711, usa","65711"
"1462",-92.4208713,39.4199303,"moberly, mo 65270, usa","65270"
"1463",-89.8692203,36.4580062,"gideon, mo 63848, usa","63848"
"1464",-93.9266502,36.9109144,"monett, mo 65708, usa","65708"
"1465",-93.1980527,36.5882363,"hollister, mo 65672, usa","65672"
"1466",-91.714958,36.9847466,"mountain view, mo 65548, usa","65548"
"1467",-90.5771493,38.6633659,"chesterfield, mo 63017, usa","63017"
"1468",-91.2313618,38.5415904,"new haven, mo 63068, usa","63068"
"1469",-90.7152749,37.1665844,"piedmont, mo 63957, usa","63957"
"1470",-90.2901815,38.5161654,"st. louis, mo 63125, usa","63125"
"1471",-92.1057549,38.0020359,"dixon, mo 65459, usa","65459"
"1472",-91.1736994,39.2732095,"bowling green, mo 63334, usa","63334"
"1473",-93.5913939,39.2135346,"waverly, mo 64096, usa","64096"
"1474",-91.5789994,39.4964568,"center, mo 63436, usa","63436"
"1475",-94.4696765,38.9752926,"kansas city, mo 64138, usa","64138"
"1476",-90.2948797,38.6159025,"st. louis, mo 63139, usa","63139"
"1477",-92.6586401,37.7364113,"lebanon, mo 65536, usa","65536"
"1478",-92.6685736,38.1280947,"osage beach, mo 65065, usa","65065"
"1479",-90.6488505,38.3674615,"cedar hill, mo 63016, usa","63016"
"1480",-93.7638256,38.1509808,"lowry city, mo 64763, usa","64763"
"1481",-90.9438468,39.0255853,"troy, mo 63379, usa","63379"
"1482",-91.8903882,38.7006493,"mokane, mo 65059, usa","65059"
"1483",-94.3770704,39.2593487,"liberty, mo 64068, usa","64068"
"1484",-89.6628111,37.4249656,"jackson, mo 63755, usa","63755"
"1485",-90.3301342,38.6446552,"st. louis, mo 63105, usa","63105"
"1486",-91.3083685,38.4146113,"gerald, mo 63037, usa","63037"
"1487",-90.4879916,36.7378524,"poplar bluff, mo 63901, usa","63901"
"1488",-94.028678,40.279759,"bethany, mo 64424, usa","64424"
"1489",-94.4696765,38.9752926,"kansas city, mo 64138, usa","64138"
"1490",-94.028678,37.782571,"el dorado springs, mo 64744, usa","64744"
"1491",-94.5005808,36.6756029,"anderson, mo 64831, usa","64831"
"1492",-90.4879916,36.7378524,"poplar bluff, mo 63901, usa","63901"
"1493",-89.9440061,36.9325964,"bloomfield, mo 63825, usa","63825"
"1494",-93.8044831,37.1293121,"mt vernon, mo 65712, usa","65712"
"1495",-94.5418141,39.3773395,"smithville, mo 64089, usa","64089"
"1496",-93.3993751,37.3554104,"willard, mo 65781, usa","65781"
"1497",-94.3462373,39.0632021,"independence, mo 64057, usa","64057"
"1498",-90.4643906,38.6887567,"st. louis, mo 63146, usa","63146"
"1499",-93.8691413,36.6772411,"cassville, mo 65625, usa","65625"
"1500",-91.4241426,39.705018,"hannibal, mo 63401, usa","63401"
"1501",-94.5186165,39.116435,"kansas city, mo 64123, usa","64123"
"1502",-93.1980527,36.9756433,"ozark, mo 65721, usa","65721"
"1503",-93.7841503,37.7057536,"stockton, mo 65785, usa","65785"
"1504",-94.2128337,36.9440683,"granby, mo 64844, usa","64844"
"1505",-91.4241426,39.705018,"hannibal, mo 63401, usa","63401"
"1506",-91.9685826,37.3022868,"houston, mo 65483, usa","65483"
"1507",-93.1177555,37.6189071,"buffalo, mo 65622, usa","65622"
"1508",-90.9820668,37.2075291,"ellington, mo 63638, usa","63638"
"1509",-93.1880083,37.1795562,"springfield, mo 65809, usa","65809"
"1510",-91.7928402,40.0904834,"lewistown, mo 63452, usa","63452"
"1511",-93.2986106,37.294172,"springfield, mo 65803, usa","65803"
"1512",-94.4593791,38.7984122,"raymore, mo 64083, usa","64083"
"1513",-93.3892894,37.1953893,"springfield, mo 65802, usa","65802"
"1514",-89.5874819,36.9103926,"sikeston, mo 63801, usa","63801"
"1515",-93.5407909,39.8040617,"chillicothe, mo 64601, usa","64601"
"1516",-91.8708613,39.1810112,"mexico, mo 65265, usa","65265"
"1517",-92.2433487,38.5686223,"jefferson city, mo 65109, usa","65109"
"1518",-91.7344155,40.3979176,"kahoka, mo 63445, usa","63445"
"1519",-90.4596721,38.7254453,"maryland heights, mo 63043, usa","63043"
"1520",-90.1869644,37.9359276,"ste. genevieve, mo 63670, usa","63670"
"1521",-94.3770704,39.2593487,"liberty, mo 64068, usa","64068"
"1522",-94.5830789,36.8015396,"seneca, mo 64865, usa","64865"
"1523",-89.6439924,37.1467674,"chaffee, mo 63740, usa","63740"
"1524",-94.3359635,37.8352892,"nevada, mo 64772, usa","64772"
"1525",-92.5792482,37.140779,"mansfield, mo 65704, usa","65704"
"1526",-91.0011902,38.3333922,"st clair, mo 63077, usa","63077"
"1527",-90.1120696,36.9970304,"puxico, mo 63960, usa","63960"
"1528",-92.332541,38.951674,"columbia, mo 65201, usa","65201"
"1529",-90.25731,38.647459,"st. louis, mo 63108, usa","63108"
"1530",-93.9470396,38.9628463,"odessa, mo 64076, usa","64076"
"1531",-89.5247581,37.3067825,"cape girardeau, mo 63701, usa","63701"
"1532",-90.9438468,36.6488463,"doniphan, mo 63935, usa","63935"
"1533",-94.5211935,40.2616012,"stanberry, mo 64489, usa","64489"
"1534",-93.2181477,39.0684813,"marshall, mo 65340, usa","65340"
"1535",-90.403094,38.4317165,"arnold, mo 63010, usa","63010"
"1536",-94.4490836,39.0177186,"kansas city, mo 64133, usa","64133"
"1537",-94.4284985,38.9143473,"lee's summit, mo 64081, usa","64081"
"1538",-94.3359635,38.6357514,"harrisonville, mo 64701, usa","64701"
"1539",-90.3371889,37.5103298,"fredericktown, mo 63645, usa","63645"
"1540",-90.9438468,37.9323059,"potosi, mo 63664, usa","63664"
"1541",-92.6387795,39.1454097,"fayette, mo 65248, usa","65248"
"1542",-90.4691097,38.8405221,"st charles, mo 63301, usa","63301"
"1543",-93.3993751,37.6536889,"bolivar, mo 65613, usa","65613"
"1544",-92.8976254,37.304634,"marshfield, mo 65706, usa","65706"
"1545",-91.4048249,37.5877447,"salem, mo 65560, usa","65560"
"1546",-92.7381672,38.9139378,"boonville, mo 65233, usa","65233"
"1547",-90.4596721,38.7254453,"maryland heights, mo 63043, usa","63043"
"1548",-90.2455769,38.6605914,"st. louis, mo 63113, usa","63113"
"1549",-92.8178291,39.4110222,"salisbury, mo 65281, usa","65281"
"1550",-92.8377656,38.429727,"versailles, mo 65084, usa","65084"
"1551",-90.2901815,38.7469318,"st. louis, mo 63135, usa","63135"
"1552",-92.15,38.5,"jefferson city, mo 65110, usa","65110"
"1553",-90.0559939,36.241375,"kennett, mo 63857, usa","63857"
"1554",-94.5521274,39.0345609,"kansas city, mo 64130, usa","64130"
"1555",-90.3418927,38.7415569,"st. louis, mo 63134, usa","63134"
"1556",-92.797901,39.2248465,"glasgow, mo 65254, usa","65254"
"1557",-92.4208713,39.4199303,"moberly, mo 65270, usa","65270"
"1558",-95.3311652,40.4510615,"tarkio, mo 64491, usa","64491"
"1559",-93.8691413,36.6772411,"cassville, mo 65625, usa","65625"
"1560",-90.5352356,38.557323,"ballwin, mo 63021, usa","63021"
"1561",-93.3993751,37.6536889,"bolivar, mo 65613, usa","65613"
"1562",-91.4821482,38.265078,"owensville, mo 65066, usa","65066"
"1563",-90.4125181,37.0822449,"greenville, mo 63944, usa","63944"
"1564",-89.5874819,36.9103926,"sikeston, mo 63801, usa","63801"
"1565",-89.6628111,36.3926615,"portageville, mo 63873, usa","63873"
"1566",-89.9106377,37.1044912,"advance, mo 63730, usa","63730"
"1567",-89.2847251,36.7367083,"east prairie, mo 63845, usa","63845"
"1568",-89.9813445,36.7604012,"dexter, mo 63841, usa","63841"
"1569",-89.9440061,37.3185806,"marble hill, mo 63764, usa","63764"
"1570",-91.0203224,38.1855633,"sullivan, mo 63080, usa","63080"
"1571",-92.5990835,38.3089601,"eldon, mo 65026, usa","65026"
"1572",-90.39,36.76,"poplar bluff, mo 63902, usa","63902"
"1573",-89.5874819,36.9103926,"sikeston, mo 63801, usa","63801"
"1574",-94.3359635,37.8352892,"nevada, mo 64772, usa","64772"
"1575",-93.3288183,37.1756964,"springfield, mo 65807, usa","65807"
"1576",-90.3371889,37.5103298,"fredericktown, mo 63645, usa","63645"
"1577",-94.356513,38.2780695,"butler, mo 64730, usa","64730"
"1578",-94.2743628,38.784423,"pleasant hill, mo 64080, usa","64080"
"1579",-93.3792057,38.2259245,"warsaw, mo 65355, usa","65355"
"1580",-93.6015207,37.3067351,"ash grove, mo 65604, usa","65604"
"1581",-93.8451731,37.4697717,"greenfield, mo 65661, usa","65661"
"1582",-93.561026,37.7763747,"humansville, mo 65674, usa","65674"
"1583",-91.714958,39.6804765,"monroe city, mo 63456, usa","63456"
"1584",-92.8976254,37.304634,"marshfield, mo 65706, usa","65706"
"1585",-90.3042778,38.6787998,"st. louis, mo 63133, usa","63133"
"1586",-94.3462373,39.0632021,"independence, mo 64057, usa","64057"
"1587",-91.714958,37.8387943,"rolla, mo 65401, usa","65401"
"1588",-91.949021,38.8461702,"fulton, mo 65251, usa","65251"
"1589",-91.1209121,37.7131454,"viburnum, mo 65566, usa","65566"
"1590",-90.4125181,37.7655626,"farmington, mo 63640, usa","63640"
"1591",-90.2197765,38.6999486,"st. louis, mo 63147, usa","63147"
"1592",-90.2526163,38.7470186,"st. louis, mo 63136, usa","63136"
"1593",-90.6298922,38.7874699,"st peters, mo 63376, usa","63376"
"1594",-92.027319,39.4274282,"paris, mo 65275, usa","65275"
"1595",-94.8728093,40.349238,"maryville, mo 64468, usa","64468"
"1596",-92.4801989,37.2927075,"hartville, mo 65667, usa","65667"
"1597",-93.6319131,37.0168425,"marionville, mo 65705, usa","65705"
"1598",-94.2589738,39.009186,"blue springs, mo 64014, usa","64014"
"1599",-94.5469705,38.9254358,"kansas city, mo 64137, usa","64137"
"1600",-93.0776568,39.4665514,"brunswick, mo 65236, usa","65236"
"1601",-92.2433487,39.7333551,"clarence, mo 63437, usa","63437"
"1602",-90.3513021,38.5842641,"st. louis, mo 63119, usa","63119"
"1603",-93.1077277,36.7307517,"forsyth, mo 65653, usa","65653"
"1604",-93.3993751,39.0008773,"sweet springs, mo 65351, usa","65351"
"1605",-90.3465971,38.8095735,"florissant, mo 63031, usa","63031"
"1606",-92.7381672,37.1372272,"seymour, mo 65746, usa","65746"
"1607",-89.9813445,36.5877934,"malden, mo 63863, usa","63863"
"1608",-90.2174318,38.629185,"st. louis, mo 63103, usa","63103"
"1609",-91.1161166,39.0865882,"silex, mo 63377, usa","63377"
"1610",-89.5874819,36.9103926,"sikeston, mo 63801, usa","63801"
"1611",-94.5418141,37.1034245,"joplin, mo 64801, usa","64801"
"1612",-92.3714428,38.9538484,"columbia, mo 65203, usa","65203"
"1613",-90.563609,38.1041034,"de soto, mo 63020, usa","63020"
"1614",-93.5407909,39.8040617,"chillicothe, mo 64601, usa","64601"
"1615",-91.4628042,38.8741442,"new florence, mo 63363, usa","63363"
"1616",-90.5771493,38.6633659,"chesterfield, mo 63017, usa","63017"
"1617",-95.1015225,39.992292,"oregon, mo 64473, usa","64473"
"1618",-91.8708613,37.4960542,"licking, mo 65542, usa","65542"
"1619",-94.2538452,39.7184481,"cameron, mo 64429, usa","64429"
"1620",-93.9266502,36.9109144,"monett, mo 65708, usa","65708"
"1621",-90.3089777,38.4530404,"st. louis, mo 63129, usa","63129"
"1622",-94.5985613,38.8817227,"kansas city, mo 64145, usa","64145"
"1623",-91.4821482,39.3527187,"vandalia, mo 63382, usa","63382"
"1624",-92.332541,38.951674,"columbia, mo 65201, usa","65201"
"1625",-94.8728093,40.349238,"maryville, mo 64468, usa","64468"
"1626",-93.0375914,39.7977118,"brookfield, mo 64628, usa","64628"
"1627",-93.7029002,38.7202457,"warrensburg, mo 64093, usa","64093"
"1628",-91.9685826,40.0671481,"la belle, mo 63447, usa","63447"
"1629",-94.3359635,38.6357514,"harrisonville, mo 64701, usa","64701"
"1630",-92.5594214,38.6041231,"california, mo 65018, usa","65018"
"1631",-94.0899911,37.0769995,"sarcoxie, mo 64862, usa","64862"
"1632",-91.4821482,38.6016779,"hermann, mo 65041, usa","65041"
"1633",-91.4241426,38.0757072,"cuba, mo 65453, usa","65453"
"1634",-90.3936722,38.1259347,"festus, mo 63028, usa","63028"
"1635",-92.9975593,38.3836964,"stover, mo 65078, usa","65078"
"1636",-93.1177555,37.2776839,"strafford, mo 65757, usa","65757"
"1637",-94.8022232,39.7898725,"st joseph, mo 64506, usa","64506"
"1638",-94.2948884,37.1981868,"carthage, mo 64836, usa","64836"
"1639",-91.949021,38.8461702,"fulton, mo 65251, usa","65251"
"1640",-93.1880083,37.1795562,"springfield, mo 65809, usa","65809"
"1641",-93.9674371,39.7285658,"hamilton, mo 64644, usa","64644"
"1642",-94.19234,39.4524847,"lawson, mo 64062, usa","64062"
"1643",-93.7232005,39.0326762,"higginsville, mo 64037, usa","64037"
"1644",-90.2479232,38.5635304,"st. louis, mo 63111, usa","63111"
"1645",-93.7029002,38.7202457,"warrensburg, mo 64093, usa","64093"
"1646",-91.4821482,38.265078,"owensville, mo 65066, usa","65066"
"1647",-90.2291565,38.5950619,"st. louis, mo 63118, usa","63118"
"1648",-91.1736994,37.9302463,"steelville, mo 65565, usa","65565"
"1649",-90.4125181,37.7655626,"farmington, mo 63640, usa","63640"
"1650",-92.2728877,38.2419294,"st elizabeth, mo 65075, usa","65075"
"1651",-90.1120696,36.5661383,"campbell, mo 63933, usa","63933"
"1652",-89.4553088,36.8883525,"bertrand, mo 63823, usa","63823"
"1653",-94.3770704,39.2593487,"liberty, mo 64068, usa","64068"
"1654",-90.2901815,38.7469318,"st. louis, mo 63135, usa","63135"
"1655",-90.9438468,37.9323059,"potosi, mo 63664, usa","63664"
"1656",-94.4079213,39.0608919,"independence, mo 64055, usa","64055"
"1657",-93.5205641,38.5372828,"windsor, mo 65360, usa","65360"
"1658",-93.2181477,39.0684813,"marshall, mo 65340, usa","65340"
"1659",-91.4241426,39.705018,"hannibal, mo 63401, usa","63401"
"1660",-94.3462373,39.0632021,"independence, mo 64057, usa","64057"
"1661",-92.027319,39.675462,"shelbina, mo 63468, usa","63468"
"1662",-94.7898731,39.3674116,"platte city, mo 64079, usa","64079"
"1663",-94.6347041,39.2804946,"kansas city, mo 64154, usa","64154"
"1664",-94.4593791,39.5871219,"plattsburg, mo 64477, usa","64477"
"1665",-90.2526163,38.6212468,"st. louis, mo 63110, usa","63110"
"1666",-94.3667907,38.9791799,"lee's summit, mo 64064, usa","64064"
"1667",-90.5068824,37.9561829,"bonne terre, mo 63628, usa","63628"
"1668",-90.9438468,39.0255853,"troy, mo 63379, usa","63379"
"1669",-90.3277829,38.5580845,"st. louis, mo 63123, usa","63123"
"1670",-89.8879304,37.681175,"perryville, mo 63775, usa","63775"
"1671",-93.9674371,37.4231108,"lockwood, mo 65682, usa","65682"
"1672",-93.4599326,39.393751,"carrollton, mo 64633, usa","64633"
"1673",-92.2039933,38.7789197,"ashland, mo 65010, usa","65010"
"1674",-93.9470396,39.3782878,"richmond, mo 64085, usa","64085"
"1675",-90.2113571,38.7479435,"st. louis, mo 63137, usa","63137"
"1676",-94.1718542,38.975881,"oak grove, mo 64075, usa","64075"
"1677",-90.4596721,38.494606,"fenton, mo 63026, usa","63026"
"1678",-90.2526163,38.7470186,"st. louis, mo 63136, usa","63136"
"1679",-92.4406387,38.2280266,"tuscumbia, mo 65082, usa","65082"
"1680",-90.563609,38.1041034,"de soto, mo 63020, usa","63020"
"1681",-93.6217802,40.0478765,"trenton, mo 64683, usa","64683"
"1682",-89.6628111,37.4249656,"jackson, mo 63755, usa","63755"
"1683",-90.2455769,38.6605914,"st. louis, mo 63113, usa","63113"
"1684",-93.7638256,39.5704071,"braymer, mo 64624, usa","64624"
"1685",-90.3042778,38.7102377,"st. louis, mo 63121, usa","63121"
"1686",-90.4643906,38.6887567,"st. louis, mo 63146, usa","63146"
"1687",-94.5521274,38.992935,"kansas city, mo 64132, usa","64132"
"1688",-93.2181477,38.6508007,"sedalia, mo 65301, usa","65301"
"1689",-94.4079213,39.1024788,"independence, mo 64050, usa","64050"
"1690",-94.5005808,40.0785549,"king city, mo 64463, usa","64463"
"1691",-93.9470396,39.8731968,"gallatin, mo 64640, usa","64640"
"1692",-93.6217802,40.0478765,"trenton, mo 64683, usa","64683"
"1693",-93.3288183,37.1756964,"springfield, mo 65807, usa","65807"
"1694",-90.3465971,38.7048818,"st. louis, mo 63114, usa","63114"
"1695",-90.3465971,38.7048818,"st. louis, mo 63114, usa","63114"
"1696",-90.5446912,37.8287491,"park hills, mo 63601, usa","63601"
"1697",-90.2057108,38.7994436,"st. louis, mo 63138, usa","63138"
"1698",-90.3230807,38.6682669,"st. louis, mo 63130, usa","63130"
"1699",-92.84471,38.21691,"laurie, mo 65038, usa","65038"
"1700",-92.7381672,38.9139378,"boonville, mo 65233, usa","65233"
"1701",-94.0082563,38.7311199,"holden, mo 64040, usa","64040"
"1702",-91.1161166,39.4604034,"louisiana, mo 63353, usa","63353"
"1703",-94.4593791,39.5871219,"plattsburg, mo 64477, usa","64477"
"1704",-90.1869644,37.9359276,"ste. genevieve, mo 63670, usa","63670"
"1705",-95.5407299,40.441216,"rock port, mo 64482, usa","64482"
"1706",-94.356513,39.9406627,"maysville, mo 64469, usa","64469"
"1707",-95.2475518,40.169783,"mound city, mo 64470, usa","64470"
"1708",-89.5247581,37.3067825,"cape girardeau, mo 63701, usa","63701"
"1709",-92.797901,38.6406162,"tipton, mo 65081, usa","65081"
"1710",-93.2986106,37.294172,"springfield, mo 65803, usa","65803"
"1711",-90.3936722,38.1259347,"festus, mo 63028, usa","63028"
"1712",-90.2479232,38.5635304,"st. louis, mo 63111, usa","63111"
"1713",-93.8044831,37.1293121,"mt vernon, mo 65712, usa","65712"
"1714",-93.1980527,36.9756433,"ozark, mo 65721, usa","65721"
"1715",-94.8416936,39.8291053,"st joseph, mo 64505, usa","64505"
"1716",-92.4208713,37.9112725,"richland, mo 65556, usa","65556"
"1717",-90.3089777,38.4530404,"st. louis, mo 63129, usa","63129"
"1718",-90.3465971,38.8095735,"florissant, mo 63031, usa","63031"
"1719",-94.5779191,38.9450668,"kansas city, mo 64131, usa","64131"
"1720",-94.2589738,39.009186,"blue springs, mo 64014, usa","64014"
"1721",-91.949021,38.8461702,"fulton, mo 65251, usa","65251"
"1722",-93.318747,38.375071,"lincoln, mo 65338, usa","65338"
"1723",-94.8022232,39.7898725,"st joseph, mo 64506, usa","64506"
"1724",-92.1646722,40.1455878,"edina, mo 63537, usa","63537"
"1725",-90.4219444,38.5787831,"st. louis, mo 63122, usa","63122"
"1726",-93.5685546,38.9833118,"concordia, mo 64020, usa","64020"
"1727",-90.5352356,38.557323,"ballwin, mo 63021, usa","63021"
"1728",-90.6488505,38.7036005,"st charles, mo 63304, usa","63304"
"1729",-94.5985613,39.0587452,"kansas city, mo 64111, usa","64111"
"1730",-94.5985613,39.0587452,"kansas city, mo 64111, usa","64111"
"1731",-93.2026843,38.4599495,"cole camp, mo 65325, usa","65325"
"1732",-89.6816208,36.154119,"caruthersville, mo 63830, usa","63830"
"1733",-90.563609,38.1041034,"de soto, mo 63020, usa","63020"
"1734",-94.356513,40.5121609,"grant city, mo 64456, usa","64456"
"1735",-89.5686271,36.7596241,"matthews, mo 63867, usa","63867"
"1736",-90.2901815,38.5161654,"st. louis, mo 63125, usa","63125"
"1737",-90.2057108,38.7994436,"st. louis, mo 63138, usa","63138"
"1738",-92.0959429,38.3926951,"westphalia, mo 65085, usa","65085"
"1739",-92.332541,38.951674,"columbia, mo 65201, usa","65201"
"1740",-92.6685736,38.1280947,"osage beach, mo 65065, usa","65065"
"1741",-94.3359635,38.3840056,"adrian, mo 64720, usa","64720"
"1742",-91.1736994,39.2732095,"bowling green, mo 63334, usa","63334"
"1743",-94.5418141,38.7952436,"belton, mo 64012, usa","64012"
"1744",-90.4691097,38.8405221,"st charles, mo 63301, usa","63301"
"1745",-94.8022232,39.7898725,"st joseph, mo 64506, usa","64506"
"1746",-93.5407909,39.8040617,"chillicothe, mo 64601, usa","64601"
"1747",-94.4079213,39.1024788,"independence, mo 64050, usa","64050"
"1748",-94.8313257,39.9423872,"savannah, mo 64485, usa","64485"
"1749",-92.1843285,40.4921465,"memphis, mo 63555, usa","63555"
"1750",-90.5771493,38.6633659,"chesterfield, mo 63017, usa","63017"
"1751",-90.724773,38.7450528,"o'fallon, mo 63368, usa","63368"
"1752",-92.4999918,39.9954201,"la plata, mo 63549, usa","63549"
"1753",-92.2433487,38.5686223,"jefferson city, mo 65109, usa","65109"
"1754",-94.5985613,38.9546734,"kansas city, mo 64114, usa","64114"
"1755",-93.6217802,40.374721,"princeton, mo 64673, usa","64673"
"1756",-93.7029002,38.7202457,"warrensburg, mo 64093, usa","64093"
"1757",-90.4125181,37.7655626,"farmington, mo 63640, usa","63640"
"1758",-93.3086778,37.1120141,"springfield, mo 65810, usa","65810"
"1759",-94.5830789,39.6235545,"gower, mo 64454, usa","64454"
"1760",-92.9775558,38.8245566,"pilot grove, mo 65276, usa","65276"
"1761",-94.5985613,38.9546734,"kansas city, mo 64114, usa","64114"
"1762",-94.4593791,38.7984122,"raymore, mo 64083, usa","64083"
"1763",-93.3288183,37.1756964,"springfield, mo 65807, usa","65807"
"1764",-90.5352356,38.557323,"ballwin, mo 63021, usa","63021"
"1765",-94.028678,40.279759,"bethany, mo 64424, usa","64424"
"1766",-90.4927134,38.5522581,"valley park, mo 63088, usa","63088"
"1767",-92.1646722,38.528107,"jefferson city, mo 65101, usa","65101"
"1768",-93.5407909,39.8040617,"chillicothe, mo 64601, usa","64601"
"1769",-93.3288183,37.1756964,"springfield, mo 65807, usa","65807"
"1770",-92.5594214,40.4234027,"queen city, mo 63561, usa","63561"
"1771",-90.2080547,38.6449348,"st. louis, mo 63106, usa","63106"
"1772",-92.2433487,38.5686223,"jefferson city, mo 65109, usa","65109"
"1773",-94.3462373,39.0632021,"independence, mo 64057, usa","64057"
"1774",-94.2128337,39.3068524,"excelsior springs, mo 64024, usa","64024"
"1775",-94.5779191,38.9450668,"kansas city, mo 64131, usa","64131"
"1776",-90.2901815,38.7888018,"florissant, mo 63033, usa","63033"
"1777",-90.6298922,38.7874699,"st peters, mo 63376, usa","63376"
"1778",-90.810357,39.1723674,"elsberry, mo 63343, usa","63343"
"1779",-92.9775558,40.4744901,"unionville, mo 63565, usa","63565"
"1780",-94.7381013,39.7305994,"st joseph, mo 64507, usa","64507"
"1781",-90.266699,38.5844866,"st. louis, mo 63116, usa","63116"
"1782",-89.8879304,37.681175,"perryville, mo 63775, usa","63775"
"1783",-94.5985613,38.8817227,"kansas city, mo 64145, usa","64145"
"1784",-90.3230807,38.6682669,"st. louis, mo 63130, usa","63130"
"1785",-90.1682271,36.1544228,"senath, mo 63876, usa","63876"
"1786",-90.4219444,38.5787831,"st. louis, mo 63122, usa","63122"
"1787",-90.4408037,38.6206914,"st. louis, mo 63131, usa","63131"
"1788",-93.3892894,37.1953893,"springfield, mo 65802, usa","65802"
"1789",-94.8728093,40.349238,"maryville, mo 64468, usa","64468"
"1790",-92.2433487,38.5686223,"jefferson city, mo 65109, usa","65109"
"1791",-90.2901815,38.7888018,"florissant, mo 63033, usa","63033"
"1792",-90.7342734,38.8809704,"o'fallon, mo 63366, usa","63366"
"1793",-92.332541,38.951674,"columbia, mo 65201, usa","65201"
"1794",-90.4219444,38.5787831,"st. louis, mo 63122, usa","63122"
"1795",-90.4408037,38.767401,"bridgeton, mo 63044, usa","63044"
"1796",-94.0082563,38.1851024,"appleton city, mo 64724, usa","64724"
"1797",-91.714958,37.8387943,"rolla, mo 65401, usa","65401"
"1798",-94.4027782,38.9622081,"kansas city, mo 64139, usa","64139"
"1799",-94.8313257,39.9423872,"savannah, mo 64485, usa","64485"
"1800",-93.5205641,37.1380586,"republic, mo 65738, usa","65738"
"1801",-94.5005808,37.0193161,"joplin, mo 64804, usa","64804"
"1802",-90.3842527,38.6418687,"st. louis, mo 63124, usa","63124"
"1803",-94.4027782,38.9622081,"kansas city, mo 64139, usa","64139"
"1804",-91.4048249,37.5877447,"salem, mo 65560, usa","65560"
"1805",-94.3359635,37.8352892,"nevada, mo 64772, usa","64772"
"1806",-94.4696765,38.9752926,"kansas city, mo 64138, usa","64138"
"1807",-94.5985613,39.0587452,"kansas city, mo 64111, usa","64111"
"1808",-93.1378173,40.2256155,"milan, mo 63556, usa","63556"
"1809",-93.2181477,38.6508007,"sedalia, mo 65301, usa","65301"
"1810",-91.4048249,37.5877447,"salem, mo 65560, usa","65560"
"1811",-93.2181477,38.6508007,"sedalia, mo 65301, usa","65301"
"1812",-94.5985613,38.9546734,"kansas city, mo 64114, usa","64114"
"1813",-89.7567693,36.2411419,"hayti, mo 63851, usa","63851"
"1814",-90.2479232,38.5635304,"st. louis, mo 63111, usa","63111"
"1815",-90.4596721,38.494606,"fenton, mo 63026, usa","63026"
"1816",-94.2128337,39.3068524,"excelsior springs, mo 64024, usa","64024"
"1817",-94.8468784,39.7723855,"st joseph, mo 64501, usa","64501"
"1818",-90.2103988,38.6685228,"st. louis, mo 63107, usa","63107"
"1819",-94.5469705,39.091953,"kansas city, mo 64127, usa","64127"
"1820",-93.2181477,38.6508007,"sedalia, mo 65301, usa","65301"
"1821",-93.7029002,38.7202457,"warrensburg, mo 64093, usa","64093"
"1822",-111.351791,47.3016974,"great falls, mt 59405, usa","59405"
"1823",-108.5908853,45.7888857,"billings, mt 59102, usa","59102"
"1824",-109.3668454,46.9784182,"lewistown, mt 59457, usa","59457"
"1825",-108.5908853,45.7888857,"billings, mt 59102, usa","59102"
"1826",-114.2704101,48.1865701,"kalispell, mt 59901, usa","59901"
"1827",-111.351791,47.3016974,"great falls, mt 59405, usa","59405"
"1828",-114.0028043,46.7696119,"missoula, mt 59803, usa","59803"
"1829",-108.5908853,45.7888857,"billings, mt 59102, usa","59102"
"1830",-111.351791,47.3016974,"great falls, mt 59405, usa","59405"
"1831",-113.9120099,46.9539821,"missoula, mt 59802, usa","59802"
"1832",-110.9438884,45.6910549,"bozeman, mt 59715, usa","59715"
"1833",-115.4365207,48.2145326,"libby, mt 59923, usa","59923"
"1834",-114.2319873,46.8826694,"missoula, mt 59804, usa","59804"
"1835",-112.2285158,46.5570751,"helena, mt 59601, usa","59601"
"1836",-110.5086287,45.6549575,"livingston, mt 59047, usa","59047"
"1837",-114.1108128,47.7182994,"polson, mt 59860, usa","59860"
"1838",-109.4258825,45.1862481,"red lodge, mt 59068, usa","59068"
"1839",-112.0107769,46.439645,"clancy, mt 59634, usa","59634"
"1840",-112.490614,46.0600227,"butte, mt 59701, usa","59701"
"1841",-111.7456544,48.5087211,"shelby, mt 59474, usa","59474"
"1842",-110.5542096,47.8645245,"fort benton, mt 59442, usa","59442"
"1843",-109.3668454,46.9784182,"lewistown, mt 59457, usa","59457"
"1844",-113.0212247,46.1095314,"anaconda, mt 59711, usa","59711"
"1845",-110.9438884,45.6910549,"bozeman, mt 59715, usa","59715"
"1846",-104.752366,47.2037626,"glendive, mt 59330, usa","59330"
"1847",-114.5186984,47.8779762,"hot springs, mt 59845, usa","59845"
"1848",-104.6068262,48.7191588,"plentywood, mt 59254, usa","59254"
"1849",-105.5426036,48.7585262,"scobey, mt 59263, usa","59263"
"1850",-106.5659429,46.1585559,"forsyth, mt 59327, usa","59327"
"1851",-105.6163785,48.379169,"wolf point, mt 59201, usa","59201"
"1852",-112.4893081,47.8574296,"choteau, mt 59422, usa","59422"
"1853",-104.3183897,46.7836649,"wibaux, mt 59353, usa","59353"
"1854",-112.2285158,46.5570751,"helena, mt 59601, usa","59601"
"1855",-105.7633922,46.274766,"miles city, mt 59301, usa","59301"
"1856",-106.6510617,47.4186461,"jordan, mt 59337, usa","59337"
"1857",-114.9193502,48.8900667,"eureka, mt 59917, usa","59917"
"1858",-112.4893081,47.8574296,"choteau, mt 59422, usa","59422"
"1859",-105.6719601,45.3545888,"broadus, mt 59317, usa","59317"
"1860",-109.2681386,45.6041631,"columbus, mt 59019, usa","59019"
"1861",-106.8001474,48.0448635,"glasgow, mt 59230, usa","59230"
"1862",-114.1602087,47.5195608,"ronan, mt 59864, usa","59864"
"1863",-113.9709615,48.0006677,"bigfork, mt 59911, usa","59911"
"1864",-104.2913118,46.315418,"baker, mt 59313, usa","59313"
"1865",-108.3942141,45.5576428,"billings, mt 59101, usa","59101"
"1866",-114.1413442,48.4479632,"columbia falls, mt 59912, usa","59912"
"1867",-114.1157562,46.1535942,"hamilton, mt 59840, usa","59840"
"1868",-112.490614,46.0600227,"butte, mt 59701, usa","59701"
"1869",-112.6474826,48.6628747,"cut bank, mt 59427, usa","59427"
"1870",-104.655297,45.8012848,"ekalaka, mt 59324, usa","59324"
"1871",-105.7633922,46.274766,"miles city, mt 59301, usa","59301"
"1872",-114.882931,47.4602056,"plains, mt 59859, usa","59859"
"1873",-114.2704101,48.1865701,"kalispell, mt 59901, usa","59901"
"1874",-108.7027539,45.6426589,"laurel, mt 59044, usa","59044"
"1875",-109.8709479,48.6947876,"havre, mt 59501, usa","59501"
"1876",-112.2285158,46.5570751,"helena, mt 59601, usa","59601"
"1877",-110.9438884,45.6910549,"bozeman, mt 59715, usa","59715"
"1878",-109.8793536,48.0293638,"big sandy, mt 59520, usa","59520"
"1879",-111.9266797,48.1798805,"conrad, mt 59425, usa","59425"
"1880",-108.3942141,45.5576428,"billings, mt 59101, usa","59101"
"1881",-104.0205574,47.5771383,"sidney, mt 59270, usa","59270"
"1882",-112.490614,46.0600227,"butte, mt 59701, usa","59701"
"1883",-108.3942141,45.5576428,"billings, mt 59101, usa","59101"
"1884",-112.8378824,45.0346471,"dillon, mt 59725, usa","59725"
"1885",-114.0430553,46.4949159,"stevensville, mt 59870, usa","59870"
"1886",-113.9120099,46.9539821,"missoula, mt 59802, usa","59802"
"1887",-109.2216316,48.4762577,"chinook, mt 59523, usa","59523"
"1888",-114.2704101,48.1865701,"kalispell, mt 59901, usa","59901"
"1889",-107.6119858,45.7325168,"hardin, mt 59034, usa","59034"
"1890",-107.957781,48.0281564,"malta, mt 59538, usa","59538"
"1891",-114.3352493,48.4106094,"whitefish, mt 59937, usa","59937"
"1892",-113.1903952,48.7606966,"browning, mt 59417, usa","59417"
"1893",-112.8004918,46.3577938,"deer lodge, mt 59722, usa","59722"
"1894",-114.1157562,46.1535942,"hamilton, mt 59840, usa","59840"
"1895",NA,NA,NA,NA
"1896",-109.9993417,45.906839,"big timber, mt 59011, usa","59011"
"1897",-108.5908853,45.7888857,"billings, mt 59102, usa","59102"
"1898",-104.752366,47.2037626,"glendive, mt 59330, usa","59330"
"1899",-112.1138491,45.381325,"sheridan, mt 59749, usa","59749"
"1900",-114.1602087,47.5195608,"ronan, mt 59864, usa","59864"
"1901",-108.36,45.63,"billings, mt 59107, usa","59107"
"1902",-107.2245819,45.4925668,"crow agency, mt 59022, usa","59022"
"1903",-111.4820601,46.3839014,"townsend, mt 59644, usa","59644"
"1904",-109.3668454,46.9784182,"lewistown, mt 59457, usa","59457"
"1905",-96.7012424,40.7895543,"lincoln, ne 68502, usa","68502"
"1906",-96.6370893,40.7831814,"lincoln, ne 68506, usa","68506"
"1907",-95.9673967,41.2418116,"omaha, ne 68105, usa","68105"
"1908",-96.6157192,40.804574,"lincoln, ne 68510, usa","68510"
"1909",-96.6477771,40.7422154,"lincoln, ne 68516, usa","68516"
"1910",-96.1155932,41.2340369,"omaha, ne 68144, usa","68144"
"1911",-95.6037465,40.0509645,"falls city, ne 68355, usa","68355"
"1912",-96.6157192,40.804574,"lincoln, ne 68510, usa","68510"
"1913",-96.0520363,41.2373947,"omaha, ne 68124, usa","68124"
"1914",-96.1049958,41.2546175,"omaha, ne 68154, usa","68154"
"1915",-97.5463885,41.0940249,"stromsburg, ne 68666, usa","68666"
"1916",-102.7135121,42.2331133,"alliance, ne 69301, usa","69301"
"1917",-96.5143087,40.4716467,"adams, ne 68301, usa","68301"
"1918",-96.6370893,40.7831814,"lincoln, ne 68506, usa","68506"
"1919",-99.389511,40.4352418,"holdrege, ne 68949, usa","68949"
"1920",-103.5899733,41.7023737,"gering, ne 69341, usa","69341"
"1921",-98.3861513,40.5860956,"hastings, ne 68902, usa","68902"
"1922",-97.2437105,42.4983939,"coleridge, ne 68727, usa","68727"
"1923",-97.1359377,41.2602986,"david city, ne 68632, usa","68632"
"1924",-96.4396888,42.4584705,"south sioux city, ne 68776, usa","68776"
"1925",-95.9356872,41.2434503,"omaha, ne 68108, usa","68108"
"1926",-100.6647101,40.2633657,"mccook, ne 69001, usa","69001"
"1927",-98.4184224,40.9532916,"grand island, ne 68803, usa","68803"
"1928",-96.4396888,42.4584705,"south sioux city, ne 68776, usa","68776"
"1929",-100.7548851,41.2169959,"north platte, ne 69101, usa","69101"
"1930",-99.0747701,40.6992353,"kearney, ne 68848, usa","68848"
"1931",-95.9938339,41.3354647,"omaha, ne 68152, usa","68152"
"1932",-98.4184224,40.9532916,"grand island, ne 68803, usa","68803"
"1933",-97.394882,42.5862849,"hartington, ne 68739, usa","68739"
"1934",-97.42,42.03,"norfolk, ne 68702, usa","68702"
"1935",-96.429036,41.957741,"lyons, ne 68038, usa","68038"
"1936",-101.6612934,41.0484671,"ogallala, ne 69153, usa","69153"
"1937",-97.356755,41.4317442,"columbus, ne 68602, usa","68602"
"1938",-99.9465077,40.8911427,"cozad, ne 69130, usa","69130"
"1939",-100.7548851,41.2169959,"north platte, ne 69101, usa","69101"
"1940",-103.6131203,41.9144314,"scottsbluff, ne 69361, usa","69361"
"1941",-98.9466146,40.1057095,"franklin, ne 68939, usa","68939"
"1942",-95.9938339,41.2354329,"omaha, ne 68106, usa","68106"
"1943",-96.1155932,41.203996,"omaha, ne 68137, usa","68137"
"1944",-97.394882,42.0375938,"norfolk, ne 68701, usa","68701"
"1945",-97.2221421,41.9697606,"stanton, ne 68779, usa","68779"
"1946",-96.5143087,41.4369374,"fremont, ne 68025, usa","68025"
"1947",-95.940971,41.0074183,"plattsmouth, ne 68048, usa","68048"
"1948",-98.4184224,40.9532916,"grand island, ne 68803, usa","68803"
"1949",-98.2869478,40.9628474,"grand island, ne 68801, usa","68801"
"1950",-95.9938339,41.2954735,"omaha, ne 68104, usa","68104"
"1951",-98.6160674,42.5786234,"o'neill, ne 68763, usa","68763"
"1952",-95.8564864,40.6081834,"nebraska city, ne 68410, usa","68410"
"1953",-97.0498442,41.5049348,"schuyler, ne 68661, usa","68661"
"1954",-97.5463885,42.5178728,"wausa, ne 68786, usa","68786"
"1955",-95.8564864,40.3646941,"auburn, ne 68305, usa","68305"
"1956",-103.035694,41.1375665,"sidney, ne 69162, usa","69162"
"1957",-95.6037465,40.0509645,"falls city, ne 68355, usa","68355"
"1958",-98.0028892,41.3628122,"fullerton, ne 68638, usa","68638"
"1959",-97.1359377,41.6585922,"clarkson, ne 68629, usa","68629"
"1960",-96.3438785,41.3666474,"valley, ne 68064, usa","68064"
"1961",-96.195132,41.7925308,"tekamah, ne 68061, usa","68061"
"1962",-96.5143087,41.4369374,"fremont, ne 68025, usa","68025"
"1963",-99.634135,41.4360959,"broken bow, ne 68822, usa","68822"
"1964",-97.9810845,42.1752024,"neligh, ne 68756, usa","68756"
"1965",-95.8564864,40.6081834,"nebraska city, ne 68410, usa","68410"
"1966",-96.0520363,41.2674199,"omaha, ne 68114, usa","68114"
"1967",-96.7922355,40.232159,"beatrice, ne 68310, usa","68310"
"1968",-97.5680595,40.8315698,"york, ne 68467, usa","68467"
"1969",-97.0713572,40.7624063,"milford, ne 68405, usa","68405"
"1970",-95.9092754,41.1596468,"bellevue, ne 68005, usa","68005"
"1971",-96.2482149,41.2819478,"elkhorn, ne 68022, usa","68022"
"1972",-97.0498442,42.2167022,"wayne, ne 68787, usa","68787"
"1973",-95.9938339,41.2954735,"omaha, ne 68104, usa","68104"
"1974",-96.1739116,40.6523649,"syracuse, ne 68446, usa","68446"
"1975",-97.4814163,42.1893218,"pierce, ne 68767, usa","68767"
"1976",-96.3864428,41.0840306,"ashland, ne 68003, usa","68003"
"1977",-101.207047,41.3322606,"sutherland, ne 69165, usa","69165"
"1978",-99.8571416,42.4002078,"ainsworth, ne 69210, usa","69210"
"1979",-96.5143087,40.9563346,"waverly, ne 68462, usa","68462"
"1980",-98.4403573,40.2860295,"blue hill, ne 68930, usa","68930"
"1981",-96.2588369,41.0910342,"gretna, ne 68028, usa","68028"
"1982",-98.0028892,41.2031926,"central city, ne 68826, usa","68826"
"1983",-96.1739116,41.5354216,"blair, ne 68008, usa","68008"
"1984",-95.9938339,41.2954735,"omaha, ne 68104, usa","68104"
"1985",-102.8975098,42.8301322,"chadron, ne 69337, usa","69337"
"1986",-96.9423844,42.0067679,"wisner, ne 68791, usa","68791"
"1987",-97.3084571,41.488769,"columbus, ne 68601, usa","68601"
"1988",-97.9374948,40.3825672,"edgar, ne 68935, usa","68935"
"1989",-97.4165053,40.6600092,"exeter, ne 68351, usa","68351"
"1990",-97.654811,42.6470935,"bloomfield, ne 68718, usa","68718"
"1991",-96.2800864,40.0980067,"pawnee city, ne 68420, usa","68420"
"1992",-96.7065914,41.8430063,"west point, ne 68788, usa","68788"
"1993",-99.7678687,40.7460879,"lexington, ne 68850, usa","68850"
"1994",-97.394882,42.0375938,"norfolk, ne 68701, usa","68701"
"1995",-97.286868,40.9100552,"utica, ne 68456, usa","68456"
"1996",-100.1255164,41.0354094,"gothenburg, ne 69138, usa","69138"
"1997",-96.6370893,40.7831814,"lincoln, ne 68506, usa","68506"
"1998",-100.7548851,41.2169959,"north platte, ne 69101, usa","69101"
"1999",-98.6820636,40.611911,"kenesaw, ne 68956, usa","68956"
"2000",-98.3745717,40.5943468,"hastings, ne 68901, usa","68901"
"2001",-96.9638624,40.6276267,"crete, ne 68333, usa","68333"
"2002",-97.0283383,40.4820516,"wilber, ne 68465, usa","68465"
"2003",-95.9515399,41.3776221,"omaha, ne 68112, usa","68112"
"2004",-102.7135121,42.2331133,"alliance, ne 69301, usa","69301"
"2005",-99.9241575,40.3499294,"arapahoe, ne 68922, usa","68922"
"2006",-100.5296115,42.7668091,"valentine, ne 69201, usa","69201"
"2007",-98.9687011,42.4735579,"atkinson, ne 68713, usa","68713"
"2008",-97.0713572,42.4700962,"laurel, ne 68745, usa","68745"
"2009",-98.8803925,42.946086,"butte, ne 68722, usa","68722"
"2010",-97.330053,42.4147125,"randolph, ne 68771, usa","68771"
"2011",-99.3451118,40.1959351,"alma, ne 68920, usa","68920"
"2012",-96.7279918,42.0983785,"pender, ne 68047, usa","68047"
"2013",-98.090174,40.0671517,"superior, ne 68978, usa","68978"
"2014",-99.0349977,40.7458129,"kearney, ne 68847, usa","68847"
"2015",-98.1775638,42.6108734,"verdigre, ne 68783, usa","68783"
"2016",-96.7279918,42.5689235,"ponca, ne 68770, usa","68770"
"2017",-99.0349977,40.7458129,"kearney, ne 68847, usa","68847"
"2018",-97.5897372,41.2112433,"osceola, ne 68651, usa","68651"
"2019",-96.642433,40.0573745,"wymore, ne 68466, usa","68466"
"2020",-96.7065914,41.6844758,"scribner, ne 68057, usa","68057"
"2021",-98.0028892,41.7598643,"albion, ne 68620, usa","68620"
"2022",-98.6160674,40.8382803,"wood river, ne 68883, usa","68883"
"2023",-99.9688636,41.2683584,"callaway, ne 68825, usa","68825"
"2024",-97.8503951,41.5523788,"st edward, ne 68660, usa","68660"
"2025",-98.8803925,40.9786327,"ravenna, ne 68869, usa","68869"
"2026",-96.7922355,40.232159,"beatrice, ne 68310, usa","68310"
"2027",-96.8565427,41.8934725,"beemer, ne 68716, usa","68716"
"2028",-97.5897372,40.6487322,"fairmont, ne 68354, usa","68354"
"2029",-97.394882,41.8007023,"madison, ne 68748, usa","68748"
"2030",-97.5897372,41.9657265,"battle creek, ne 68715, usa","68715"
"2031",-96.8994495,42.2847509,"wakefield, ne 68784, usa","68784"
"2032",-96.1739116,41.5354216,"blair, ne 68008, usa","68008"
"2033",-102.6675575,42.5867186,"hay springs, ne 69347, usa","69347"
"2034",-97.8068851,41.7931637,"newman grove, ne 68758, usa","68758"
"2035",-99.8794744,40.5958089,"elwood, ne 68937, usa","68937"
"2036",-99.0349977,40.7458129,"kearney, ne 68847, usa","68847"
"2037",-95.8564864,40.6081834,"nebraska city, ne 68410, usa","68410"
"2038",-95.9673967,41.2418116,"omaha, ne 68105, usa","68105"
"2039",-96.5890166,40.7405409,"lincoln, ne 68526, usa","68526"
"2040",-101.3885001,40.4357427,"wauneta, ne 69045, usa","69045"
"2041",-98.4184224,40.9532916,"grand island, ne 68803, usa","68803"
"2042",-96.7386946,42.3041289,"emerson, ne 68733, usa","68733"
"2043",-103.1279039,41.678531,"bridgeport, ne 69336, usa","69336"
"2044",-98.5281613,40.1170629,"red cloud, ne 68970, usa","68970"
"2045",-98.4622987,41.2301535,"st paul, ne 68873, usa","68873"
"2046",-98.9687011,41.2913534,"loup city, ne 68853, usa","68853"
"2047",-96.5143087,41.6359728,"hooper, ne 68031, usa","68031"
"2048",-97.5680595,40.5086664,"geneva, ne 68361, usa","68361"
"2049",-96.642433,41.1898268,"wahoo, ne 68066, usa","68066"
"2050",-97.0713572,40.7624063,"milford, ne 68405, usa","68405"
"2051",-96.5143087,41.4369374,"fremont, ne 68025, usa","68025"
"2052",-96.2800864,40.3424732,"tecumseh, ne 68450, usa","68450"
"2053",-96.0573302,41.2921503,"omaha, ne 68134, usa","68134"
"2054",-95.9515399,41.3776221,"omaha, ne 68112, usa","68112"
"2055",-95.9991228,41.2101217,"omaha, ne 68117, usa","68117"
"2056",-101.5702813,40.0947726,"benkelman, ne 69021, usa","69021"
"2057",-96.1155932,41.203996,"omaha, ne 68137, usa","68137"
"2058",-96.8994495,41.69289,"dodge, ne 68633, usa","68633"
"2059",-99.1234795,42.5975157,"stuart, ne 68780, usa","68780"
"2060",-99.389511,40.4352418,"holdrege, ne 68949, usa","68949"
"2061",-96.7922355,41.5204541,"north bend, ne 68649, usa","68649"
"2062",-95.940971,40.1975037,"humboldt, ne 68376, usa","68376"
"2063",-97.1359377,41.2602986,"david city, ne 68632, usa","68632"
"2064",-103.3125299,42.5897015,"crawford, ne 69339, usa","69339"
"2065",-96.0573302,41.1319017,"papillion, ne 68046, usa","68046"
"2066",-101.6612934,40.5689928,"imperial, ne 69033, usa","69033"
"2067",-101.0033112,40.1302966,"trenton, ne 69044, usa","69044"
"2068",-99.0349977,40.7458129,"kearney, ne 68847, usa","68847"
"2069",-103.682586,41.2195663,"kimball, ne 69145, usa","69145"
"2070",-99.1013498,41.9539516,"burwell, ne 68823, usa","68823"
"2071",-99.5896043,40.6002477,"bertrand, ne 68927, usa","68927"
"2072",-97.5463885,40.1243106,"hebron, ne 68370, usa","68370"
"2073",-103.3125299,41.813568,"bayard, ne 69334, usa","69334"
"2074",-97.7525352,40.1412124,"deshler, ne 68340, usa","68340"
"2075",-97.2221421,40.1246432,"fairbury, ne 68352, usa","68352"
"2076",-98.0247005,40.8207596,"aurora, ne 68818, usa","68818"
"2077",-103.2663479,42.3247698,"hemingford, ne 69348, usa","69348"
"2078",-96.6584666,40.8524941,"lincoln, ne 68504, usa","68504"
"2079",-96.1314928,40.9773339,"louisville, ne 68037, usa","68037"
"2080",-96.0573302,41.1319017,"papillion, ne 68046, usa","68046"
"2081",-99.8571416,40.0923705,"beaver city, ne 68926, usa","68926"
"2082",-98.9687011,40.4890157,"minden, ne 68959, usa","68959"
"2083",-103.6131203,41.9144314,"scottsbluff, ne 69361, usa","69361"
"2084",-98.090174,40.6348595,"harvard, ne 68944, usa","68944"
"2085",-97.8286368,42.3229711,"plainview, ne 68769, usa","68769"
"2086",-96.0520363,41.2674199,"omaha, ne 68114, usa","68114"
"2087",-96.7012424,40.7895543,"lincoln, ne 68502, usa","68502"
"2088",-96.2482149,41.2819478,"elkhorn, ne 68022, usa","68022"
"2089",-97.8286368,40.6529324,"sutton, ne 68979, usa","68979"
"2090",-96.5143087,41.4369374,"fremont, ne 68025, usa","68025"
"2091",-97.1144039,40.9208392,"seward, ne 68434, usa","68434"
"2092",-96.2004383,41.2395091,"omaha, ne 68130, usa","68130"
"2093",-96.5143087,41.8342887,"oakland, ne 68045, usa","68045"
"2094",-97.2221421,40.1246432,"fairbury, ne 68352, usa","68352"
"2095",-96.9638624,40.6276267,"crete, ne 68333, usa","68333"
"2096",-97.8939317,42.4553619,"creighton, ne 68729, usa","68729"
"2097",-98.4184224,40.9532916,"grand island, ne 68803, usa","68803"
"2098",-98.5281613,41.5635045,"greeley, ne 68842, usa","68842"
"2099",-103.7752634,42.069927,"mitchell, ne 69357, usa","69357"
"2100",-96.6477771,40.7422154,"lincoln, ne 68516, usa","68516"
"2101",-96.1049958,41.2546175,"omaha, ne 68154, usa","68154"
"2102",-103.035694,41.1375665,"sidney, ne 69162, usa","69162"
"2103",-97.3084571,41.488769,"columbus, ne 68601, usa","68601"
"2104",-98.0028892,41.2031926,"central city, ne 68826, usa","68826"
"2105",-99.634135,41.4360959,"broken bow, ne 68822, usa","68822"
"2106",-95.9938339,41.2954735,"omaha, ne 68104, usa","68104"
"2107",-96.3438785,42.1202708,"macy, ne 68039, usa","68039"
"2108",-97.3084571,40.6063074,"friend, ne 68359, usa","68359"
"2109",-97.8068851,40.795495,"henderson, ne 68371, usa","68371"
"2110",-101.1617356,42.1627348,"mullen, ne 69152, usa","69152"
"2111",-102.3005803,41.4566102,"oshkosh, ne 69154, usa","69154"
"2112",-98.0247005,40.8207596,"aurora, ne 68818, usa","68818"
"2113",-100.2151578,40.3850238,"cambridge, ne 69022, usa","69022"
"2114",-101.7523854,40.7998914,"grant, ne 69140, usa","69140"
"2115",-96.642433,41.1898268,"wahoo, ne 68066, usa","68066"
"2116",-102.1632718,42.7576923,"gordon, ne 69343, usa","69343"
"2117",-97.7199454,41.481729,"genoa, ne 68640, usa","68640"
"2118",-99.5006143,42.35249,"bassett, ne 68714, usa","68714"
"2119",-97.5463885,40.1243106,"hebron, ne 68370, usa","68370"
"2120",-98.9687011,41.6091263,"ord, ne 68862, usa","68862"
"2121",-102.3922135,41.1302382,"chappell, ne 69129, usa","69129"
"2122",-98.9687011,40.4890157,"minden, ne 68959, usa","68959"
"2123",-95.9938339,41.1151589,"papillion, ne 68133, usa","68133"
"2124",-118.1590786,40.2420059,"lovelock, nv 89419, usa","89419"
"2125",-118.7198004,38.565724,"hawthorne, nv 89415, usa","89415"
"2126",-115.1711298,36.128561,"las vegas, nv 89109, usa","89109"
"2127",-115.2304131,36.2576752,"las vegas, nv 89130, usa","89130"
"2128",-119.1390642,38.9524739,"yerington, nv 89447, usa","89447"
"2129",-115.1592718,36.1922841,"las vegas, nv 89106, usa","89106"
"2130",-119.8005027,39.558586,"reno, nv 89512, usa","89512"
"2131",-115.1711298,36.128561,"las vegas, nv 89109, usa","89109"
"2132",-119.6730939,39.1297282,"carson city, nv 89701, usa","89701"
"2133",-118.4863963,41.1650556,"winnemucca, nv 89445, usa","89445"
"2134",-114.6192899,37.2383378,"caliente, nv 89008, usa","89008"
"2135",-114.8092691,39.5699721,"ely, nv 89301, usa","89301"
"2136",-119.7483949,39.5401545,"sparks, nv 89431, usa","89431"
"2137",-115.1296249,36.2040034,"north las vegas, nv 89030, usa","89030"
"2138",-114.9279547,36.0552472,"henderson, nv 89015, usa","89015"
"2139",-115.1829873,36.1462673,"las vegas, nv 89102, usa","89102"
"2140",-115.0525302,36.0633189,"henderson, nv 89014, usa","89014"
"2141",-119.8236554,39.4953787,"reno, nv 89509, usa","89509"
"2142",-119.5803605,39.5351309,"sparks, nv 89434, usa","89434"
"2143",-115.2304131,36.135635,"las vegas, nv 89146, usa","89146"
"2144",-114.8344942,35.9782266,"boulder city, nv 89005, usa","89005"
"2145",-115.1533426,36.0765176,"las vegas, nv 89119, usa","89119"
"2146",-119.9277947,39.3809028,"reno, nv 89511, usa","89511"
"2147",-115.2244853,36.2030945,"las vegas, nv 89108, usa","89108"
"2148",-115.1296249,36.2040034,"north las vegas, nv 89030, usa","89030"
"2149",-116.9852422,40.3551933,"battle mountain, nv 89820, usa","89820"
"2150",-115.2719048,36.2330997,"las vegas, nv 89129, usa","89129"
"2151",-119.8583772,39.1539156,"carson city, nv 89703, usa","89703"
"2152",-114.1558258,36.74283,"mesquite, nv 89027, usa","89027"
"2153",-115.2244853,36.2030945,"las vegas, nv 89108, usa","89108"
"2154",-115.0525302,36.0633189,"henderson, nv 89014, usa","89014"
"2155",-115.2304131,36.135635,"las vegas, nv 89146, usa","89146"
"2156",-115.3133908,36.2085091,"las vegas, nv 89134, usa","89134"
"2157",-116.0886704,36.3800305,"pahrump, nv 89060, usa","89060"
"2158",-115.1533426,36.0765176,"las vegas, nv 89119, usa","89119"
"2159",-119.9277947,39.3809028,"reno, nv 89511, usa","89511"
"2160",-115.7575196,41.1852816,"elko, nv 89801, usa","89801"
"2161",-119.6730939,39.1297282,"carson city, nv 89701, usa","89701"
"2162",-114.8344942,35.9782266,"boulder city, nv 89005, usa","89005"
"2163",-114.8344942,35.9782266,"boulder city, nv 89005, usa","89005"
"2164",-119.5803605,38.8502851,"gardnerville, nv 89410, usa","89410"
"2165",-115.3133908,36.1780112,"las vegas, nv 89144, usa","89144"
"2166",-115.2659777,36.1988542,"las vegas, nv 89128, usa","89128"
"2167",-118.777043,39.4748735,"fallon, nv 89406, usa","89406"
"2168",-115.3667218,36.1100428,"las vegas, nv 89135, usa","89135"
"2169",-115.1533426,36.0765176,"las vegas, nv 89119, usa","89119"
"2170",-119.7078532,39.603484,"sparks, nv 89436, usa","89436"
"2171",-115.2956118,36.2684007,"las vegas, nv 89149, usa","89149"
"2172",-115.2244853,36.0809667,"las vegas, nv 89118, usa","89118"
"2173",-115.2719048,36.2330997,"las vegas, nv 89129, usa","89129"
"2174",-115.2659777,36.1988542,"las vegas, nv 89128, usa","89128"
"2175",-114.9872821,36.2153701,"las vegas, nv 89156, usa","89156"
"2176",-115.1296249,36.2040034,"north las vegas, nv 89030, usa","89030"
"2177",-112.0357137,41.176494,"roy, ut 84067, usa","84067"
"2178",-111.7376178,40.7060732,"salt lake city, ut 84109, usa","84109"
"2179",-111.8926303,41.1859156,"ogden, ut 84403, usa","84403"
"2180",-112.0714835,41.5228536,"brigham city, ut 84302, usa","84302"
"2181",-111.8389726,40.6618507,"salt lake city, ut 84117, usa","84117"
"2182",-111.8658015,40.76049,"salt lake city, ut 84102, usa","84102"
"2183",-109.4259114,37.5617484,"blanding, ut 84511, usa","84511"
"2184",-111.9760964,38.6927489,"richfield, ut 84701, usa","84701"
"2185",-111.8449346,40.8684042,"bountiful, ut 84010, usa","84010"
"2186",-113.5966577,37.1963372,"st george, ut 84770, usa","84770"
"2187",-112.1907122,41.3270903,"ogden, ut 84404, usa","84404"
"2188",-111.9164779,40.6609843,"salt lake city, ut 84123, usa","84123"
"2189",-112.0595603,41.1333549,"clearfield, ut 84015, usa","84015"
"2190",-111.9880199,41.1668743,"ogden, ut 84405, usa","84405"
"2191",-111.8658015,40.76049,"salt lake city, ut 84102, usa","84102"
"2192",-111.8389726,40.6618507,"salt lake city, ut 84117, usa","84117"
"2193",-112.0118669,40.6999925,"salt lake city, ut 84120, usa","84120"
"2194",-111.7912764,40.6712875,"salt lake city, ut 84124, usa","84124"
"2195",-111.689921,41.7131433,"logan, ut 84321, usa","84321"
"2196",-111.7256936,40.2128559,"provo, ut 84601, usa","84601"
"2197",-111.8926303,41.1859156,"ogden, ut 84403, usa","84403"
"2198",-110.0926112,40.2562647,"roosevelt, ut 84066, usa","84066"
"2199",-111.2368084,39.0950382,"ferron, ut 84523, usa","84523"
"2200",-111.8926303,41.1859156,"ogden, ut 84403, usa","84403"
"2201",-111.7256936,40.3882329,"pleasant grove, ut 84062, usa","84062"
"2202",-112.3099336,40.5916513,"tooele, ut 84074, usa","84074"
"2203",-111.7018452,40.3150359,"orem, ut 84057, usa","84057"
"2204",-111.8687825,40.4960215,"draper, ut 84020, usa","84020"
"2205",-109.5285205,40.4553668,"vernal, ut 84078, usa","84078"
"2206",-112.0714835,41.5228536,"brigham city, ut 84302, usa","84302"
"2207",-111.8508966,40.7078639,"salt lake city, ut 84106, usa","84106"
"2208",-111.8985922,40.7177351,"salt lake city, ut 84115, usa","84115"
"2209",-111.7376178,40.7060732,"salt lake city, ut 84109, usa","84109"
"2210",-111.7972384,40.3935912,"american fork, ut 84003, usa","84003"
"2211",-110.8107201,39.599386,"price, ut 84501, usa","84501"
"2212",-111.8866683,40.6620696,"salt lake city, ut 84107, usa","84107"
"2213",-113.2394452,37.088313,"hurricane, ut 84737, usa","84737"
"2214",-110.8107201,39.599386,"price, ut 84501, usa","84501"
"2215",-111.6750157,40.3032488,"orem, ut 84097, usa","84097"
"2216",-111.8091625,39.6968079,"nephi, ut 84648, usa","84648"
"2217",-111.9641728,40.5934061,"west jordan, ut 84088, usa","84088"
"2218",-111.8389726,40.6618507,"salt lake city, ut 84117, usa","84117"
"2219",-111.8866683,40.5749102,"sandy, ut 84070, usa","84070"
"2220",-111.8866683,40.5749102,"sandy, ut 84070, usa","84070"
"2221",-111.8449346,40.8684042,"bountiful, ut 84010, usa","84010"
"2222",-111.9880199,41.1668743,"ogden, ut 84405, usa","84405"
"2223",-111.7972384,41.7773889,"logan, ut 84341, usa","84341"
"2224",-111.9880199,41.1668743,"ogden, ut 84405, usa","84405"
"2225",-111.667931,40.2580352,"provo, ut 84604, usa","84604"
"2226",-111.7972384,41.7773889,"logan, ut 84341, usa","84341"
"2227",-111.9880199,40.7434064,"salt lake city, ut 84104, usa","84104"
"2228",-111.8866683,40.6620696,"salt lake city, ut 84107, usa","84107"
"2229",-111.8628205,40.7345053,"salt lake city, ut 84105, usa","84105"
"2230",-111.7376178,39.9268916,"payson, ut 84651, usa","84651"
"2231",-111.610758,40.1652412,"springville, ut 84663, usa","84663"
"2232",-113.5490415,37.0441957,"st george, ut 84790, usa","84790"
"2233",-111.8389726,40.6618507,"salt lake city, ut 84117, usa","84117"
"2234",-111.7912764,40.6712875,"salt lake city, ut 84124, usa","84124"
"2235",-111.8508966,40.7078639,"salt lake city, ut 84106, usa","84106"
"2236",-113.1441558,37.8355754,"cedar city, ut 84721, usa","84721"
"2237",-113.5966577,37.1963372,"st george, ut 84770, usa","84770"
"2238",-111.8985922,40.7177351,"salt lake city, ut 84115, usa","84115"
"2239",-111.3321974,40.4940545,"heber city, ut 84032, usa","84032"
"2240",-111.8658015,40.76049,"salt lake city, ut 84102, usa","84102"
"2241",-111.8337558,40.7602016,"salt lake city, ut 84113, usa","84113"
"2242",-113.5490415,37.0441957,"st george, ut 84790, usa","84790"
"2243",-112.8343844,37.8791367,"parowan, ut 84761, usa","84761"
"2244",-111.9880199,41.1668743,"ogden, ut 84405, usa","84405"
"2245",-111.8449346,40.8684042,"bountiful, ut 84010, usa","84010"
"2246",-112.5245093,39.4356084,"delta, ut 84624, usa","84624"
"2247",-111.8985922,40.7177351,"salt lake city, ut 84115, usa","84115"
"2248",-111.8171374,40.6210656,"salt lake city, ut 84121, usa","84121"
"2249",-113.5490415,37.0441957,"st george, ut 84790, usa","84790"
"2250",-111.8389726,40.6618507,"salt lake city, ut 84117, usa","84117"
"2251",-111.8449346,40.8684042,"bountiful, ut 84010, usa","84010"
"2252",-112.28609,41.6885603,"tremonton, ut 84337, usa","84337"
"2253",-111.9164779,40.6609843,"salt lake city, ut 84123, usa","84123"
"2254",-111.7018452,40.3150359,"orem, ut 84057, usa","84057"
"2255",-111.9403254,40.4818161,"riverton, ut 84065, usa","84065"
"2256",-112.0595603,41.1333549,"clearfield, ut 84015, usa","84015"
"2257",-111.6750157,40.3032488,"orem, ut 84097, usa","84097"
"2258",-111.9477777,40.6777307,"salt lake city, ut 84129, usa","84129"
"2259",-112.1907122,41.3270903,"ogden, ut 84404, usa","84404"
"2260",-111.9760964,38.6927489,"richfield, ut 84701, usa","84701"
"2261",-111.9880199,41.0709042,"layton, ut 84041, usa","84041"
"2262",-111.8210866,39.1114526,"centerfield, ut 84622, usa","84622"
"2263",-111.9386203,40.5623204,"south jordan, ut 84095, usa","84095"
"2264",-111.7018452,40.3150359,"orem, ut 84057, usa","84057"
"2265",-111.7972384,40.3935912,"american fork, ut 84003, usa","84003"
"2266",-111.9403254,40.4818161,"riverton, ut 84065, usa","84065"
"2267",-113.7394824,37.1257078,"ivins, ut 84738, usa","84738"
"2268",-111.7376178,39.9268916,"payson, ut 84651, usa","84651"
"2269",-111.9880199,41.1668743,"ogden, ut 84405, usa","84405"
"2270",-111.8508966,40.7078639,"salt lake city, ut 84106, usa","84106"
"2271",-111.8658015,40.76049,"salt lake city, ut 84102, usa","84102"
"2272",-111.9880199,40.7434064,"salt lake city, ut 84104, usa","84104"
"2273",-111.8985922,40.7177351,"salt lake city, ut 84115, usa","84115"
"2274",-111.9641728,40.7095135,"salt lake city, ut 84119, usa","84119"
"2275",-109.4735066,38.5719944,"moab, ut 84532, usa","84532"
"2276",-104.8201078,41.1400096,"cheyenne, wy 82001, usa","82001"
"2277",-109.8067916,42.9178894,"pinedale, wy 82941, usa","82941"
"2278",-108.1794831,44.3232673,"basin, wy 82410, usa","82410"
"2279",-108.1794831,44.3232673,"basin, wy 82410, usa","82410"
"2280",-105.582806,44.4524167,"gillette, wy 82716, usa","82716"
"2281",-104.3791912,43.7140875,"newcastle, wy 82701, usa","82701"
"2282",-106.3934777,43.0981345,"casper, wy 82601, usa","82601"
"2283",-104.8201078,41.1400096,"cheyenne, wy 82001, usa","82001"
"2284",-106.8986415,44.8302484,"sheridan, wy 82801, usa","82801"
"2285",-109.0427429,44.5205544,"cody, wy 82414, usa","82414"
"2286",-104.3649622,44.3519408,"sundance, wy 82729, usa","82729"
"2287",-108.2038193,44.853652,"lovell, wy 82431, usa","82431"
"2288",-108.1903059,43.0453134,"riverton, wy 82501, usa","82501"
"2289",-104.9388853,41.3361875,"cheyenne, wy 82009, usa","82009"
"2290",-109.5211063,41.5248947,"green river, wy 82935, usa","82935"
"2291",-108.7125791,42.6188338,"lander, wy 82520, usa","82520"
"2292",-105.4536718,41.3844415,"laramie, wy 82072, usa","82072"
"2293",-107.5741855,41.8879066,"rawlins, wy 82301, usa","82301"
"2294",-108.902683,41.3615496,"rock springs, wy 82901, usa","82901"
"2295",-110.9652537,41.2664704,"evanston, wy 82930, usa","82930"
"2296",-106.8986415,44.8302484,"sheridan, wy 82801, usa","82801"
"2297",-105.2194808,43.2261477,"douglas, wy 82633, usa","82633"
"2298",-106.6291304,42.7979846,"casper, wy 82604, usa","82604"
"2299",-105.876004,41.3648343,"laramie, wy 82070, usa","82070"
"2300",-104.8201078,41.1400096,"cheyenne, wy 82001, usa","82001"
"2301",-108.8149338,44.8667017,"powell, wy 82435, usa","82435"
"2302",-110.6724168,43.4686966,"jackson, wy 83001, usa","83001"
"2303",-106.8063989,41.4549764,"saratoga, wy 82331, usa","82331"
"2304",-107.9824261,43.9400396,"worland, wy 82401, usa","82401"
"2305",-106.3934777,43.0981345,"casper, wy 82601, usa","82601"
"2306",-108.9502232,43.068165,"fort washakie, wy 82514, usa","82514"
"2307",-108.4670603,43.7102608,"thermopolis, wy 82443, usa","82443"
"2308",-106.3934777,43.0981345,"casper, wy 82601, usa","82601"
"2309",-105.1258955,42.0906629,"wheatland, wy 82201, usa","82201"
"2310",-106.8986415,44.8302484,"sheridan, wy 82801, usa","82801"
"2311",-106.5909543,44.2317003,"buffalo, wy 82834, usa","82834"
"2312",-104.1930918,42.3666776,"torrington, wy 82240, usa","82240"
"2313",-110.8552919,42.7241963,"afton, wy 83110, usa","83110"
"2314",-110.5692179,42.0234559,"kemmerer, wy 83101, usa","83101"
