,lon,lat,address,ZIP
1,-86.1853474,39.8878841,"indianapolis, in 46260, usa",46260
2,-85.8690933,41.2270429,"warsaw, in 46580, usa",46580
3,-85.7461548,40.1287659,"anderson, in 46011, usa",46011
4,-85.8281458,40.782433,"wabash, in 46992, usa",46992
5,-86.6006249,39.0841668,"bloomington, in 47403, usa",47403
6,-85.7871663,39.5137401,"shelbyville, in 46176, usa",46176
7,-86.0835415,39.5963318,"greenwood, in 46143, usa",46143
8,-86.1039189,39.8029885,"indianapolis, in 46218, usa",46218
9,-85.3859519,40.2681398,"muncie, in 47303, usa",47303
10,-86.0529604,40.770099,"peru, in 46970, usa",46970
11,-86.2514126,39.7924104,"indianapolis, in 46224, usa",46224
12,-87.5198011,38.605823,"vincennes, in 47591, usa",47591
13,-85.8690933,41.2270429,"warsaw, in 46580, usa",46580
14,-85.4788065,39.6053598,"rushville, in 46173, usa",46173
15,-85.4974177,40.8830771,"huntington, in 46750, usa",46750
16,-84.8776392,39.1460289,"lawrenceburg, in 47025, usa",47025
17,-86.7013894,41.5939193,"la porte, in 46350, usa",46350
18,-86.1039189,40.4370815,"kokomo, in 46902, usa",46902
19,-85.7461548,40.1287659,"anderson, in 46011, usa",46011
20,-85.8690933,38.2651542,"new albany, in 47150, usa",47150
21,-86.0886366,39.7150218,"beech grove, in 46107, usa",46107
22,-86.3782198,41.3443814,"plymouth, in 46563, usa",46563
23,-86.0427626,39.7803581,"indianapolis, in 46219, usa",46219
24,-86.2514126,39.7924104,"indianapolis, in 46224, usa",46224
25,-85.9815339,41.7204299,"elkhart, in 46514, usa",46514
26,-85.3702359,39.9289601,"new castle, in 47362, usa",47362
27,-87.5593613,38.3544747,"princeton, in 47670, usa",47670
28,-86.8772298,40.4350547,"lafayette, in 47904, usa",47904
29,-85.1220031,41.1024994,"fort wayne, in 46805, usa",46805
30,-86.4794359,38.8721597,"bedford, in 47421, usa",47421
31,-86.3782198,41.3443814,"plymouth, in 46563, usa",46563
32,-86.2767995,41.6009257,"south bend, in 46614, usa",46614
33,-87.5741877,38.0223462,"evansville, in 47710, usa",47710
34,-85.9508923,40.0542448,"noblesville, in 46060, usa",46060
35,-86.1548269,41.6367762,"mishawaka, in 46544, usa",46544
36,-86.231094,41.6841001,"south bend, in 46617, usa",46617
37,-85.3756249,41.6479501,"lagrange, in 46761, usa",46761
38,-85.7256372,39.7794206,"greenfield, in 46140, usa",46140
39,-86.8772298,40.4350547,"lafayette, in 47904, usa",47904
40,-87.4405786,39.685614,"clinton, in 47842, usa",47842
41,-86.6409554,38.5000324,"french lick, in 47432, usa",47432
42,-85.4788065,41.1521887,"columbia city, in 46725, usa",46725
43,-87.5099057,41.5443613,"munster, in 46321, usa",46321
44,-86.5602614,39.7453574,"danville, in 46122, usa",46122
45,-85.971322,39.1265636,"columbus, in 47201, usa",47201
46,-86.4794359,38.8721597,"bedford, in 47421, usa",47421
47,-86.7013894,41.5939193,"la porte, in 46350, usa",46350
48,-86.9624086,41.4613036,"valparaiso, in 46383, usa",46383
49,-86.1242881,39.7419493,"indianapolis, in 46203, usa",46203
50,-86.1548269,40.50995,"kokomo, in 46901, usa",46901
51,-87.3959564,39.4935989,"terre haute, in 47804, usa",47804
52,-87.1727704,38.6591849,"washington, in 47501, usa",47501
53,-87.5741877,38.0223462,"evansville, in 47710, usa",47710
54,-86.1853474,39.8878841,"indianapolis, in 46260, usa",46260
55,-85.4788065,41.1521887,"columbia city, in 46725, usa",46725
56,-86.761749,40.7718746,"monticello, in 47960, usa",47960
57,-86.2463337,41.729365,"south bend, in 46637, usa",46637
58,-86.1853474,39.8878841,"indianapolis, in 46260, usa",46260
59,-86.8822445,41.6985831,"michigan city, in 46360, usa",46360
60,-84.8984775,39.8282551,"richmond, in 47374, usa",47374
61,-86.9624086,41.4613036,"valparaiso, in 46383, usa",46383
62,-85.1220031,41.1024994,"fort wayne, in 46805, usa",46805
63,-85.3702359,39.9289601,"new castle, in 47362, usa",47362
64,-85.8281458,40.782433,"wabash, in 46992, usa",46992
65,-85.7717907,38.3090632,"clarksville, in 47129, usa",47129
66,-86.9624086,41.4613036,"valparaiso, in 46383, usa",46383
67,-85.9611082,39.9008411,"indianapolis, in 46236, usa",46236
68,-85.4581859,40.2403959,"muncie, in 47304, usa",47304
69,-86.0325629,39.4810288,"franklin, in 46131, usa",46131
70,-85.6229296,40.6128584,"marion, in 46952, usa",46952
71,-85.1220031,41.1024994,"fort wayne, in 46805, usa",46805
72,-86.9624086,40.4932743,"west lafayette, in 47906, usa",47906
73,-86.1446493,41.6862153,"mishawaka, in 46545, usa",46545
74,-86.1650024,39.9693,"carmel, in 46032, usa",46032
75,-86.4592091,39.3913252,"martinsville, in 46151, usa",46151
76,-87.1722037,41.596455,"portage, in 46368, usa",46368
77,-85.7256372,39.7794206,"greenfield, in 46140, usa",46140
78,-85.7717907,38.3090632,"clarksville, in 47129, usa",47129
79,-86.1650024,39.6196709,"greenwood, in 46142, usa",46142
80,-86.0835415,39.6788037,"indianapolis, in 46237, usa",46237
81,-86.2767995,41.6009257,"south bend, in 46614, usa",46614
82,-86.1853474,39.8878841,"indianapolis, in 46260, usa",46260
83,-86.1955169,40.0215499,"westfield, in 46074, usa",46074
84,-85.4891138,40.4554483,"upland, in 46989, usa",46989
85,-86.9423801,39.6529824,"greencastle, in 46135, usa",46135
86,-85.6948458,38.3325704,"jeffersonville, in 47130, usa",47130
87,-85.84,41.59,"goshen, in 46527, usa",46527
88,-86.3984793,39.8638689,"brownsburg, in 46112, usa",46112
89,-84.9609464,41.0704536,"new haven, in 46774, usa",46774
90,-85.4684971,38.6597559,"hanover, in 47243, usa",47243
91,-85.3756249,38.8337651,"madison, in 47250, usa",47250
92,-85.4788065,39.3574436,"greensburg, in 47240, usa",47240
93,-86.4592091,40.0503732,"lebanon, in 46052, usa",46052
94,-87.3214908,41.3901576,"crown point, in 46307, usa",46307
95,-86.3883506,39.6886583,"plainfield, in 46168, usa",46168
96,-86.9624086,38.2984599,"huntingburg, in 47542, usa",47542
97,-87.5099057,41.484416,"dyer, in 46311, usa",46311
98,-86.2107672,41.7132821,"south bend, in 46635, usa",46635
99,-87.5099057,41.484416,"dyer, in 46311, usa",46311
100,-87.4009165,39.3539395,"terre haute, in 47802, usa",47802
101,-86.1039189,40.4370815,"kokomo, in 46902, usa",46902
102,-87.4009165,40.1366826,"covington, in 47932, usa",47932
103,-87.5741877,38.0223462,"evansville, in 47710, usa",47710
104,-86.1700894,39.7794767,"indianapolis, in 46202, usa",46202
105,-84.8984775,39.8282551,"richmond, in 47374, usa",47374
106,-85.4581859,40.2403959,"muncie, in 47304, usa",47304
107,-84.8984775,39.8282551,"richmond, in 47374, usa",47374
108,-84.981754,40.1595181,"winchester, in 47394, usa",47394
109,-85.5920787,40.4797391,"gas city, in 46933, usa",46933
110,-85.2308414,39.2647126,"batesville, in 47006, usa",47006
111,-87.4009165,39.3539395,"terre haute, in 47802, usa",47802
112,-86.3782198,40.7807397,"logansport, in 46947, usa",46947
113,-86.4086061,39.7716518,"avon, in 46123, usa",46123
114,-86.1242881,39.6801674,"indianapolis, in 46227, usa",46227
115,-85.5303235,40.192169,"yorktown, in 47396, usa",47396
116,-87.0824045,38.972191,"lyons, in 47443, usa",47443
117,-86.1242881,39.6801674,"indianapolis, in 46227, usa",46227
118,-85.3859519,40.2681398,"muncie, in 47303, usa",47303
119,-86.761749,40.4064351,"lafayette, in 47905, usa",47905
120,-86.0223611,39.9029533,"indianapolis, in 46256, usa",46256
121,-87.0424393,41.6231139,"chesterton, in 46304, usa",46304
122,-86.1242881,39.6801674,"indianapolis, in 46227, usa",46227
123,-87.5544182,37.9584319,"evansville, in 47713, usa",47713
124,-85.0545197,41.1046501,"fort wayne, in 46815, usa",46815
125,-87.2419299,41.5083014,"hobart, in 46342, usa",46342
126,-87.3612205,37.9701535,"newburgh, in 47630, usa",47630
127,-86.4794359,39.2053078,"bloomington, in 47408, usa",47408
128,-85.7256372,39.7794206,"greenfield, in 46140, usa",46140
129,-85.1220031,41.1024994,"fort wayne, in 46805, usa",46805
130,-85.6948458,40.096197,"anderson, in 46016, usa",46016
131,-86.9223432,40.0430746,"crawfordsville, in 47933, usa",47933
132,-87.4207518,39.0843122,"sullivan, in 47882, usa",47882
133,-86.9223432,38.6755182,"loogootee, in 47553, usa",47553
134,-84.8984775,39.8282551,"richmond, in 47374, usa",47374
135,-85.7717907,38.3090632,"clarksville, in 47129, usa",47129
136,-85.1220031,41.1024994,"fort wayne, in 46805, usa",46805
137,-85.8281458,38.683571,"scottsburg, in 47170, usa",47170
138,-85.9815339,41.7204299,"elkhart, in 46514, usa",46514
139,-87.0024407,38.1729722,"dale, in 47523, usa",47523
140,-86.0223611,39.9029533,"indianapolis, in 46256, usa",46256
141,-86.0631561,39.904342,"indianapolis, in 46250, usa",46250
142,-87.3612205,37.9701535,"newburgh, in 47630, usa",47630
143,-87.0824045,37.8788523,"rockport, in 47635, usa",47635
144,-87.5593613,38.3544747,"princeton, in 47670, usa",47670
145,-86.9624086,41.4613036,"valparaiso, in 46383, usa",46383
146,-86.438974,39.0793558,"bloomington, in 47401, usa",47401
147,-85.0856761,38.9886773,"dillsboro, in 47018, usa",47018
148,-86.93,38.39,"jasper, in 47547, usa",47547
149,-86.6207943,41.2715616,"knox, in 46534, usa",46534
150,-85.5817911,41.4566387,"ligonier, in 46767, usa",46767
151,-87.1023746,40.9627687,"rensselaer, in 47978, usa",47978
152,-85.7051116,40.5347721,"marion, in 46953, usa",46953
153,-86.6409554,40.6063002,"delphi, in 46923, usa",46923
154,-86.2869507,39.7884076,"indianapolis, in 46214, usa",46214
155,-86.1039189,39.8646455,"indianapolis, in 46220, usa",46220
156,-86.1242881,39.9063963,"indianapolis, in 46240, usa",46240
157,-86.5400674,40.2981184,"frankfort, in 46041, usa",46041
158,-86.7013894,41.5939193,"la porte, in 46350, usa",46350
159,-86.1853474,39.8878841,"indianapolis, in 46260, usa",46260
160,-87.1722037,41.596455,"portage, in 46368, usa",46368
161,-87.202099,39.1417109,"jasonville, in 47438, usa",47438
162,-85.3702359,39.9289601,"new castle, in 47362, usa",47362
163,-86.9624086,38.4247341,"jasper, in 47546, usa",47546
164,-86.1344697,38.2109599,"corydon, in 47112, usa",47112
165,-87.4405786,39.685614,"clinton, in 47842, usa",47842
166,-85.0545197,41.1046501,"fort wayne, in 46815, usa",46815
167,-85.3032811,41.0547294,"fort wayne, in 46814, usa",46814
168,-86.761749,40.7718746,"monticello, in 47960, usa",47960
169,-86.5198651,38.7479896,"mitchell, in 47446, usa",47446
170,-86.0529604,38.6285426,"salem, in 47167, usa",47167
171,-86.1242881,39.6801674,"indianapolis, in 46227, usa",46227
172,-87.6778378,37.9344448,"evansville, in 47712, usa",47712
173,-86.0427626,39.7803581,"indianapolis, in 46219, usa",46219
174,-86.0529604,38.6285426,"salem, in 47167, usa",47167
175,-87.1223362,41.4654036,"valparaiso, in 46385, usa",46385
176,-85.1479364,39.5920377,"connersville, in 47331, usa",47331
177,-86.4592091,38.5576546,"paoli, in 47454, usa",47454
178,-86.0427626,39.7803581,"indianapolis, in 46219, usa",46219
179,-85.1686743,40.8779373,"ossian, in 46777, usa",46777
180,-86.2463337,39.6841663,"indianapolis, in 46221, usa",46221
181,-86.4086061,39.7716518,"avon, in 46123, usa",46123
182,-87.1727704,38.6591849,"washington, in 47501, usa",47501
183,-87.9530849,37.9395358,"mt vernon, in 47620, usa",47620
184,-85.3756249,41.6479501,"lagrange, in 46761, usa",46761
185,-86.8822445,41.6985831,"michigan city, in 46360, usa",46360
186,-87.6383797,38.0606668,"evansville, in 47720, usa",47720
187,-85.1220031,41.1024994,"fort wayne, in 46805, usa",46805
188,-85.9917437,41.6312177,"elkhart, in 46517, usa",46517
189,-85.4788065,39.3574436,"greensburg, in 47240, usa",47240
190,-87.3612205,37.9701535,"newburgh, in 47630, usa",47630
191,-86.3478151,41.6530149,"south bend, in 46619, usa",46619
192,-85.1738576,41.0644747,"fort wayne, in 46802, usa",46802
193,-85.7461548,39.9649727,"pendleton, in 46064, usa",46064
194,-87.311553,39.465825,"terre haute, in 47803, usa",47803
195,-85.1375645,40.9673499,"fort wayne, in 46819, usa",46819
196,-87.3214908,38.4755039,"petersburg, in 47567, usa",47567
197,-87.3214908,41.4701989,"merrillville, in 46410, usa",46410
198,-87.0024407,38.1729722,"dale, in 47523, usa",47523
199,-85.2101269,41.1614273,"fort wayne, in 46818, usa",46818
200,-86.1548269,40.50995,"kokomo, in 46901, usa",46901
201,-86.438974,38.1572869,"leavenworth, in 47137, usa",47137
202,-87.913867,38.1081439,"new harmony, in 47631, usa",47631
203,-85.1686743,40.7163045,"bluffton, in 46714, usa",46714
204,-86.9223432,38.6755182,"loogootee, in 47553, usa",47553
205,-87.3214908,38.4755039,"petersburg, in 47567, usa",47567
206,-86.2361744,40.1456899,"sheridan, in 46069, usa",46069
207,-85.8895551,38.9572194,"seymour, in 47274, usa",47274
208,-86.4592091,40.0503732,"lebanon, in 46052, usa",46052
209,-86.2158497,41.0983022,"rochester, in 46975, usa",46975
210,-85.9508923,40.0542448,"noblesville, in 46060, usa",46060
211,-86.3224638,39.712347,"indianapolis, in 46231, usa",46231
212,-86.681253,38.0376196,"tell city, in 47586, usa",47586
213,-86.3782198,40.7807397,"logansport, in 46947, usa",46947
214,-84.8776392,41.4274838,"butler, in 46721, usa",46721
215,-85.1479364,39.5920377,"connersville, in 47331, usa",47331
216,-86.4794359,38.8721597,"bedford, in 47421, usa",47421
217,-86.2260131,39.8070137,"indianapolis, in 46222, usa",46222
218,-87.5741877,38.0223462,"evansville, in 47710, usa",47710
219,-85.2929384,41.4452015,"kendallville, in 46755, usa",46755
220,-85.3859519,40.2681398,"muncie, in 47303, usa",47303
221,-86.9223432,40.0430746,"crawfordsville, in 47933, usa",47933
222,-86.9624086,40.4932743,"west lafayette, in 47906, usa",47906
223,-86.4592091,40.0503732,"lebanon, in 46052, usa",46052
224,-86.0529604,40.770099,"peru, in 46970, usa",46970
225,-86.1242881,39.6801674,"indianapolis, in 46227, usa",46227
226,-86.1650024,39.6196709,"greenwood, in 46142, usa",46142
227,-87.1622344,39.0575061,"linton, in 47441, usa",47441
228,-85.8281458,38.683571,"scottsburg, in 47170, usa",47170
229,-86.9223432,40.0430746,"crawfordsville, in 47933, usa",47933
230,-87.485158,41.6784627,"whiting, in 46394, usa",46394
231,-85.7871663,39.1823914,"columbus, in 47203, usa",47203
232,-87.3959564,39.4935989,"terre haute, in 47804, usa",47804
233,-85.3756249,38.8337651,"madison, in 47250, usa",47250
234,-86.1599149,39.7379842,"indianapolis, in 46225, usa",46225
235,-86.2158497,41.0983022,"rochester, in 46975, usa",46975
236,-85.2929384,40.274595,"albany, in 47320, usa",47320
237,-85.1479364,39.5920377,"connersville, in 47331, usa",47331
238,-86.7013894,41.0326638,"winamac, in 46996, usa",46996
239,-86.1344697,38.2109599,"corydon, in 47112, usa",47112
240,-86.0325629,39.4810288,"franklin, in 46131, usa",46131
241,-85.3859519,40.2681398,"muncie, in 47303, usa",47303
242,-85.4974177,40.8830771,"huntington, in 46750, usa",46750
243,-85.2411958,41.0521864,"fort wayne, in 46804, usa",46804
244,-87.4207518,41.2922034,"lowell, in 46356, usa",46356
245,-85.0025539,41.6323583,"angola, in 46703, usa",46703
246,-85.7051116,40.5347721,"marion, in 46953, usa",46953
247,-87.4703029,41.5434996,"highland, in 46322, usa",46322
248,-85.3702359,39.9289601,"new castle, in 47362, usa",47362
249,-87.1727704,38.6591849,"washington, in 47501, usa",47501
250,-85.1271907,38.781935,"vevay, in 47043, usa",47043
251,-87.1821709,39.7414762,"rockville, in 47872, usa",47872
252,-87.4207518,39.0843122,"sullivan, in 47882, usa",47882
253,-87.2419299,41.5083014,"hobart, in 46342, usa",46342
254,-85.7871663,39.1823914,"columbus, in 47203, usa",47203
255,-86.2361744,39.8998074,"indianapolis, in 46268, usa",46268
256,-84.9193082,40.6651367,"berne, in 46711, usa",46711
257,-86.1548269,41.4771788,"bremen, in 46506, usa",46506
258,-85.116815,41.1474763,"fort wayne, in 46825, usa",46825
259,-86.9223432,40.0430746,"crawfordsville, in 47933, usa",47933
260,-86.9624086,38.4247341,"jasper, in 47546, usa",47546
261,-85.116815,41.1474763,"fort wayne, in 46825, usa",46825
262,-84.9609464,39.4396145,"brookville, in 47012, usa",47012
263,-84.8984775,39.8282551,"richmond, in 47374, usa",47374
264,-85.2929384,41.4452015,"kendallville, in 46755, usa",46755
265,-84.9193082,38.9399237,"rising sun, in 47040, usa",47040
266,-87.4009165,39.3539395,"terre haute, in 47802, usa",47802
267,-85.4994192,40.0376228,"middletown, in 47356, usa",47356
268,-86.2158497,39.2178297,"nashville, in 47448, usa",47448
269,-85.8690933,38.2651542,"new albany, in 47150, usa",47150
270,-85.1997667,40.1789583,"parker city, in 47368, usa",47368
271,-85.0025539,39.7711485,"centerville, in 47330, usa",47330
272,-85.1479364,39.5920377,"connersville, in 47331, usa",47331
273,-86.8421125,38.25315,"ferdinand, in 47532, usa",47532
274,-85.8281458,38.683571,"scottsburg, in 47170, usa",47170
275,-85.8690933,41.3873254,"milford, in 46542, usa",46542
276,-85.9917437,41.6312177,"elkhart, in 46517, usa",46517
277,-85.1686743,40.7163045,"bluffton, in 46714, usa",46714
278,-87.7566513,38.2741262,"owensville, in 47665, usa",47665
279,-87.1223362,39.5130178,"brazil, in 47834, usa",47834
280,-86.2361744,39.8998074,"indianapolis, in 46268, usa",46268
281,-86.2107672,41.7132821,"south bend, in 46635, usa",46635
282,-84.8984775,39.6637751,"liberty, in 47353, usa",47353
283,-87.2618328,38.0736703,"boonville, in 47601, usa",47601
284,-85.9508923,40.4623453,"greentown, in 46936, usa",46936
285,-87.3959564,39.472912,"terre haute, in 47807, usa",47807
286,-85.2515482,41.3635429,"avilla, in 46710, usa",46710
287,-85.1220031,41.1024994,"fort wayne, in 46805, usa",46805
288,-87.5198011,38.605823,"vincennes, in 47591, usa",47591
289,-87.5741877,38.0223462,"evansville, in 47710, usa",47710
290,-85.6640365,40.248276,"alexandria, in 46001, usa",46001
291,-85.8281458,40.2950908,"elwood, in 46036, usa",46036
292,-86.6107106,39.2818358,"ellettsville, in 47429, usa",47429
293,-87.1622344,39.0575061,"linton, in 47441, usa",47441
294,-84.8776392,39.1460289,"lawrenceburg, in 47025, usa",47025
295,-84.981754,40.4040725,"portland, in 47371, usa",47371
296,-84.981754,40.1595181,"winchester, in 47394, usa",47394
297,-87.3363934,41.6053514,"gary, in 46402, usa",46402
298,-85.4974177,40.8830771,"huntington, in 46750, usa",46750
299,-86.438974,39.0793558,"bloomington, in 47401, usa",47401
300,-85.7871663,39.1823914,"columbus, in 47203, usa",47203
301,-86.9624086,38.843911,"odon, in 47562, usa",47562
302,-87.0895822,39.5280314,"knightsville, in 47857, usa",47857
303,-85.4974177,40.8830771,"huntington, in 46750, usa",46750
304,-85.4581859,40.2403959,"muncie, in 47304, usa",47304
305,-85.3756249,40.1145913,"muncie, in 47302, usa",47302
306,-85.7461548,40.6985064,"la fontaine, in 46940, usa",46940
307,-86.0733498,40.3036533,"tipton, in 46072, usa",46072
308,-86.1039189,39.8029885,"indianapolis, in 46218, usa",46218
309,-87.3214908,38.3071795,"oakland city, in 47660, usa",47660
310,-86.357952,39.5742773,"mooresville, in 46158, usa",46158
311,-86.9423801,39.6529824,"greencastle, in 46135, usa",46135
312,-85.8690933,41.2270429,"warsaw, in 46580, usa",46580
313,-85.116815,41.1474763,"fort wayne, in 46825, usa",46825
314,-87.4009165,40.3409935,"williamsport, in 47993, usa",47993
315,-85.9100089,39.8887899,"mccordsville, in 46055, usa",46055
316,-85.2515482,40.3544022,"dunkirk, in 47336, usa",47336
317,-87.2419299,41.1876777,"de motte, in 46310, usa",46310
318,-85.4994192,40.0376228,"middletown, in 47356, usa",47356
319,-86.5400674,41.5093583,"walkerton, in 46574, usa",46574
320,-85.3962769,40.5025949,"hartford city, in 47348, usa",47348
321,-86.4794359,41.72678,"new carlisle, in 46552, usa",46552
322,-85.7461548,39.3053644,"hope, in 47246, usa",47246
323,-87.3711477,41.5812093,"gary, in 46404, usa",46404
324,-85.7256372,41.4020991,"syracuse, in 46567, usa",46567
325,-86.0733498,41.5542881,"wakarusa, in 46573, usa",46573
326,-85.1271907,41.3183299,"garrett, in 46738, usa",46738
327,-85.0337392,41.0233277,"fort wayne, in 46816, usa",46816
328,-86.8019473,39.5046719,"cloverdale, in 46120, usa",46120
329,-86.438974,41.2058874,"culver, in 46511, usa",46511
330,-86.0325629,39.4810288,"franklin, in 46131, usa",46131
331,-85.0025539,41.6323583,"angola, in 46703, usa",46703
332,-86.6510329,40.3523545,"mulberry, in 46058, usa",46058
333,-86.8772298,40.4350547,"lafayette, in 47904, usa",47904
334,-86.4592091,39.3913252,"martinsville, in 46151, usa",46151
335,-86.3275351,39.8102628,"indianapolis, in 46234, usa",46234
336,-87.5741877,38.0223462,"evansville, in 47710, usa",47710
337,-87.3214908,41.3901576,"crown point, in 46307, usa",46307
338,-85.9917437,38.8147216,"brownstown, in 47220, usa",47220
339,-85.8690933,38.2651542,"new albany, in 47150, usa",47150
340,-85.8690933,38.2651542,"new albany, in 47150, usa",47150
341,-85.612648,40.0726595,"anderson, in 46017, usa",46017
342,-86.1650024,39.9693,"carmel, in 46032, usa",46032
343,-86.2767995,39.9831886,"zionsville, in 46077, usa",46077
344,-87.6383797,38.0606668,"evansville, in 47720, usa",47720
345,-85.4788065,39.3574436,"greensburg, in 47240, usa",47240
346,-85.8281458,40.782433,"wabash, in 46992, usa",46992
347,-86.1395598,39.829875,"indianapolis, in 46205, usa",46205
348,-85.4788065,39.6053598,"rushville, in 46173, usa",46173
349,-86.4794359,38.8721597,"bedford, in 47421, usa",47421
350,-87.5198011,38.605823,"vincennes, in 47591, usa",47591
351,-85.8127822,41.2199971,"winona lake, in 46590, usa",46590
352,-86.0427626,39.7803581,"indianapolis, in 46219, usa",46219
353,-87.3214908,41.3901576,"crown point, in 46307, usa",46307
354,-86.7818523,39.3177867,"spencer, in 47460, usa",47460
355,-87.3214908,41.4701989,"merrillville, in 46410, usa",46410
356,-86.0325629,39.4810288,"franklin, in 46131, usa",46131
357,-87.4504888,41.6428269,"east chicago, in 46312, usa",46312
358,-85.2101269,41.0005907,"fort wayne, in 46809, usa",46809
359,-85.7461548,40.981297,"north manchester, in 46962, usa",46962
360,-85.0545197,41.1448223,"fort wayne, in 46835, usa",46835
361,-86.1344697,38.2109599,"corydon, in 47112, usa",47112
362,-86.5400674,40.2981184,"frankfort, in 46041, usa",46041
363,-85.7769164,38.3986259,"sellersburg, in 47172, usa",47172
364,-86.7013894,41.0326638,"winamac, in 46996, usa",46996
365,-86.7818523,39.3177867,"spencer, in 47460, usa",47460
366,-87.5099057,41.5443613,"munster, in 46321, usa",46321
367,-86.2666463,39.8494377,"indianapolis, in 46254, usa",46254
368,-85.6229296,39.0100292,"north vernon, in 47265, usa",47265
369,-85.0441304,41.3548101,"auburn, in 46706, usa",46706
370,-87.2419299,41.1876777,"de motte, in 46310, usa",46310
371,-85.8690933,38.2651542,"new albany, in 47150, usa",47150
372,-85.9508923,40.0542448,"noblesville, in 46060, usa",46060
373,-87.3612205,37.9701535,"newburgh, in 47630, usa",47630
374,-86.681253,38.0376196,"tell city, in 47586, usa",47586
375,-86.4794359,41.72678,"new carlisle, in 46552, usa",46552
376,-85.2929384,40.8830675,"markle, in 46770, usa",46770
377,-86.9624086,38.4247341,"jasper, in 47546, usa",47546
378,-85.4788065,39.3574436,"greensburg, in 47240, usa",47240
379,-86.6107106,40.4326587,"rossville, in 46065, usa",46065
380,-86.4794359,39.2053078,"bloomington, in 47408, usa",47408
381,-86.1548269,40.50995,"kokomo, in 46901, usa",46901
382,-85.0545197,41.1448223,"fort wayne, in 46835, usa",46835
383,-86.4592091,40.0503732,"lebanon, in 46052, usa",46052
384,-85.8690933,38.2651542,"new albany, in 47150, usa",47150
385,-87.2618328,38.0736703,"boonville, in 47601, usa",47601
386,-86.1039189,39.8029885,"indianapolis, in 46218, usa",46218
387,-86.2767995,41.6009257,"south bend, in 46614, usa",46614
388,-85.9917437,41.6312177,"elkhart, in 46517, usa",46517
389,-86.6207943,41.2715616,"knox, in 46534, usa",46534
390,-85.4581859,40.2403959,"muncie, in 47304, usa",47304
391,-87.3056515,38.8650358,"freelandville, in 47535, usa",47535
392,-85.8690933,41.5471471,"goshen, in 46526, usa",46526
393,-85.6332093,40.1552316,"anderson, in 46012, usa",46012
394,-85.7051116,39.6757563,"morristown, in 46161, usa",46161
395,-85.4974177,40.8830771,"huntington, in 46750, usa",46750
396,-85.7871663,39.1823914,"columbus, in 47203, usa",47203
397,-85.0441304,41.3548101,"auburn, in 46706, usa",46706
398,-85.9406745,41.6792072,"elkhart, in 46516, usa",46516
399,-87.5198011,38.605823,"vincennes, in 47591, usa",47591
400,-85.7717907,38.3090632,"clarksville, in 47129, usa",47129
401,-85.6332093,40.1552316,"anderson, in 46012, usa",46012
402,-85.3962769,40.5025949,"hartford city, in 47348, usa",47348
403,-86.4478279,41.3628173,"donaldson, in 46513, usa",46513
404,-85.1686743,40.7163045,"bluffton, in 46714, usa",46714
405,-86.0529604,40.770099,"peru, in 46970, usa",46970
406,-86.9624086,38.4247341,"jasper, in 47546, usa",47546
407,-85.6743082,39.4579485,"waldron, in 46182, usa",46182
408,-85.3756249,40.6842862,"warren, in 46792, usa",46792
409,-84.9193082,40.6651367,"berne, in 46711, usa",46711
410,-87.1727704,38.6591849,"washington, in 47501, usa",47501
411,-86.3782198,40.7807397,"logansport, in 46947, usa",46947
412,-86.1700894,39.8206062,"indianapolis, in 46208, usa",46208
413,-85.8895551,38.9572194,"seymour, in 47274, usa",47274
414,-87.4405786,38.8553297,"oaktown, in 47561, usa",47561
415,-85.8895551,38.9572194,"seymour, in 47274, usa",47274
416,-87.5494745,38.0059645,"evansville, in 47711, usa",47711
417,-86.2260131,39.8070137,"indianapolis, in 46222, usa",46222
418,-85.7461548,40.1287659,"anderson, in 46011, usa",46011
419,-87.3648772,40.8656511,"brook, in 47922, usa",47922
420,-86.9624086,38.4247341,"jasper, in 47546, usa",47546
421,-86.0427626,39.8420351,"indianapolis, in 46226, usa",46226
422,-87.4703029,37.961954,"evansville, in 47715, usa",47715
423,-86.3782198,40.7807397,"logansport, in 46947, usa",46947
424,-86.9624086,40.4932743,"west lafayette, in 47906, usa",47906
425,-85.1686743,40.7163045,"bluffton, in 46714, usa",46714
426,-86.4794359,38.8721597,"bedford, in 47421, usa",47421
427,-85.3342973,39.1651743,"osgood, in 47037, usa",47037
428,-84.8776392,40.9863152,"monroeville, in 46773, usa",46773
429,-85.1271907,39.1567135,"milan, in 47031, usa",47031
430,-87.5593613,38.3544747,"princeton, in 47670, usa",47670
431,-87.3214908,41.3901576,"crown point, in 46307, usa",46307
432,-85.4684971,38.6597559,"hanover, in 47243, usa",47243
433,-85.7871663,39.5137401,"shelbyville, in 46176, usa",46176
434,-86.9423801,39.6529824,"greencastle, in 46135, usa",46135
435,-86.2539519,41.6724038,"south bend, in 46601, usa",46601
436,-85.7461548,40.981297,"north manchester, in 46962, usa",46962
437,-86.1242881,39.7419493,"indianapolis, in 46203, usa",46203
438,-85.2308414,39.2647126,"batesville, in 47006, usa",47006
439,-87.2618328,40.6429335,"fowler, in 47944, usa",47944
440,-85.2929384,41.4452015,"kendallville, in 46755, usa",46755
441,-86.2412543,41.7043332,"notre dame, in 46556, usa",46556
442,-86.8822445,40.977214,"francesville, in 47946, usa",47946
443,-84.8984775,40.8057637,"decatur, in 46733, usa",46733
444,-86.2767995,39.3649383,"morgantown, in 46160, usa",46160
445,-86.357952,39.5742773,"mooresville, in 46158, usa",46158
446,-86.2463337,41.729365,"south bend, in 46637, usa",46637
447,-85.8281458,38.683571,"scottsburg, in 47170, usa",47170
448,-85.9917437,41.6312177,"elkhart, in 46517, usa",46517
449,-85.0545197,41.1046501,"fort wayne, in 46815, usa",46815
450,-85.2411958,41.0521864,"fort wayne, in 46804, usa",46804
451,-86.0835415,39.6788037,"indianapolis, in 46237, usa",46237
452,-86.9423801,39.6529824,"greencastle, in 46135, usa",46135
453,-85.3702359,39.9289601,"new castle, in 47362, usa",47362
454,-85.8690933,41.5471471,"goshen, in 46526, usa",46526
455,-86.3984793,39.8638689,"brownsburg, in 46112, usa",46112
456,-84.8984775,39.8282551,"richmond, in 47374, usa",47374
457,-85.4169211,41.3702371,"albion, in 46701, usa",46701
458,-87.3214908,41.4701989,"merrillville, in 46410, usa",46410
459,-85.8690933,38.2651542,"new albany, in 47150, usa",47150
460,-85.7769164,38.3986259,"sellersburg, in 47172, usa",47172
461,-85.7256372,39.7794206,"greenfield, in 46140, usa",46140
462,-87.5296943,37.9632116,"evansville, in 47714, usa",47714
463,-85.4581859,40.2403959,"muncie, in 47304, usa",47304
464,-85.9815339,38.3006323,"georgetown, in 47122, usa",47122
465,-86.0325629,39.4810288,"franklin, in 46131, usa",46131
466,-87.4009165,39.3539395,"terre haute, in 47802, usa",47802
467,-87.6778378,37.9344448,"evansville, in 47712, usa",47712
468,-86.3782198,40.7807397,"logansport, in 46947, usa",46947
469,-86.9624086,40.4932743,"west lafayette, in 47906, usa",47906
470,-87.4009165,39.3539395,"terre haute, in 47802, usa",47802
471,-86.761749,40.4064351,"lafayette, in 47905, usa",47905
472,-87.202099,40.2955652,"attica, in 47918, usa",47918
473,-85.9508923,40.0542448,"noblesville, in 46060, usa",46060
474,-86.1242881,39.6801674,"indianapolis, in 46227, usa",46227
475,-86.761749,40.7718746,"monticello, in 47960, usa",47960
476,-85.9815339,41.7204299,"elkhart, in 46514, usa",46514
477,-86.1446493,41.6862153,"mishawaka, in 46545, usa",46545
478,-87.6778378,37.9344448,"evansville, in 47712, usa",47712
479,-86.0223611,39.9645049,"fishers, in 46038, usa",46038
480,-86.9624086,40.4932743,"west lafayette, in 47906, usa",47906
481,-86.1650024,39.6196709,"greenwood, in 46142, usa",46142
482,-84.8776392,39.1460289,"lawrenceburg, in 47025, usa",47025
483,-86.0835415,39.9870866,"carmel, in 46033, usa",46033
484,-86.0529604,40.770099,"peru, in 46970, usa",46970
485,-86.4086061,39.7716518,"avon, in 46123, usa",46123
486,-85.9406745,39.9616798,"fishers, in 46037, usa",46037
487,-86.1650024,39.9693,"carmel, in 46032, usa",46032
488,-86.9624086,41.4613036,"valparaiso, in 46383, usa",46383
489,-85.0337392,41.2442344,"leo-cedarvle, in 46765, usa",46765
490,-85.4788065,39.3574436,"greensburg, in 47240, usa",47240
491,-85.116815,41.2076817,"fort wayne, in 46845, usa",46845
492,-85.7051116,40.5347721,"marion, in 46953, usa",46953
493,-85.116815,41.1474763,"fort wayne, in 46825, usa",46825
494,-87.2618328,38.0736703,"boonville, in 47601, usa",47601
495,-87.4696839,39.5113782,"st mary-of-the-woods, in 47876, usa",47876
496,-87.3612205,37.9701535,"newburgh, in 47630, usa",47630
497,-86.1548269,41.6367762,"mishawaka, in 46544, usa",46544
498,-87.0424393,41.6231139,"chesterton, in 46304, usa",46304
499,-85.8281458,40.782433,"wabash, in 46992, usa",46992
500,-86.1039189,39.8029885,"indianapolis, in 46218, usa",46218
501,-86.1955169,40.0215499,"westfield, in 46074, usa",46074
502,-85.116815,41.2076817,"fort wayne, in 46845, usa",46845
503,-85.8281458,40.782433,"wabash, in 46992, usa",46992
504,-86.3275351,39.8102628,"indianapolis, in 46234, usa",46234
505,-86.9223432,40.0430746,"crawfordsville, in 47933, usa",47933
506,-85.8690933,38.2651542,"new albany, in 47150, usa",47150
507,-86.4086061,39.7716518,"avon, in 46123, usa",46123
508,-86.0223611,39.9029533,"indianapolis, in 46256, usa",46256
509,-86.1039189,39.8029885,"indianapolis, in 46218, usa",46218
510,-86.1650024,39.9693,"carmel, in 46032, usa",46032
511,-86.5703554,39.2183952,"bloomington, in 47404, usa",47404
512,-86.1039189,40.4370815,"kokomo, in 46902, usa",46902
513,-87.5296943,37.9632116,"evansville, in 47714, usa",47714
514,-86.0835415,39.5963318,"greenwood, in 46143, usa",46143
515,-87.4207518,41.2922034,"lowell, in 46356, usa",46356
516,-86.0835415,39.6788037,"indianapolis, in 46237, usa",46237
517,-86.2463337,41.729365,"south bend, in 46637, usa",46637
518,-86.1853474,39.8878841,"indianapolis, in 46260, usa",46260
519,-86.2666463,39.8494377,"indianapolis, in 46254, usa",46254
520,-85.7871663,39.5137401,"shelbyville, in 46176, usa",46176
521,-85.3859519,40.2681398,"muncie, in 47303, usa",47303
522,-87.3264588,41.5751928,"gary, in 46407, usa",46407
523,-85.6640365,40.3298352,"summitville, in 46070, usa",46070
524,-86.0886366,39.7150218,"beech grove, in 46107, usa",46107
525,-86.0835415,39.9870866,"carmel, in 46033, usa",46033
526,-85.2515482,38.9955339,"versailles, in 47042, usa",47042
527,-86.2666463,39.7260156,"indianapolis, in 46241, usa",46241
528,-86.8421125,38.25315,"ferdinand, in 47532, usa",47532
529,-86.2970998,43.6927521,"hart, mi 49420, usa",49420
530,-86.1344697,44.2205682,"manistee, mi 49660, usa",49660
531,-86.317392,43.2123878,"muskegon, mi 49441, usa",49441
532,-86.1955169,44.6186408,"frankfort, mi 49635, usa",49635
533,-84.6270618,44.9858952,"gaylord, mi 49735, usa",49735
534,-85.0649071,41.9327779,"coldwater, mi 49036, usa",49036
535,-85.2929384,42.6306916,"hastings, mi 49058, usa",49058
536,-83.6135572,44.2398928,"tawas city, mi 48763, usa",48763
537,-85.5097226,41.9213069,"centreville, mi 49032, usa",49032
538,-83.3041061,42.42421,"redford charter twp, mi 48240, usa",48240
539,-84.406761,42.698235,"okemos, mi 48864, usa",48864
540,-84.406761,42.2675415,"jackson, mi 49202, usa",49202
541,-84.375233,42.3151209,"jackson, mi 49201, usa",49201
542,-84.6688348,43.3789816,"alma, mi 48801, usa",48801
543,-84.0378894,42.2980829,"chelsea, mi 48118, usa",48118
544,-84.7315563,43.8606165,"clare, mi 48617, usa",48617
545,-85.1686743,42.3905327,"battle creek, mi 49017, usa",49017
546,-85.2008005,44.9553719,"bellaire, mi 49615, usa",49615
547,-89.881995,46.477708,"wakefield, mi 49968, usa",49968
548,-84.8150781,42.5514396,"charlotte, mi 48813, usa",48813
549,-83.0361376,43.7698518,"bad axe, mi 48413, usa",48413
550,-88.5893195,47.1470492,"hancock, mi 49930, usa",49930
551,-85.0441304,43.0095074,"ionia, mi 48846, usa",48846
552,-85.0211732,45.5113315,"harbor springs, mi 49740, usa",49740
553,-85.6332093,42.8683658,"grand rapids, mi 49508, usa",49508
554,-83.1756188,42.6509755,"rochester, mi 48309, usa",48309
555,-84.7942091,43.6151255,"mt pleasant, mi 48858, usa",48858
556,-85.6332093,43.0043693,"grand rapids, mi 49505, usa",49505
557,-85.7769164,42.8737472,"grandville, mi 49418, usa",49418
558,-84.7552977,46.0316836,"st ignace, mi 49781, usa",49781
559,-83.7730237,43.6119299,"essexville, mi 48732, usa",48732
560,-85.5715015,42.2593625,"kalamazoo, mi 49001, usa",49001
561,-85.2929384,43.444816,"lakeview, mi 48850, usa",48850
562,-83.2291862,42.1352293,"trenton, mi 48183, usa",48183
563,-85.2101269,42.2743768,"battle creek, mi 49015, usa",49015
564,-83.9638426,43.4304646,"saginaw, mi 48602, usa",48602
565,-83.3735966,42.3939863,"livonia, mi 48154, usa",48154
566,-83.3789389,43.0221538,"lapeer, mi 48446, usa",48446
567,-85.1276986,45.1393985,"east jordan, mi 49727, usa",49727
568,-83.6561215,42.4344566,"south lyon, mi 48178, usa",48178
569,-84.0378894,43.000306,"corunna, mi 48817, usa",48817
570,-87.4928554,45.7436299,"powers, mi 49874, usa",49874
571,-86.3984793,43.9823555,"ludington, mi 49431, usa",49431
572,-83.0361376,43.3104318,"marlette, mi 48453, usa",48453
573,-85.6588999,42.9616689,"grand rapids, mi 49503, usa",49503
574,-85.9100089,43.4685143,"fremont, mi 49412, usa",49412
575,-86.0733498,42.7381514,"holland, mi 49423, usa",49423
576,-85.6640365,44.8245398,"traverse city, mi 49684, usa",49684
577,-83.3789389,43.4844321,"caro, mi 48723, usa",48723
578,-85.4788065,44.2722287,"cadillac, mi 49601, usa",49601
579,-82.9877866,42.3612206,"detroit, mi 48214, usa",48214
580,-85.5097226,42.9219281,"grand rapids, mi 49546, usa",49546
581,-82.8963604,42.4192083,"grosse pointe, mi 48236, usa",48236
582,-84.0273168,43.4530016,"saginaw, mi 48603, usa",48603
583,-85.6332093,42.3010755,"kalamazoo, mi 49006, usa",49006
584,-86.1141045,43.24433,"muskegon, mi 49442, usa",49442
585,-83.3735966,42.3939863,"livonia, mi 48154, usa",48154
586,-83.984674,42.9118821,"durand, mi 48429, usa",48429
587,-83.8685072,43.0687917,"flushing, mi 48433, usa",48433
588,-83.8685072,43.4157871,"saginaw, mi 48601, usa",48601
589,-85.2515482,43.1731842,"greenville, mi 48838, usa",48838
590,-88.452979,46.7566255,"l'anse, mi 49946, usa",49946
591,-86.2462392,45.957739,"manistique, mi 49854, usa",49854
592,-84.03,43.44,"saginaw, mi 48608, usa",48608
593,-82.8802133,42.5988654,"mt clemens, mi 48043, usa",48043
594,-82.8425216,43.4328969,"sandusky, mi 48471, usa",48471
595,-89.4001021,46.7849844,"ontonagon, mi 49953, usa",49953
596,-86.5198651,42.005794,"stevensville, mi 49127, usa",49127
597,-83.570964,42.9362643,"grand blanc, mi 48439, usa",48439
598,-84.9609464,42.2637126,"marshall, mi 49068, usa",49068
599,-83.7411631,43.37045,"frankenmuth, mi 48734, usa",48734
600,-85.9100089,43.4685143,"fremont, mi 49412, usa",49412
601,-83.1916937,42.4224755,"detroit, mi 48235, usa",48235
602,-87.1630507,45.7738752,"escanaba, mi 49829, usa",49829
603,-84.059029,41.8851765,"adrian, mi 49221, usa",49221
604,-83.624201,43.0651073,"flint, mi 48506, usa",48506
605,-83.1059154,42.5053384,"madison heights, mi 48071, usa",48071
606,-83.9108968,43.9910391,"standish, mi 48658, usa",48658
607,-84.6269824,41.8933451,"hillsdale, mi 49242, usa",49242
608,-84.6479124,44.687947,"grayling, mi 49738, usa",49738
609,-86.1141045,43.24433,"muskegon, mi 49442, usa",49442
610,-85.5406209,43.9140678,"reed city, mi 49677, usa",49677
611,-86.3275351,43.376782,"whitehall, mi 49461, usa",49461
612,-83.1916937,42.4224755,"detroit, mi 48235, usa",48235
613,-85.6144005,44.9719831,"suttons bay, mi 49682, usa",49682
614,-85.8895551,42.5166512,"allegan, mi 49010, usa",49010
615,-83.1514991,42.5349326,"clawson, mi 48017, usa",48017
616,-83.2398943,42.5767898,"bloomfield hills, mi 48304, usa",48304
617,-83.7092861,42.3295957,"ann arbor, mi 48105, usa",48105
618,-84.059029,41.8851765,"adrian, mi 49221, usa",49221
619,-83.4003037,41.9480522,"monroe, mi 48162, usa",48162
620,-83.570964,42.9362643,"grand blanc, mi 48439, usa",48439
621,-83.3842808,42.3358116,"westland, mi 48185, usa",48185
622,-83.4003037,41.9480522,"monroe, mi 48162, usa",48162
623,-83.1380955,42.370326,"detroit, mi 48204, usa",48204
624,-84.448772,42.758734,"east lansing, mi 48823, usa",48823
625,-85.0856761,42.3477418,"battle creek, mi 49014, usa",49014
626,-83.8260884,42.1689208,"saline, mi 48176, usa",48176
627,-83.025396,42.3488239,"detroit, mi 48207, usa",48207
628,-85.5303235,44.8474167,"traverse city, mi 49686, usa",49686
629,-87.1630507,45.7738752,"escanaba, mi 49829, usa",49829
630,-84.2278796,43.7600155,"midland, mi 48642, usa",48642
631,-85.6332093,42.3010755,"kalamazoo, mi 49006, usa",49006
632,-84.0801613,43.3885035,"saginaw, mi 48609, usa",48609
633,-83.9638426,43.4304646,"saginaw, mi 48602, usa",48602
634,-83.3468784,42.6415701,"waterford twp, mi 48328, usa",48328
635,-85.3342973,42.9440633,"lowell, mi 49331, usa",49331
636,-84.406761,42.2675415,"jackson, mi 49202, usa",49202
637,-84.6583745,42.6517139,"dimondale, mi 48821, usa",48821
638,-88.2945022,46.1582182,"crystal falls, mi 49920, usa",49920
639,-83.0039075,42.464947,"warren, mi 48089, usa",48089
640,-83.3468784,42.6415701,"waterford twp, mi 48328, usa",48328
641,-85.6332093,43.0043693,"grand rapids, mi 49505, usa",49505
642,-83.6561215,42.5908492,"milford, mi 48380, usa",48380
643,-83.0039075,42.562608,"sterling heights, mi 48312, usa",48312
644,-85.8895551,42.5166512,"allegan, mi 49010, usa",49010
645,-83.1970511,42.2021569,"southgate, mi 48195, usa",48195
646,-88.0583849,45.8329034,"iron mountain, mi 49801, usa",49801
647,-83.7411631,43.37045,"frankenmuth, mi 48734, usa",48734
648,-86.2361744,42.3912071,"south haven, mi 49090, usa",49090
649,-83.4856913,41.913413,"monroe, mi 48161, usa",48161
650,-84.5536678,42.6272648,"holt, mi 48842, usa",48842
651,-83.490932,45.0765963,"alpena, mi 49707, usa",49707
652,-85.2929384,42.6306916,"hastings, mi 49058, usa",49058
653,-85.6639168,42.2956109,"kalamazoo, mi 49009, usa",49009
654,-84.448772,42.758734,"east lansing, mi 48823, usa",48823
655,-84.3331694,43.5932134,"midland, mi 48640, usa",48640
656,-84.6374484,42.7287542,"lansing, mi 48917, usa",48917
657,-83.1220074,43.6223914,"cass city, mi 48726, usa",48726
658,-84.059029,41.8851765,"adrian, mi 49221, usa",49221
659,-83.3468784,42.5440126,"west bloomfield township, mi 48322, usa",48322
660,-85.5097226,42.2766433,"kalamazoo, mi 49048, usa",49048
661,-85.2515482,43.1731842,"greenville, mi 48838, usa",48838
662,-84.2810691,46.4313095,"sault ste. marie, mi 49783, usa",49783
663,-83.4056438,42.4643438,"farmington, mi 48335, usa",48335
664,-85.5406209,43.2234502,"cedar springs, mi 49319, usa",49319
665,-82.6915429,43.8244531,"harbor beach, mi 48441, usa",48441
666,-83.2398943,42.4986723,"southfield, mi 48076, usa",48076
667,-83.1793408,42.1742229,"riverview, mi 48193, usa",48193
668,-83.030767,42.4812462,"center line, mi 48015, usa",48015
669,-85.1686743,42.3905327,"battle creek, mi 49017, usa",49017
670,-83.2720082,42.2164077,"taylor, mi 48180, usa",48180
671,-86.1853474,43.1790617,"muskegon, mi 49444, usa",49444
672,-85.0649071,41.9327779,"coldwater, mi 49036, usa",49036
673,-85.5097226,42.9219281,"grand rapids, mi 49546, usa",49546
674,-85.6639168,42.2956109,"kalamazoo, mi 49009, usa",49009
675,-85.4994192,43.6833235,"big rapids, mi 49307, usa",49307
676,-85.6229296,42.6828191,"wayland, mi 49348, usa",49348
677,-82.9017419,42.4635441,"st clair shores, mi 48080, usa",48080
678,-83.2880591,42.4966195,"southfield, mi 48034, usa",48034
679,-87.7001071,46.4547129,"ishpeming, mi 49849, usa",49849
680,-83.1380955,42.4584036,"ferndale, mi 48220, usa",48220
681,-84.5850997,43.4519585,"st louis, mi 48880, usa",48880
682,-83.0039075,42.464947,"warren, mi 48089, usa",48089
683,-85.8690933,42.8479125,"hudsonville, mi 49426, usa",49426
684,-84.0273168,43.4530016,"saginaw, mi 48603, usa",48603
685,-83.9108968,42.5656204,"howell, mi 48843, usa",48843
686,-83.9108968,42.5656204,"howell, mi 48843, usa",48843
687,-83.3842808,42.3358116,"westland, mi 48185, usa",48185
688,-83.2720082,42.2164077,"taylor, mi 48180, usa",48180
689,-84.4802606,44.076893,"gladwin, mi 48624, usa",48624
690,-85.6640365,44.8245398,"traverse city, mi 49684, usa",49684
691,-85.7153754,42.9880623,"grand rapids, mi 49504, usa",49504
692,-83.7517851,43.0528038,"flint, mi 48504, usa",48504
693,-85.4581859,41.8102387,"sturgis, mi 49091, usa",49091
694,-85.9917437,42.8522633,"zeeland, mi 49464, usa",49464
695,-83.7411631,42.7514541,"fenton, mi 48430, usa",48430
696,-87.7001071,46.4547129,"ishpeming, mi 49849, usa",49849
697,-84.6270618,44.9858952,"gaylord, mi 49735, usa",49735
698,-83.5390002,42.3789443,"plymouth, mi 48170, usa",48170
699,-85.9917437,41.9093914,"cassopolis, mi 49031, usa",49031
700,-85.6229296,41.9751647,"three rivers, mi 49093, usa",49093
701,-85.8998229,43.0067469,"lamont, mi 49430, usa",49430
702,-86.1955169,43.0147008,"grand haven, mi 49417, usa",49417
703,-85.2515482,43.057058,"belding, mi 48809, usa",48809
704,-86.3984793,43.9823555,"ludington, mi 49431, usa",49431
705,-84.375233,42.3151209,"jackson, mi 49201, usa",49201
706,-84.5536678,42.1959178,"spring arbor, mi 49283, usa",49283
707,-86.2158497,41.8177914,"niles, mi 49120, usa",49120
708,-83.7942551,43.0164056,"flint, mi 48532, usa",48532
709,-83.3682539,42.4279422,"livonia, mi 48152, usa",48152
710,-85.6100387,42.9411011,"grand rapids, mi 49506, usa",49506
711,-87.3956241,46.5477714,"marquette, mi 49855, usa",49855
712,-82.4644445,42.9751872,"port huron, mi 48060, usa",48060
713,-82.5402275,42.7572207,"east china, mi 48054, usa",48054
714,-82.8425216,43.1250863,"yale, mi 48097, usa",48097
715,-83.0415078,42.4330141,"detroit, mi 48234, usa",48234
716,-86.2056843,43.1022979,"spring lake, mi 49456, usa",49456
717,-83.2398943,42.4204379,"detroit, mi 48219, usa",48219
718,-83.2291862,42.1352293,"trenton, mi 48183, usa",48183
719,-83.15954,42.204837,"wyandotte, mi 48192, usa",48192
720,-85.7564107,43.0283952,"grand rapids, mi 49544, usa",49544
721,-86.0733498,42.7381514,"holland, mi 49423, usa",49423
722,-83.6135572,44.2398928,"tawas city, mi 48763, usa",48763
723,-84.1435136,44.4379493,"rose city, mi 48654, usa",48654
724,-84.2810691,46.4313095,"sault ste. marie, mi 49783, usa",49783
725,-83.025396,42.3488239,"detroit, mi 48207, usa",48207
726,-83.0522468,42.4140992,"hamtramck, mi 48212, usa",48212
727,-84.5850997,43.4519585,"st louis, mi 48880, usa",48880
728,-84.7942091,43.6151255,"mt pleasant, mi 48858, usa",48858
729,-83.9744262,43.5940178,"bay city, mi 48706, usa",48706
730,-84.7524482,42.2936964,"albion, mi 49224, usa",49224
731,-85.6229296,41.9751647,"three rivers, mi 49093, usa",49093
732,-83.277359,42.720287,"lake orion, mi 48359, usa",48359
733,-85.5715015,42.1805732,"portage, mi 49002, usa",49002
734,-83.9744262,44.7292469,"fairview, mi 48621, usa",48621
735,-85.6100387,42.9411011,"grand rapids, mi 49506, usa",49506
736,-83.2398943,42.4204379,"detroit, mi 48219, usa",48219
737,-82.9394002,42.5976588,"charter twp of clinton, mi 48038, usa",48038
738,-85.0649071,44.7067138,"kalkaska, mi 49646, usa",49646
739,-83.0683519,42.5079541,"warren, mi 48092, usa",48092
740,-86.6963578,46.4301821,"munising, mi 49862, usa",49862
741,-83.8685072,43.5692371,"bay city, mi 48708, usa",48708
742,-85.6640365,44.8245398,"traverse city, mi 49684, usa",49684
743,-84.2278796,44.2914755,"west branch, mi 48661, usa",48661
744,-82.9447782,42.407527,"detroit, mi 48224, usa",48224
745,-83.9955879,44.1093153,"sterling, mi 48659, usa",48659
746,-82.4969331,43.1029061,"fort gratiot twp, mi 48059, usa",48059
747,-83.025396,42.3488239,"detroit, mi 48207, usa",48207
748,-83.9352816,45.0261032,"hillman, mi 49746, usa",49746
749,-83.0092803,42.5190114,"warren, mi 48093, usa",48093
750,-83.2827093,42.3446054,"dearborn heights, mi 48127, usa",48127
751,-84.8782707,45.3540431,"petoskey, mi 49770, usa",49770
752,-83.4750241,42.6489461,"white lake, mi 48386, usa",48386
753,-86.1141045,43.24433,"muskegon, mi 49442, usa",49442
754,-84.6479124,44.687947,"grayling, mi 49738, usa",49738
755,-83.15954,42.5183235,"royal oak, mi 48073, usa",48073
756,-85.7769164,42.2277151,"mattawan, mi 49071, usa",49071
757,-85.6588999,42.9616689,"grand rapids, mi 49503, usa",49503
758,-85.1686743,44.2027948,"mcbain, mi 49657, usa",49657
759,-83.2184763,42.2427186,"allen park, mi 48101, usa",48101
760,-85.5097226,42.9219281,"grand rapids, mi 49546, usa",49546
761,-85.6897121,42.8948162,"wyoming, mi 49509, usa",49509
762,-83.9638426,43.4304646,"saginaw, mi 48602, usa",48602
763,-82.8963604,42.4974085,"st clair shores, mi 48081, usa",48081
764,-83.1916937,42.4224755,"detroit, mi 48235, usa",48235
765,-83.2131206,42.3552033,"detroit, mi 48228, usa",48228
766,-82.713132,43.5396508,"deckerville, mi 48427, usa",48427
767,-86.2031426,42.6424257,"douglas, mi 49406, usa",49406
768,-85.9508923,42.9674954,"allendale, mi 49401, usa",49401
769,-85.1686743,42.3905327,"battle creek, mi 49017, usa",49017
770,-83.2398943,42.4204379,"detroit, mi 48219, usa",48219
771,-82.9447782,42.5345798,"fraser, mi 48026, usa",48026
772,-83.0415078,42.3840829,"detroit, mi 48211, usa",48211
773,-83.0361376,43.7698518,"bad axe, mi 48413, usa",48413
774,-85.6332093,42.8683658,"grand rapids, mi 49508, usa",49508
775,-85.4994192,43.6833235,"big rapids, mi 49307, usa",49307
776,-86.1955169,44.6186408,"frankfort, mi 49635, usa",49635
777,-83.4323375,42.7244204,"village of clarkston, mi 48346, usa",48346
778,-83.3468784,42.4658351,"farmington, mi 48336, usa",48336
779,-83.1112798,42.4323422,"highland park, mi 48203, usa",48203
780,-84.8776392,43.8481927,"farwell, mi 48622, usa",48622
781,-83.3842808,42.3358116,"westland, mi 48185, usa",48185
782,-83.0737195,42.3664506,"detroit, mi 48202, usa",48202
783,-83.1327332,42.6678914,"rochester, mi 48307, usa",48307
784,-85.5817911,42.446414,"plainwell, mi 49080, usa",49080
785,-84.2067992,43.0089792,"owosso, mi 48867, usa",48867
786,-82.9985343,42.5964176,"sterling heights, mi 48313, usa",48313
787,-83.2398943,42.4204379,"detroit, mi 48219, usa",48219
788,-82.9447782,42.407527,"detroit, mi 48224, usa",48224
789,-83.1756188,42.6509755,"rochester, mi 48309, usa",48309
790,-83.3735966,42.3939863,"livonia, mi 48154, usa",48154
791,-82.9340217,42.4362108,"harper woods, mi 48225, usa",48225
792,-83.266657,42.7780102,"lake orion, mi 48362, usa",48362
793,-83.7411631,42.7514541,"fenton, mi 48430, usa",48430
794,-85.3859519,42.2914097,"galesburg, mi 49053, usa",49053
795,-83.0683519,42.5665296,"sterling heights, mi 48310, usa",48310
796,-84.4802606,44.076893,"gladwin, mi 48624, usa",48624
797,-82.7558838,42.8090897,"richmond, mi 48062, usa",48062
798,-83.3468784,42.5440126,"west bloomfield township, mi 48322, usa",48322
799,-83.3468784,42.5440126,"west bloomfield township, mi 48322, usa",48322
800,-83.3896222,42.6050452,"west bloomfield township, mi 48324, usa",48324
801,-84.7942091,43.6151255,"mt pleasant, mi 48858, usa",48858
802,-82.9394002,42.5000719,"roseville, mi 48066, usa",48066
803,-83.1970511,42.3787402,"detroit, mi 48227, usa",48227
804,-84.9609464,42.2637126,"marshall, mi 49068, usa",49068
805,-83.0844532,42.3475066,"detroit, mi 48208, usa",48208
806,-85.8690933,43.9263941,"baldwin, mi 49304, usa",49304
807,-82.9985343,42.401041,"detroit, mi 48213, usa",48213
808,-83.1916937,42.3049172,"dearborn, mi 48120, usa",48120
809,-83.570964,42.2728525,"ypsilanti, mi 48198, usa",48198
810,-84.059029,41.8851765,"adrian, mi 49221, usa",49221
811,-83.0039075,42.6795602,"utica, mi 48315, usa",48315
812,-83.5390002,42.3789443,"plymouth, mi 48170, usa",48170
813,-83.3468784,42.4658351,"farmington, mi 48336, usa",48336
814,-83.0092803,42.5190114,"warren, mi 48093, usa",48093
815,-84.6479124,44.4626923,"roscommon, mi 48653, usa",48653
816,-84.6583745,43.1567196,"perrinton, mi 48871, usa",48871
817,-83.2639812,42.277306,"dearborn heights, mi 48125, usa",48125
818,-83.6135572,44.2398928,"tawas city, mi 48763, usa",48763
819,-83.1793408,42.1742229,"riverview, mi 48193, usa",48193
820,-84.448772,42.758734,"east lansing, mi 48823, usa",48823
821,-83.6986568,43.1754912,"clio, mi 48420, usa",48420
822,-84.7942091,44.2997981,"houghton lake, mi 48629, usa",48629
823,-83.4856913,41.913413,"monroe, mi 48161, usa",48161
824,-83.3949632,42.27757,"wayne, mi 48184, usa",48184
825,-86.2767995,43.2883524,"muskegon, mi 49445, usa",49445
826,-83.2398943,42.4595697,"southfield, mi 48075, usa",48075
827,-85.6639168,42.2956109,"kalamazoo, mi 49009, usa",49009
828,-85.9917437,42.8522633,"zeeland, mi 49464, usa",49464
829,-85.22816,45.2938794,"charlevoix, mi 49720, usa",49720
830,-82.9770371,42.4290772,"detroit, mi 48205, usa",48205
831,-82.7670745,42.664829,"new baltimore, mi 48047, usa",48047
832,-83.4536844,42.4719897,"novi, mi 48375, usa",48375
833,-83.3735966,42.3939863,"livonia, mi 48154, usa",48154
834,-83.025396,42.3488239,"detroit, mi 48207, usa",48207
835,-84.5012435,43.1782627,"ashley, mi 48806, usa",48806
836,-86.1955169,43.0147008,"grand haven, mi 49417, usa",49417
837,-85.1686743,42.3905327,"battle creek, mi 49017, usa",49017
838,-84.406761,42.2085364,"jackson, mi 49203, usa",49203
839,-83.1916937,42.4224755,"detroit, mi 48235, usa",48235
840,-85.5509164,42.8846539,"grand rapids, mi 49512, usa",49512
841,-83.2720082,42.2164077,"taylor, mi 48180, usa",48180
842,-85.5869352,42.3042239,"kalamazoo, mi 49007, usa",49007
843,-83.4430118,44.7186466,"lincoln, mi 48742, usa",48742
844,-86.357952,42.1193949,"benton harbor, mi 49022, usa",49022
845,-83.7836403,42.4022733,"whitmore lake, mi 48189, usa",48189
846,-82.9125036,42.5813695,"charter twp of clinton, mi 48036, usa",48036
847,-86.0733498,42.7381514,"holland, mi 49423, usa",49423
848,-86.317392,43.2123878,"muskegon, mi 49441, usa",49441
849,-83.7942551,43.0164056,"flint, mi 48532, usa",48532
850,-88.4280602,47.1681179,"hubbell, mi 49934, usa",49934
851,-88.5893195,47.1470492,"hancock, mi 49930, usa",49930
852,-83.855749,45.3979228,"rogers city, mi 49779, usa",49779
853,-87.5342322,46.4512661,"negaunee, mi 49866, usa",49866
854,-83.3896222,42.6830185,"waterford twp, mi 48329, usa",48329
855,-83.2398943,42.5767898,"bloomfield hills, mi 48304, usa",48304
856,-87.5784493,45.2175106,"menominee, mi 49858, usa",49858
857,-83.3949632,42.27757,"wayne, mi 48184, usa",48184
858,-83.9214896,42.0064623,"tecumseh, mi 49286, usa",49286
859,-84.5536678,42.6663024,"lansing, mi 48911, usa",48911
860,-83.3629107,42.5693497,"west bloomfield township, mi 48323, usa",48323
861,-83.4003037,41.9480522,"monroe, mi 48162, usa",48162
862,-90.1688295,46.454128,"ironwood, mi 49938, usa",49938
863,-84.4277638,45.5785465,"cheboygan, mi 49721, usa",49721
864,-84.6269824,41.8933451,"hillsdale, mi 49242, usa",49242
865,-84.375233,42.9786141,"ovid, mi 48866, usa",48866
866,-83.7305392,42.2129167,"ann arbor, mi 48108, usa",48108
867,-83.4536844,42.4719897,"novi, mi 48375, usa",48375
868,-86.2361744,42.3912071,"south haven, mi 49090, usa",49090
869,-84.406761,42.2085364,"jackson, mi 49203, usa",49203
870,-83.3789389,43.0221538,"lapeer, mi 48446, usa",48446
871,-83.3842808,42.3358116,"westland, mi 48185, usa",48185
872,-83.7092861,42.3295957,"ann arbor, mi 48105, usa",48105
873,-83.2398943,42.4986723,"southfield, mi 48076, usa",48076
874,-83.490932,45.0765963,"alpena, mi 49707, usa",49707
875,-83.8154791,42.8041237,"linden, mi 48451, usa",48451
876,-83.9638426,43.4304646,"saginaw, mi 48602, usa",48602
877,-83.3682539,42.3691884,"livonia, mi 48150, usa",48150
878,-85.9100089,44.8709615,"maple city, mi 49664, usa",49664
879,-83.2880591,42.4966195,"southfield, mi 48034, usa",48034
880,-83.3735966,42.3939863,"livonia, mi 48154, usa",48154
881,-87.4571568,45.4592684,"stephenson, mi 49887, usa",49887
882,-83.9955879,43.6907603,"kawkawlin, mi 48631, usa",48631
883,-83.1756188,42.3382755,"dearborn, mi 48126, usa",48126
884,-86.2158497,41.8177914,"niles, mi 49120, usa",49120
885,-82.9877866,42.3612206,"detroit, mi 48214, usa",48214
886,-83.570964,42.2728525,"ypsilanti, mi 48198, usa",48198
887,-86.2158497,41.8177914,"niles, mi 49120, usa",49120
888,-83.9744262,43.5940178,"bay city, mi 48706, usa",48706
889,-83.8685072,43.184723,"montrose, mi 48457, usa",48457
890,-88.7773357,46.1643834,"iron river, mi 49935, usa",49935
891,-84.5591239,43.0011205,"st johns, mi 48879, usa",48879
892,-83.3735966,42.3939863,"livonia, mi 48154, usa",48154
893,-86.4693235,42.0537084,"st joseph, mi 49085, usa",49085
894,-83.357567,43.3488002,"mayville, mi 48744, usa",48744
895,-84.6688348,43.3789816,"alma, mi 48801, usa",48801
896,-84.2278796,43.7600155,"midland, mi 48642, usa",48642
897,-82.920669,42.8521261,"armada, mi 48005, usa",48005
898,-85.6640365,44.8245398,"traverse city, mi 49684, usa",49684
899,-88.0802887,45.7976609,"kingsford, mi 49802, usa",49802
900,-83.3949632,42.27757,"wayne, mi 48184, usa",48184
901,-85.7153754,42.9880623,"grand rapids, mi 49504, usa",49504
902,-83.7730237,42.5093496,"brighton, mi 48116, usa",48116
903,-83.0468775,42.6432249,"utica, mi 48317, usa",48317
904,-83.4963567,42.3373253,"canton, mi 48187, usa",48187
905,-82.9178838,42.5573163,"charter twp of clinton, mi 48035, usa",48035
906,-83.3682539,42.3691884,"livonia, mi 48150, usa",48150
907,-82.4969331,43.1029061,"fort gratiot twp, mi 48059, usa",48059
908,-83.025396,42.3488239,"detroit, mi 48207, usa",48207
909,-86.4693235,42.0537084,"st joseph, mi 49085, usa",49085
910,-88.5893195,47.1470492,"hancock, mi 49930, usa",49930
911,-86.5501654,41.9373934,"bridgman, mi 49106, usa",49106
912,-83.1112798,42.6081355,"troy, mi 48085, usa",48085
913,-83.357567,44.6388917,"harrisville, mi 48740, usa",48740
914,-85.7769164,42.8737472,"grandville, mi 49418, usa",49418
915,-82.9985343,42.401041,"detroit, mi 48213, usa",48213
916,-85.6100387,42.9411011,"grand rapids, mi 49506, usa",49506
917,-83.4750241,42.5123116,"novi, mi 48377, usa",48377
918,-83.9744262,43.5940178,"bay city, mi 48706, usa",48706
919,-84.8359395,43.1938484,"carson city, mi 48811, usa",48811
920,-85.5817911,42.446414,"plainwell, mi 49080, usa",49080
921,-86.0733498,42.7381514,"holland, mi 49423, usa",49423
922,-85.5097226,42.9219281,"grand rapids, mi 49546, usa",49546
923,-85.9508923,42.3815071,"bloomingdale, mi 49026, usa",49026
924,-84.1224036,43.1980494,"chesaning, mi 48616, usa",48616
925,-83.517682,42.5928553,"commerce charter twp, mi 48382, usa",48382
926,-85.7153754,42.9880623,"grand rapids, mi 49504, usa",49504
927,-83.570964,41.7598544,"temperance, mi 48182, usa",48182
928,-83.8154791,42.8041237,"linden, mi 48451, usa",48451
929,-84.406761,42.698235,"okemos, mi 48864, usa",48864
930,-83.4003037,41.9480522,"monroe, mi 48162, usa",48162
931,-85.5097226,42.9219281,"grand rapids, mi 49546, usa",49546
932,-83.6001904,42.5913416,"milford, mi 48381, usa",48381
933,-87.1630507,45.7738752,"escanaba, mi 49829, usa",49829
934,-86.1344697,41.9736986,"dowagiac, mi 49047, usa",49047
935,-84.5327038,42.7043124,"lansing, mi 48910, usa",48910
936,-83.3789389,43.0221538,"lapeer, mi 48446, usa",48446
937,-83.3682539,42.3691884,"livonia, mi 48150, usa",48150
938,-86.1141045,43.24433,"muskegon, mi 49442, usa",49442
939,-83.4819418,42.3047219,"canton, mi 48188, usa",48188
940,-83.8260884,42.2475863,"ann arbor, mi 48103, usa",48103
941,-82.9877866,42.3612206,"detroit, mi 48214, usa",48214
942,-83.570964,42.9362643,"grand blanc, mi 48439, usa",48439
943,-83.3789389,43.0221538,"lapeer, mi 48446, usa",48446
944,-83.0039075,42.6795602,"utica, mi 48315, usa",48315
945,-83.3468784,42.5440126,"west bloomfield township, mi 48322, usa",48322
946,-83.266657,42.5246737,"franklin, mi 48025, usa",48025
947,-83.0039075,42.562608,"sterling heights, mi 48312, usa",48312
948,-83.570964,42.9362643,"grand blanc, mi 48439, usa",48439
949,-85.6588999,42.9616689,"grand rapids, mi 49503, usa",49503
950,-83.9108968,42.5656204,"howell, mi 48843, usa",48843
951,-83.4750241,42.5123116,"novi, mi 48377, usa",48377
952,-84.448772,42.758734,"east lansing, mi 48823, usa",48823
953,-84.406761,42.698235,"okemos, mi 48864, usa",48864
954,-83.6135572,42.1966292,"ypsilanti, mi 48197, usa",48197
955,-88.0583849,45.8329034,"iron mountain, mi 49801, usa",49801
956,-83.1059154,42.3781869,"detroit, mi 48206, usa",48206
957,-83.6135572,42.7833139,"holly, mi 48442, usa",48442
958,-83.483215,42.4312595,"northville, mi 48167, usa",48167
959,-83.0361376,42.8467589,"romeo, mi 48065, usa",48065
960,-83.0361376,42.8467589,"romeo, mi 48065, usa",48065
961,-85.4386459,46.5025918,"newberry, mi 49868, usa",49868
962,-83.2720082,43.8030479,"pigeon, mi 48755, usa",48755
963,-96.8262901,46.8647086,"fargo, nd 58103, usa",58103
964,-101.3134847,48.1409274,"minot, nd 58701, usa",58701
965,-99.9692642,48.3670613,"rugby, nd 58368, usa",58368
966,-96.6992778,46.2817215,"wahpeton, nd 58075, usa",58075
967,-102.9789899,48.3465618,"tioga, nd 58852, usa",58852
968,-101.8701538,46.792266,"glen ullin, nd 58631, usa",58631
969,-99.8141654,47.7795233,"harvey, nd 58341, usa",58341
970,-96.913039,46.0385734,"hankinson, nd 58041, usa",58041
971,-98.0296398,47.4432107,"cooperstown, nd 58425, usa",58425
972,-97.2758845,47.4936631,"mayville, nd 58257, usa",58257
973,-98.983811,47.6888334,"new rockford, nd 58356, usa",58356
974,-102.5179098,46.0594591,"hettinger, nd 58639, usa",58639
975,-102.4288062,48.3271267,"stanley, nd 58784, usa",58784
976,-99.0668158,47.4840843,"carrington, nd 58421, usa",58421
977,-96.840133,46.9223429,"fargo, nd 58102, usa",58102
978,-98.581588,46.078636,"ellendale, nd 58436, usa",58436
979,-100.1909691,46.1189995,"strasburg, nd 58573, usa",58573
980,-98.341009,48.8609373,"langdon, nd 58249, usa",58249
981,-97.410183,47.6431129,"hatton, nd 58240, usa",58240
982,-98.1180715,47.7536275,"mcville, nd 58254, usa",58254
983,-101.782243,47.2548948,"beulah, nd 58523, usa",58523
984,-103.4273195,46.148855,"bowman, nd 58623, usa",58623
985,-101.1865942,47.4341459,"underwood, nd 58576, usa",58576
986,-97.9448548,48.8890205,"walhalla, nd 58282, usa",58282
987,-100.7209975,46.8871785,"bismarck, nd 58503, usa",58503
988,-100.659753,46.8243438,"bismarck, nd 58501, usa",58501
989,-100.659753,46.8243438,"bismarck, nd 58501, usa",58501
990,-97.0499862,47.3502216,"hillsboro, nd 58045, usa",58045
991,-102.8548172,46.9206899,"dickinson, nd 58601, usa",58601
992,-101.6937765,47.6017986,"garrison, nd 58540, usa",58540
993,-100.9943746,46.8806365,"mandan, nd 58554, usa",58554
994,-99.6041695,46.3053674,"wishek, nd 58495, usa",58495
995,-97.1580776,47.8772694,"grand forks, nd 58201, usa",58201
996,-99.2354467,48.4689941,"cando, nd 58324, usa",58324
997,-98.8392105,48.1787862,"devils lake, nd 58301, usa",58301
998,-103.7750537,48.2931122,"williston, nd 58801, usa",58801
999,-103.1392835,47.7633248,"watford city, nd 58854, usa",58854
1000,-101.39,48.14,"minot, nd 58702, usa",58702
1001,-97.6410336,47.786484,"northwood, nd 58267, usa",58267
1002,-97.9715821,46.8977444,"valley city, nd 58072, usa",58072
1003,-98.8372781,46.9120821,"jamestown, nd 58401, usa",58401
1004,-96.8262901,46.8647086,"fargo, nd 58103, usa",58103
1005,-100.1009319,48.8817917,"dunseith, nd 58329, usa",58329
1006,-99.915668,48.654478,"rolette, nd 58366, usa",58366
1007,-98.8372781,46.9120821,"jamestown, nd 58401, usa",58401
1008,-97.4244465,48.4396676,"grafton, nd 58237, usa",58237
1009,-96.830676,46.7866028,"fargo, nd 58104, usa",58104
1010,-96.8262901,46.8647086,"fargo, nd 58103, usa",58103
1011,-97.7256766,48.8229727,"cavalier, nd 58220, usa",58220
1012,-97.8122905,48.4139148,"park river, nd 58270, usa",58270
1013,-102.8548172,46.9206899,"dickinson, nd 58601, usa",58601
1014,-99.3179875,46.0206877,"ashley, nd 58413, usa",58413
1015,-102.8969492,47.4711913,"killdeer, nd 58640, usa",58640
1016,-100.4063054,48.8544228,"bottineau, nd 58318, usa",58318
1017,-101.5333214,48.7461521,"mohall, nd 58761, usa",58761
1018,-98.1247414,46.1121515,"oakes, nd 58474, usa",58474
1019,-97.982082,47.703681,"aneta, nd 58212, usa",58212
1020,-97.6832738,47.9426887,"larimore, nd 58251, usa",58251
1021,-102.2937634,46.3559781,"mott, nd 58646, usa",58646
1022,-98.8392105,48.1787862,"devils lake, nd 58301, usa",58301
1023,-100.9943746,46.8806365,"mandan, nd 58554, usa",58554
1024,-99.6811078,46.531509,"napoleon, nd 58561, usa",58561
1025,-97.6503003,46.0681841,"forman, nd 58032, usa",58032
1026,-98.3048711,48.0588005,"lakota, nd 58344, usa",58344
1027,-100.9943746,46.8806365,"mandan, nd 58554, usa",58554
1028,-98.2815998,46.3320184,"lamoure, nd 58458, usa",58458
1029,-97.610591,46.6110375,"enderlin, nd 58027, usa",58027
1030,-100.9507258,48.0157211,"velva, nd 58790, usa",58790
1031,-101.4132584,46.9178003,"new salem, nd 58563, usa",58563
1032,-103.3383503,48.8755921,"crosby, nd 58730, usa",58730
1033,-97.1580776,47.8772694,"grand forks, nd 58201, usa",58201
1034,-97.2097167,47.0949945,"arthur, nd 58006, usa",58006
1035,-97.6612843,46.4526953,"lisbon, nd 58054, usa",58054
1036,-101.6937765,47.6017986,"garrison, nd 58540, usa",58540
1037,-97.6612843,46.4526953,"lisbon, nd 58054, usa",58054
1038,-100.78605,46.80755,"bismarck, nd 58506, usa",58506
1039,-102.2615507,46.7505137,"richardton, nd 58652, usa",58652
1040,-96.830676,46.7866028,"fargo, nd 58104, usa",58104
1041,-96.9543097,46.866729,"west fargo, nd 58078, usa",58078
1042,-100.7209975,46.8871785,"bismarck, nd 58503, usa",58503
1043,-100.7209975,46.8871785,"bismarck, nd 58503, usa",58503
1044,-84.6165146,39.1654029,"cincinnati, oh 45211, usa",45211
1045,-81.5760945,41.5364934,"cleveland, oh 44112, usa",44112
1046,-84.6479124,40.0628524,"greenville, oh 45331, usa",45331
1047,-81.9207423,41.4470451,"westlake, oh 44145, usa",44145
1048,-83.9108968,39.6779549,"xenia, oh 45385, usa",45385
1049,-82.9340217,39.9556925,"columbus, oh 43209, usa",43209
1050,-83.6295222,41.5993157,"toledo, oh 43614, usa",43614
1051,-81.6089873,41.5091257,"cleveland, oh 44106, usa",44106
1052,-80.8488498,41.2420649,"warren, oh 44485, usa",44485
1053,-84.4225186,39.1511025,"cincinnati, oh 45209, usa",45209
1054,-84.6165146,39.1654029,"cincinnati, oh 45211, usa",45211
1055,-81.5047772,41.4766201,"beachwood, oh 44122, usa",44122
1056,-83.0415078,39.9826396,"columbus, oh 43212, usa",43212
1057,-81.9207423,41.4470451,"westlake, oh 44145, usa",44145
1058,-81.5706109,41.1426985,"akron, oh 44313, usa",44313
1059,-84.6165146,39.1654029,"cincinnati, oh 45211, usa",45211
1060,-83.7305392,41.6992425,"sylvania, oh 43560, usa",43560
1061,-81.5047772,41.4766201,"beachwood, oh 44122, usa",44122
1062,-81.3509416,41.3059538,"aurora, oh 44202, usa",44202
1063,-83.6561215,41.4065709,"bowling green, oh 43402, usa",43402
1064,-83.0576156,39.8762258,"grove city, oh 43123, usa",43123
1065,-84.6607144,39.1655524,"cincinnati, oh 45248, usa",45248
1066,-81.7021049,41.4513221,"cleveland, oh 44109, usa",44109
1067,-81.7294702,41.3886412,"cleveland, oh 44129, usa",44129
1068,-81.8631302,41.1524413,"medina, oh 44256, usa",44256
1069,-84.3226488,39.893846,"englewood, oh 45322, usa",45322
1070,-81.8879884,40.2892965,"coshocton, oh 43812, usa",43812
1071,-82.345189,40.9062768,"ashland, oh 44805, usa",44805
1072,-81.5047772,41.4766201,"beachwood, oh 44122, usa",44122
1073,-83.0683519,41.2428057,"green springs, oh 44836, usa",44836
1074,-81.460856,41.0745913,"akron, oh 44305, usa",44305
1075,-81.8115051,41.3198259,"strongsville, oh 44136, usa",44136
1076,-80.6521139,41.1239641,"youngstown, oh 44504, usa",44504
1077,-81.9207423,41.4470451,"westlake, oh 44145, usa",44145
1078,-82.5294065,40.8278706,"mansfield, oh 44903, usa",44903
1079,-81.5760945,41.5364934,"cleveland, oh 44112, usa",44112
1080,-81.5349581,41.1025845,"akron, oh 44303, usa",44303
1081,-81.8005724,39.6711503,"mcconnelsville, oh 43756, usa",43756
1082,-84.514354,39.1269228,"cincinnati, oh 45219, usa",45219
1083,-81.4498717,40.4602299,"new philadelphia, oh 44663, usa",44663
1084,-82.008014,41.4531581,"avon, oh 44011, usa",44011
1085,-82.1076414,41.3683407,"elyria, oh 44035, usa",44035
1086,-84.1435136,41.4124518,"napoleon, oh 43545, usa",43545
1087,-84.3436881,39.1939687,"cincinnati, oh 45243, usa",45243
1088,-83.1220074,40.5518645,"marion, oh 43302, usa",43302
1089,-80.6659842,41.0326881,"youngstown, oh 44512, usa",44512
1090,-84.3436881,39.1939687,"cincinnati, oh 45243, usa",45243
1091,-83.9108968,39.6779549,"xenia, oh 45385, usa",45385
1092,-81.7677645,41.376464,"cleveland, oh 44130, usa",44130
1093,-82.8748301,39.9162835,"columbus, oh 43232, usa",43232
1094,-84.4225186,39.1822152,"cincinnati, oh 45213, usa",45213
1095,-84.0484601,40.7145838,"lima, oh 45804, usa",45804
1096,-82.8963604,40.1014036,"westerville, oh 43081, usa",43081
1097,-84.3939224,39.5038205,"middletown, oh 45044, usa",45044
1098,-81.5322149,41.4339301,"cleveland, oh 44128, usa",44128
1099,-84.3647199,39.2364358,"cincinnati, oh 45242, usa",45242
1100,-83.4003037,39.3615952,"greenfield, oh 45123, usa",45123
1101,-83.0200245,40.103832,"columbus, oh 43085, usa",43085
1102,-83.804868,39.4457756,"wilmington, oh 45177, usa",45177
1103,-84.3962535,40.5396595,"st marys, oh 45885, usa",45885
1104,-81.229853,41.6838938,"painesville, oh 44077, usa",44077
1105,-84.1935831,40.5678568,"wapakoneta, oh 45895, usa",45895
1106,-83.4430118,39.89867,"london, oh 43140, usa",43140
1107,-84.564147,40.871234,"van wert, oh 45891, usa",45891
1108,-82.605118,39.7047822,"lancaster, oh 43130, usa",43130
1109,-84.564147,40.871234,"van wert, oh 45891, usa",45891
1110,-83.0200245,40.103832,"columbus, oh 43085, usa",43085
1111,-84.7524482,39.4717184,"oxford, oh 45056, usa",45056
1112,-81.4992884,41.1024492,"akron, oh 44310, usa",44310
1113,-81.9425701,41.4883493,"bay village, oh 44140, usa",44140
1114,-84.2489525,40.1458908,"piqua, oh 45356, usa",45356
1115,-81.806039,41.4836446,"lakewood, oh 44107, usa",44107
1116,-81.7568253,41.046167,"wadsworth, oh 44281, usa",44281
1117,-82.5185837,40.3521894,"mt vernon, oh 43050, usa",43050
1118,-82.6915429,41.4091138,"sandusky, oh 44870, usa",44870
1119,-80.6659842,40.4094475,"steubenville, oh 43952, usa",43952
1120,-83.025396,40.0480476,"columbus, oh 43214, usa",43214
1121,-80.6521139,41.1239641,"youngstown, oh 44504, usa",44504
1122,-84.6479124,39.4049854,"hamilton, oh 45013, usa",45013
1123,-84.2067992,40.0620944,"troy, oh 45373, usa",45373
1124,-83.5390002,41.7084764,"toledo, oh 43612, usa",43612
1125,-82.669947,40.9073141,"shelby, oh 44875, usa",44875
1126,-80.7879407,41.8466216,"ashtabula, oh 44004, usa",44004
1127,-81.4828198,41.1362185,"cuyahoga falls, oh 44221, usa",44221
1128,-81.5047772,40.8171314,"massillon, oh 44646, usa",44646
1129,-81.3729372,41.6056635,"willoughby, oh 44094, usa",44094
1130,-81.4388858,40.8122437,"canton, oh 44708, usa",44708
1131,-81.5047772,40.8171314,"massillon, oh 44646, usa",44646
1132,-84.3857442,39.0714909,"cincinnati, oh 45230, usa",45230
1133,-82.9716617,39.5837779,"circleville, oh 43113, usa",43113
1134,-81.5706109,41.1426985,"akron, oh 44313, usa",44313
1135,-84.1435136,40.2833065,"sidney, oh 45365, usa",45365
1136,-80.754698,41.1796788,"niles, oh 44446, usa",44446
1137,-81.3509416,41.1263566,"kent, oh 44240, usa",44240
1138,-84.0801613,40.786903,"lima, oh 45801, usa",45801
1139,-84.5169757,39.1452057,"cincinnati, oh 45220, usa",45220
1140,-81.3729372,41.6056635,"willoughby, oh 44094, usa",44094
1141,-81.0533854,41.7493082,"madison, oh 44057, usa",44057
1142,-84.3226488,39.7912709,"dayton, oh 45426, usa",45426
1143,-81.9152844,41.4118396,"north olmsted, oh 44070, usa",44070
1144,-82.9286428,38.7947324,"portsmouth, oh 45662, usa",45662
1145,-83.0092803,39.9602601,"columbus, oh 43215, usa",43215
1146,-81.5706109,41.1426985,"akron, oh 44313, usa",44313
1147,-81.9971108,40.80216,"wooster, oh 44691, usa",44691
1148,-83.4643551,39.5096149,"washington court house, oh 43160, usa",43160
1149,-81.6363869,41.0875099,"akron, oh 44321, usa",44321
1150,-84.1936203,39.7206965,"dayton, oh 45409, usa",45409
1151,-84.2647522,39.803823,"dayton, oh 45416, usa",45416
1152,-83.1220074,40.5518645,"marion, oh 43302, usa",43302
1153,-81.460856,40.8540649,"canton, oh 44718, usa",44718
1154,-84.3647199,39.2364358,"cincinnati, oh 45242, usa",45242
1155,-83.1220074,40.5518645,"marion, oh 43302, usa",43302
1156,-84.1435136,41.5719341,"wauseon, oh 43567, usa",43567
1157,-82.669947,40.9073141,"shelby, oh 44875, usa",44875
1158,-83.6561215,41.4065709,"bowling green, oh 43402, usa",43402
1159,-84.0273168,39.0744627,"williamsburg, oh 45176, usa",45176
1160,-83.6561215,41.0462307,"findlay, oh 45840, usa",45840
1161,-83.624201,41.6735366,"toledo, oh 43606, usa",43606
1162,-81.6363869,41.0274472,"barberton, oh 44203, usa",44203
1163,-84.6792931,40.4820072,"coldwater, oh 45828, usa",45828
1164,-81.0312989,40.2461348,"cadiz, oh 43907, usa",43907
1165,-82.713132,41.0706758,"willard, oh 44890, usa",44890
1166,-82.605118,39.7047822,"lancaster, oh 43130, usa",43130
1167,-84.2067992,39.445842,"lebanon, oh 45036, usa",45036
1168,-82.1931149,38.8726188,"gallipolis, oh 45631, usa",45631
1169,-84.4697663,39.2828895,"cincinnati, oh 45246, usa",45246
1170,-82.7994194,40.7140659,"galion, oh 44833, usa",44833
1171,-81.5760945,41.5364934,"cleveland, oh 44112, usa",44112
1172,-81.1857736,41.1637316,"ravenna, oh 44266, usa",44266
1173,-81.460856,41.4932198,"cleveland, oh 44124, usa",44124
1174,-84.3699767,39.4486879,"monroe, oh 45050, usa",45050
1175,-84.0484601,40.7145838,"lima, oh 45804, usa",45804
1176,-83.7411631,40.2418854,"west liberty, oh 43357, usa",43357
1177,-84.5536678,39.3282373,"fairfield, oh 45014, usa",45014
1178,-84.3226488,39.7912709,"dayton, oh 45426, usa",45426
1179,-83.804868,40.1025817,"urbana, oh 43078, usa",43078
1180,-83.7411631,39.6278003,"jamestown, oh 45335, usa",45335
1181,-81.6363869,41.2274088,"richfield, oh 44286, usa",44286
1182,-84.0854432,39.7434917,"dayton, oh 45432, usa",45432
1183,-84.3647199,39.2364358,"cincinnati, oh 45242, usa",45242
1184,-83.7836403,38.7599951,"ripley, oh 45167, usa",45167
1185,-84.564147,40.547674,"celina, oh 45822, usa",45822
1186,-82.9824121,40.0862602,"columbus, oh 43229, usa",43229
1187,-83.1863358,41.1397548,"tiffin, oh 44883, usa",44883
1188,-81.4663475,41.5977963,"wickliffe, oh 44092, usa",44092
1189,-82.7994194,40.7140659,"galion, oh 44833, usa",44833
1190,-83.6880257,41.1984069,"north baltimore, oh 45872, usa",45872
1191,-81.6966306,41.4857101,"cleveland, oh 44113, usa",44113
1192,-84.3962535,41.2650829,"defiance, oh 43512, usa",43512
1193,-82.4969331,39.1828231,"hamden, oh 45634, usa",45634
1194,-81.8279011,41.425548,"cleveland, oh 44135, usa",44135
1195,-82.6915429,39.0502377,"jackson, oh 45640, usa",45640
1196,-81.909826,39.9856069,"zanesville, oh 43701, usa",43701
1197,-84.5536678,39.3282373,"fairfield, oh 45014, usa",45014
1198,-82.7994194,38.7451748,"wheelersburg, oh 45694, usa",45694
1199,-82.9447782,40.078872,"columbus, oh 43231, usa",43231
1200,-81.5267282,41.3788177,"bedford, oh 44146, usa",44146
1201,-81.1416691,40.9202113,"alliance, oh 44601, usa",44601
1202,-82.5185837,40.3521894,"mt vernon, oh 43050, usa",43050
1203,-83.9108968,40.8587757,"bluffton, oh 45817, usa",45817
1204,-81.6363869,41.0274472,"barberton, oh 44203, usa",44203
1205,-84.2021869,40.9813931,"kalida, oh 45853, usa",45853
1206,-83.0677244,40.298702,"delaware, oh 43015, usa",43015
1207,-82.8748301,40.0388765,"columbus, oh 43230, usa",43230
1208,-80.5660657,41.6310819,"andover, oh 44003, usa",44003
1209,-80.7990185,41.2629796,"warren, oh 44483, usa",44483
1210,-83.0092803,39.9602601,"columbus, oh 43215, usa",43215
1211,-81.4937993,40.5443195,"dover, oh 44622, usa",44622
1212,-83.1220074,41.3559092,"fremont, oh 43420, usa",43420
1213,-83.7730237,39.9475712,"springfield, oh 45503, usa",45503
1214,-82.8963604,40.1014036,"westerville, oh 43081, usa",43081
1215,-84.4172666,39.8266494,"brookville, oh 45309, usa",45309
1216,-84.3857442,39.0714909,"cincinnati, oh 45230, usa",45230
1217,-83.8366958,39.8895417,"springfield, oh 45506, usa",45506
1218,-82.3234843,40.1157418,"newark, oh 43055, usa",43055
1219,-83.3148018,39.9322799,"west jefferson, oh 43162, usa",43162
1220,-84.2489525,39.2411393,"loveland, oh 45140, usa",45140
1221,-81.7568253,41.046167,"wadsworth, oh 44281, usa",44281
1222,-81.5815776,40.2673428,"newcomerstown, oh 43832, usa",43832
1223,-82.5834947,41.1825545,"norwalk, oh 44857, usa",44857
1224,-82.5834947,39.1469886,"wellston, oh 45692, usa",45692
1225,-81.7568253,41.3258767,"north royalton, oh 44133, usa",44133
1226,-80.6937177,41.1098785,"youngstown, oh 44509, usa",44509
1227,-82.4319405,39.5292702,"logan, oh 43138, usa",43138
1228,-82.8694464,39.9721714,"columbus, oh 43213, usa",43213
1229,-83.804868,40.1025817,"urbana, oh 43078, usa",43078
1230,-82.3234843,40.1157418,"newark, oh 43055, usa",43055
1231,-80.5660657,41.9072953,"conneaut, oh 44030, usa",44030
1232,-84.238417,39.1680808,"milford, oh 45150, usa",45150
1233,-82.9286428,38.7947324,"portsmouth, oh 45662, usa",45662
1234,-84.4356468,39.1335733,"cincinnati, oh 45208, usa",45208
1235,-83.1005505,39.0544378,"piketon, oh 45661, usa",45661
1236,-84.3962535,41.2650829,"defiance, oh 43512, usa",43512
1237,-84.6479124,40.0628524,"greenville, oh 45331, usa",45331
1238,-82.0625052,39.1126091,"pomeroy, oh 45769, usa",45769
1239,-81.9207423,41.4470451,"westlake, oh 44145, usa",44145
1240,-81.8333656,41.2415922,"brunswick, oh 44212, usa",44212
1241,-83.4109834,41.6615051,"oregon, oh 43616, usa",43616
1242,-83.9108968,39.6779549,"xenia, oh 45385, usa",45385
1243,-84.5798623,39.1066278,"cincinnati, oh 45205, usa",45205
1244,-82.9716617,39.5837779,"circleville, oh 43113, usa",43113
1245,-84.3939224,39.5038205,"middletown, oh 45044, usa",45044
1246,-83.6561215,41.4065709,"bowling green, oh 43402, usa",43402
1247,-80.6521139,41.1239641,"youngstown, oh 44504, usa",44504
1248,-81.6363869,39.6081358,"beverly, oh 45715, usa",45715
1249,-84.6165146,39.1654029,"cincinnati, oh 45211, usa",45211
1250,-82.3234843,39.9934035,"heath, oh 43056, usa",43056
1251,-84.1646163,39.1125485,"batavia, oh 45103, usa",45103
1252,-84.5274616,39.2079206,"cincinnati, oh 45224, usa",45224
1253,-82.7023383,39.8031988,"carroll, oh 43112, usa",43112
1254,-82.5239953,40.7318256,"mansfield, oh 44907, usa",44907
1255,-84.4015075,39.2123057,"cincinnati, oh 45236, usa",45236
1256,-83.2934086,40.8043646,"upper sandusky, oh 43351, usa",43351
1257,-84.3857442,39.0714909,"cincinnati, oh 45230, usa",45230
1258,-82.3234843,40.1157418,"newark, oh 43055, usa",43055
1259,-81.5377013,40.7088966,"navarre, oh 44662, usa",44662
1260,-84.3647199,40.1209543,"covington, oh 45318, usa",45318
1261,-82.9716617,39.9119721,"columbus, oh 43207, usa",43207
1262,-82.3234843,40.1157418,"newark, oh 43055, usa",43055
1263,-81.521241,41.5721298,"euclid, oh 44117, usa",44117
1264,-83.666758,41.6560291,"toledo, oh 43615, usa",43615
1265,-83.0146526,41.4889702,"port clinton, oh 43452, usa",43452
1266,-84.4540213,39.1629772,"cincinnati, oh 45212, usa",45212
1267,-81.229853,41.6838938,"painesville, oh 44077, usa",44077
1268,-84.1751648,39.6400784,"dayton, oh 45459, usa",45459
1269,-81.614468,40.8854571,"canal fulton, oh 44614, usa",44614
1270,-84.6269824,41.6154354,"montpelier, oh 43543, usa",43543
1271,-81.0975397,39.7420629,"woodsfield, oh 43793, usa",43793
1272,-84.0854432,39.7126697,"dayton, oh 45430, usa",45430
1273,-83.1434573,41.5365328,"oak harbor, oh 43449, usa",43449
1274,-82.9178838,40.0415191,"columbus, oh 43219, usa",43219
1275,-83.025396,40.0480476,"columbus, oh 43214, usa",43214
1276,-84.6479124,40.0628524,"greenville, oh 45331, usa",45331
1277,-84.1435136,40.2833065,"sidney, oh 45365, usa",45365
1278,-84.3962535,41.2650829,"defiance, oh 43512, usa",43512
1279,-82.2365981,41.2795429,"oberlin, oh 44074, usa",44074
1280,-83.1220074,41.3559092,"fremont, oh 43420, usa",43420
1281,-83.7730237,39.9475712,"springfield, oh 45503, usa",45503
1282,38.8414602,27.5946164,"45418, saudi arabia",45418
1283,-82.5834947,41.1825545,"norwalk, oh 44857, usa",44857
1284,-83.9955879,39.9695432,"new carlisle, oh 45344, usa",45344
1285,-81.565127,41.4065224,"maple heights, oh 44137, usa",44137
1286,-81.4498717,40.9034426,"north canton, oh 44720, usa",44720
1287,-83.4109834,41.6615051,"oregon, oh 43616, usa",43616
1288,-82.669947,40.3009806,"centerburg, oh 43011, usa",43011
1289,-83.8366958,39.9509734,"springfield, oh 45504, usa",45504
1290,-84.485507,39.1540971,"cincinnati, oh 45229, usa",45229
1291,-84.6583745,39.1258197,"cincinnati, oh 45233, usa",45233
1292,-80.7103532,40.3725988,"steubenville, oh 43953, usa",43953
1293,-84.6479124,40.0628524,"greenville, oh 45331, usa",45331
1294,-81.9152844,41.4118396,"north olmsted, oh 44070, usa",44070
1295,-83.570964,41.5214385,"perrysburg, oh 43551, usa",43551
1296,-83.9108968,39.8011942,"yellow springs, oh 45387, usa",45387
1297,-80.7990185,41.2629796,"warren, oh 44483, usa",44483
1298,-83.6561215,41.0462307,"findlay, oh 45840, usa",45840
1299,-80.754698,41.0998327,"youngstown, oh 44515, usa",44515
1300,-82.2202951,41.4329234,"lorain, oh 44053, usa",44053
1301,-84.5327038,39.2444348,"cincinnati, oh 45231, usa",45231
1302,-83.9638426,39.2991686,"blanchester, oh 45107, usa",45107
1303,-84.5117321,39.4296413,"hamilton, oh 45011, usa",45011
1304,-80.5327324,41.2611961,"masury, oh 44438, usa",44438
1305,-82.9716617,39.5837779,"circleville, oh 43113, usa",43113
1306,-84.6479124,39.7348022,"eaton, oh 45320, usa",45320
1307,-84.5117321,39.4296413,"hamilton, oh 45011, usa",45011
1308,-80.7934798,40.0903341,"bridgeport, oh 43912, usa",43912
1309,-83.1327332,40.115674,"dublin, oh 43017, usa",43017
1310,-84.3436881,39.1939687,"cincinnati, oh 45243, usa",45243
1311,-81.7677645,40.9567498,"rittman, oh 44270, usa",44270
1312,-82.669947,38.5702309,"ironton, oh 45638, usa",45638
1313,-81.8442934,41.0123359,"seville, oh 44273, usa",44273
1314,-84.3331694,40.394468,"minster, oh 45865, usa",45865
1315,-81.5514154,41.5867536,"cleveland, oh 44119, usa",44119
1316,-80.7436141,40.1219002,"martins ferry, oh 43935, usa",43935
1317,-84.7524482,41.4617811,"edgerton, oh 43517, usa",43517
1318,-83.4963567,41.4076239,"pemberville, oh 43450, usa",43450
1319,-82.8748301,39.9162835,"columbus, oh 43232, usa",43232
1320,-81.0202533,40.9208056,"sebring, oh 44672, usa",44672
1321,-83.4003037,41.1522215,"fostoria, oh 44830, usa",44830
1322,-82.9501558,39.3145284,"chillicothe, oh 45601, usa",45601
1323,-83.357567,40.2612116,"marysville, oh 43040, usa",43040
1324,-82.1931149,39.6982719,"new lexington, oh 43764, usa",43764
1325,-81.0312989,40.5697538,"carrollton, oh 44615, usa",44615
1326,-80.6659842,41.0326881,"youngstown, oh 44512, usa",44512
1327,-81.3729372,41.6056635,"willoughby, oh 44094, usa",44094
1328,-81.931657,41.2984264,"columbia station, oh 44028, usa",44028
1329,-82.9286428,38.7947324,"portsmouth, oh 45662, usa",45662
1330,-83.0146526,38.9247362,"lucasville, oh 45648, usa",45648
1331,-83.528342,38.7878376,"west union, oh 45693, usa",45693
1332,-82.3234843,38.8812788,"bidwell, oh 45614, usa",45614
1333,-81.8005724,39.2184633,"coolville, oh 45723, usa",45723
1334,-82.1305609,39.3676641,"the plains, oh 45780, usa",45780
1335,-81.6802054,40.7696197,"dalton, oh 44618, usa",44618
1336,-83.9638426,39.2991686,"blanchester, oh 45107, usa",45107
1337,-81.5760945,41.5563382,"cleveland, oh 44110, usa",44110
1338,-84.3016021,39.543358,"franklin, oh 45005, usa",45005
1339,-82.9501558,39.3145284,"chillicothe, oh 45601, usa",45601
1340,-84.2436849,39.6692118,"dayton, oh 45449, usa",45449
1341,-84.0484601,40.7145838,"lima, oh 45804, usa",45804
1342,-83.9108968,39.6779549,"xenia, oh 45385, usa",45385
1343,-84.6165146,39.1031327,"cincinnati, oh 45238, usa",45238
1344,-81.229853,40.8467103,"louisville, oh 44641, usa",44641
1345,-83.357567,40.2612116,"marysville, oh 43040, usa",43040
1346,-83.528342,40.1486669,"woodstock, oh 43084, usa",43084
1347,-84.2489525,40.1458908,"piqua, oh 45356, usa",45356
1348,-81.8606821,41.3681574,"berea, oh 44017, usa",44017
1349,-82.8963604,40.1014036,"westerville, oh 43081, usa",43081
1350,-81.5596427,39.7153065,"caldwell, oh 43724, usa",43724
1351,-83.7411631,40.363952,"bellefontaine, oh 43311, usa",43311
1352,-84.1540659,39.6801641,"dayton, oh 45429, usa",45429
1353,-83.7517851,41.5015319,"waterville, oh 43566, usa",43566
1354,-83.1220074,40.5518645,"marion, oh 43302, usa",43302
1355,-82.9501558,40.8644552,"bucyrus, oh 44820, usa",44820
1356,-82.5510469,38.4686596,"south point, oh 45680, usa",45680
1357,-83.5496566,39.1838139,"hillsboro, oh 45133, usa",45133
1358,-82.2202951,41.4329234,"lorain, oh 44053, usa",44053
1359,-83.570964,41.5214385,"perrysburg, oh 43551, usa",43551
1360,-82.9501558,40.8644552,"bucyrus, oh 44820, usa",44820
1361,-84.0854432,39.6304021,"bellbrook, oh 45305, usa",45305
1362,-84.1224036,39.853124,"dayton, oh 45424, usa",45424
1363,-84.238417,39.1680808,"milford, oh 45150, usa",45150
1364,-80.7103532,40.3725988,"steubenville, oh 43953, usa",43953
1365,-81.8879884,40.5323483,"millersburg, oh 44654, usa",44654
1366,-81.4169093,41.0913196,"tallmadge, oh 44278, usa",44278
1367,-81.1416691,40.9202113,"alliance, oh 44601, usa",44601
1368,-82.7562895,39.898703,"pickerington, oh 43147, usa",43147
1369,-80.7436141,41.7246561,"jefferson, oh 44047, usa",44047
1370,-82.3560389,41.3972356,"vermilion, oh 44089, usa",44089
1371,-84.2489525,39.6128751,"miamisburg, oh 45342, usa",45342
1372,-80.7879407,41.8466216,"ashtabula, oh 44004, usa",44004
1373,-82.9286428,38.7947324,"portsmouth, oh 45662, usa",45662
1374,-82.7886395,39.8290849,"canal winchester, oh 43110, usa",43110
1375,-82.0189155,41.3842511,"north ridgeville, oh 44039, usa",44039
1376,-82.345189,40.9062768,"ashland, oh 44805, usa",44805
1377,-84.4277703,39.5494703,"middletown, oh 45042, usa",45042
1378,-83.804868,40.1025817,"urbana, oh 43078, usa",43078
1379,-84.14879,39.7672403,"dayton, oh 45403, usa",45403
1380,-84.406761,39.2798828,"cincinnati, oh 45241, usa",45241
1381,-80.754698,41.0998327,"youngstown, oh 44515, usa",44515
1382,-81.3770606,40.7988285,"canton, oh 44702, usa",44702
1383,-82.4102628,41.091172,"new london, oh 44851, usa",44851
1384,-81.0533854,41.7493082,"madison, oh 44057, usa",44057
1385,-81.6802054,41.33031,"broadview heights, oh 44147, usa",44147
1386,-83.3682539,41.519876,"genoa, oh 43430, usa",43430
1387,-81.5047772,40.8171314,"massillon, oh 44646, usa",44646
1388,-83.9214896,40.5055315,"lakeview, oh 43331, usa",43331
1389,-81.8631302,41.1524413,"medina, oh 44256, usa",44256
1390,-82.5834947,41.1825545,"norwalk, oh 44857, usa",44857
1391,-82.6915429,39.0502377,"jackson, oh 45640, usa",45640
1392,-81.521241,41.5721298,"euclid, oh 44117, usa",44117
1393,-83.025396,40.1296424,"columbus, oh 43235, usa",43235
1394,-80.754698,41.1796788,"niles, oh 44446, usa",44446
1395,-83.0415078,39.93153,"columbus, oh 43223, usa",43223
1396,-81.0975397,40.7561569,"minerva, oh 44657, usa",44657
1397,-84.238417,39.1680808,"milford, oh 45150, usa",45150
1398,-83.0677244,40.298702,"delaware, oh 43015, usa",43015
1399,-83.4643551,39.5096149,"washington court house, oh 43160, usa",43160
1400,-84.7106567,41.2999653,"hicksville, oh 43526, usa",43526
1401,-83.357567,41.389715,"gibsonburg, oh 43431, usa",43431
1402,-80.8765205,40.8994485,"salem, oh 44460, usa",44460
1403,-83.7730237,39.9475712,"springfield, oh 45503, usa",45503
1404,-82.0189155,41.3842511,"north ridgeville, oh 44039, usa",44039
1405,-83.1273705,39.9571056,"columbus, oh 43228, usa",43228
1406,-81.4498717,39.4404583,"marietta, oh 45750, usa",45750
1407,-81.6363869,41.0274472,"barberton, oh 44203, usa",44203
1408,-81.6254283,41.1567039,"akron, oh 44333, usa",44333
1409,-84.2067992,39.445842,"lebanon, oh 45036, usa",45036
1410,-81.3179364,41.6906085,"mentor, oh 44060, usa",44060
1411,-84.6583745,39.1258197,"cincinnati, oh 45233, usa",45233
1412,-82.9501558,39.3145284,"chillicothe, oh 45601, usa",45601
1413,-81.6802054,40.9705017,"doylestown, oh 44230, usa",44230
1414,-80.9207737,40.0953458,"st clairsville, oh 43950, usa",43950
1415,-80.7990185,40.0145055,"bellaire, oh 43906, usa",43906
1416,-81.565127,41.4065224,"maple heights, oh 44137, usa",44137
1417,-81.7677645,41.376464,"cleveland, oh 44130, usa",44130
1418,-83.6295222,41.5993157,"toledo, oh 43614, usa",43614
1419,-81.5267282,41.3788177,"bedford, oh 44146, usa",44146
1420,-81.7294702,41.3886412,"cleveland, oh 44129, usa",44129
1421,-81.6254283,41.1567039,"akron, oh 44333, usa",44333
1422,-80.6659842,40.93262,"north lima, oh 44452, usa",44452
1423,-81.2078164,41.5435432,"chardon, oh 44024, usa",44024
1424,-84.406761,39.2798828,"cincinnati, oh 45241, usa",45241
1425,-81.229853,41.6838938,"painesville, oh 44077, usa",44077
1426,-84.1540659,39.5978465,"dayton, oh 45458, usa",45458
1427,-80.6881718,40.8742974,"columbiana, oh 44408, usa",44408
1428,-84.2436849,39.7822504,"dayton, oh 45406, usa",45406
1429,-83.1541796,40.0761455,"dublin, oh 43016, usa",43016
1430,-81.3509416,41.2461518,"streetsboro, oh 44241, usa",44241
1431,-81.4388858,41.1729114,"stow, oh 44224, usa",44224
1432,-82.116955,39.0231177,"middleport, oh 45760, usa",45760
1433,-84.2436849,39.6692118,"dayton, oh 45449, usa",45449
1434,-84.485507,39.2059442,"cincinnati, oh 45216, usa",45216
1435,-80.6659842,40.4094475,"steubenville, oh 43952, usa",43952
1436,-83.1756188,40.01616,"hilliard, oh 43026, usa",43026
1437,-81.5267282,40.9793352,"akron, oh 44319, usa",44319
1438,-81.521241,41.5721298,"euclid, oh 44117, usa",44117
1439,-81.5514154,41.5867536,"cleveland, oh 44119, usa",44119
1440,-81.8115051,41.399503,"brook park, oh 44142, usa",44142
1441,-80.6937177,41.1098785,"youngstown, oh 44509, usa",44509
1442,-84.4828838,39.130628,"cincinnati, oh 45206, usa",45206
1443,-84.4015075,39.2123057,"cincinnati, oh 45236, usa",45236
1444,-84.2067992,40.0620944,"troy, oh 45373, usa",45373
1445,-83.6295222,41.5993157,"toledo, oh 43614, usa",43614
1446,-84.5536678,39.3282373,"fairfield, oh 45014, usa",45014
1447,-81.4169093,41.0913196,"tallmadge, oh 44278, usa",44278
1448,-82.9716617,41.2869091,"clyde, oh 43410, usa",43410
1449,-80.6437906,41.8447643,"kingsville, oh 44048, usa",44048
1450,-83.0146526,39.132242,"waverly, oh 45690, usa",45690
1451,-84.0061661,39.816412,"fairborn, oh 45324, usa",45324
1452,-84.375233,40.7208553,"spencerville, oh 45887, usa",45887
1453,-83.8685072,41.5775019,"swanton, oh 43558, usa",43558
1454,-81.5486728,41.3206951,"northfield, oh 44067, usa",44067
1455,-83.7517851,41.5015319,"waterville, oh 43566, usa",43566
1456,-80.7325287,41.2376982,"warren, oh 44484, usa",44484
1457,-81.806039,41.4836446,"lakewood, oh 44107, usa",44107
1458,-82.3234843,39.7889545,"somerset, oh 43783, usa",43783
1459,-83.6295222,41.5993157,"toledo, oh 43614, usa",43614
1460,-81.7677645,41.376464,"cleveland, oh 44130, usa",44130
1461,-83.0334524,39.9591613,"columbus, oh 43222, usa",43222
1462,-82.2365981,40.6775235,"loudonville, oh 44842, usa",44842
1463,-83.8154791,41.5049749,"whitehouse, oh 43571, usa",43571
1464,-81.7021049,41.3916411,"cleveland, oh 44134, usa",44134
1465,-81.7021049,41.3916411,"cleveland, oh 44134, usa",44134
1466,-81.9207423,41.3674222,"olmsted falls, oh 44138, usa",44138
1467,-80.6659842,41.0326881,"youngstown, oh 44512, usa",44512
1468,-82.008014,41.4531581,"avon, oh 44011, usa",44011
1469,-82.5294065,40.8278706,"mansfield, oh 44903, usa",44903
1470,-84.1751648,39.6400784,"dayton, oh 45459, usa",45459
1471,-80.6881718,40.8742974,"columbiana, oh 44408, usa",44408
1472,-83.9108968,41.2204222,"deshler, oh 43516, usa",43516
1473,-83.7411631,40.363952,"bellefontaine, oh 43311, usa",43311
1474,-82.713132,41.0706758,"willard, oh 44890, usa",44890
1475,-81.5596427,40.042095,"cambridge, oh 43725, usa",43725
1476,-81.6363869,41.0875099,"akron, oh 44321, usa",44321
1477,-84.2805478,39.0663831,"cincinnati, oh 45245, usa",45245
1478,-84.1540659,39.6801641,"dayton, oh 45429, usa",45429
1479,-81.8631302,41.1524413,"medina, oh 44256, usa",44256
1480,-83.025396,40.0480476,"columbus, oh 43214, usa",43214
1481,-82.8640623,40.2928127,"sunbury, oh 43074, usa",43074
1482,-84.0960056,39.6720868,"dayton, oh 45440, usa",45440
1483,-81.5706109,41.1426985,"akron, oh 44313, usa",44313
1484,-81.4498717,39.4404583,"marietta, oh 45750, usa",45750
1485,-81.1416691,40.9202113,"alliance, oh 44601, usa",44601
1486,-80.6659842,40.93262,"north lima, oh 44452, usa",44452
1487,-80.7990185,41.2629796,"warren, oh 44483, usa",44483
1488,-81.8333656,41.2415922,"brunswick, oh 44212, usa",44212
1489,-83.9108968,38.8500753,"georgetown, oh 45121, usa",45121
1490,-81.7021049,41.4513221,"cleveland, oh 44109, usa",44109
1491,-84.1276818,39.7250886,"dayton, oh 45420, usa",45420
1492,-82.669947,38.5702309,"ironton, oh 45638, usa",45638
1493,-81.4498717,39.4404583,"marietta, oh 45750, usa",45750
1494,-81.4388858,41.2527491,"hudson, oh 44236, usa",44236
1495,-82.669947,40.015874,"pataskala, oh 43062, usa",43062
1496,-80.6576623,41.0744859,"youngstown, oh 44507, usa",44507
1497,-81.8279011,41.425548,"cleveland, oh 44135, usa",44135
1498,-84.4015075,39.2123057,"cincinnati, oh 45236, usa",45236
1499,-83.0415078,39.93153,"columbus, oh 43223, usa",43223
1500,-81.2078164,41.5435432,"chardon, oh 44024, usa",44024
1501,-82.8748301,40.0388765,"columbus, oh 43230, usa",43230
1502,-84.4356468,39.1335733,"cincinnati, oh 45208, usa",45208
1503,-82.9447782,40.078872,"columbus, oh 43231, usa",43231
1504,-84.3962535,40.5396595,"st marys, oh 45885, usa",45885
1505,-81.9207423,41.4470451,"westlake, oh 44145, usa",44145
1506,-84.3962535,40.5396595,"st marys, oh 45885, usa",45885
1507,-81.5047772,41.4766201,"beachwood, oh 44122, usa",44122
1508,-81.8606821,41.3681574,"berea, oh 44017, usa",44017
1509,-84.4697663,39.2414664,"cincinnati, oh 45215, usa",45215
1510,-84.3939224,39.5038205,"middletown, oh 45044, usa",45044
1511,-80.7436141,41.3679647,"cortland, oh 44410, usa",44410
1512,-82.5185837,40.3521894,"mt vernon, oh 43050, usa",43050
1513,-81.8631302,41.1524413,"medina, oh 44256, usa",44256
1514,-84.6583745,39.1258197,"cincinnati, oh 45233, usa",45233
1515,-84.2542195,39.8340845,"dayton, oh 45415, usa",45415
1516,-84.2173403,39.703893,"dayton, oh 45439, usa",45439
1517,-80.754698,41.0998327,"youngstown, oh 44515, usa",44515
1518,-80.7824012,41.1469909,"mineral ridge, oh 44440, usa",44440
1519,-81.5267282,41.3788177,"bedford, oh 44146, usa",44146
1520,-81.521241,41.1740315,"cuyahoga falls, oh 44223, usa",44223
1521,-81.5047772,41.4766201,"beachwood, oh 44122, usa",44122
1522,-83.7730237,39.9475712,"springfield, oh 45503, usa",45503
1523,-84.5431867,41.4520535,"bryan, oh 43506, usa",43506
1524,24.9688475,51.6288118,"kamin'-kashyrs'kyi, volyns'ka oblast, ukraine, 44501",44501
1525,-81.6089873,41.5091257,"cleveland, oh 44106, usa",44106
1526,-84.6165146,39.1654029,"cincinnati, oh 45211, usa",45211
1527,-81.3509416,41.1263566,"kent, oh 44240, usa",44240
1528,-82.6837827,40.479041,"chesterville, oh 43317, usa",43317
1529,-81.6254283,41.1567039,"akron, oh 44333, usa",44333
1530,-82.5294065,40.8278706,"mansfield, oh 44903, usa",44903
1531,-81.4937993,40.5443195,"dover, oh 44622, usa",44622
1532,-83.025396,40.0480476,"columbus, oh 43214, usa",43214
1533,-83.1220074,41.3559092,"fremont, oh 43420, usa",43420
1534,-83.634843,40.6622015,"kenton, oh 43326, usa",43326
1535,-81.3509416,41.3059538,"aurora, oh 44202, usa",44202
1536,-81.9207423,41.4470451,"westlake, oh 44145, usa",44145
1537,-81.6254283,41.1567039,"akron, oh 44333, usa",44333
1538,-83.624201,41.6735366,"toledo, oh 43606, usa",43606
1539,-82.8694464,39.9721714,"columbus, oh 43213, usa",43213
1540,-80.6659842,41.0326881,"youngstown, oh 44512, usa",44512
1541,-84.6479124,39.7348022,"eaton, oh 45320, usa",45320
1542,-80.9760556,41.1773654,"newton falls, oh 44444, usa",44444
1543,-81.4388858,41.1729114,"stow, oh 44224, usa",44224
1544,-81.5349581,41.1025845,"akron, oh 44303, usa",44303
1545,-83.4003037,41.1522215,"fostoria, oh 44830, usa",44830
1546,-81.4388858,40.8122437,"canton, oh 44708, usa",44708
1547,-83.357567,40.2612116,"marysville, oh 43040, usa",43040
1548,-82.008014,41.4929278,"avon lake, oh 44012, usa",44012
1549,-82.9286428,38.7947324,"portsmouth, oh 45662, usa",45662
1550,-82.9662859,39.9576567,"columbus, oh 43205, usa",43205
1551,-81.6089873,41.5091257,"cleveland, oh 44106, usa",44106
1552,-81.4388858,41.2527491,"hudson, oh 44236, usa",44236
1553,-81.806039,41.4836446,"lakewood, oh 44107, usa",44107
1554,-84.2542195,39.8340845,"dayton, oh 45415, usa",45415
1555,-84.21207,39.7909447,"dayton, oh 45405, usa",45405
1556,-84.1224036,39.3589783,"morrow, oh 45152, usa",45152
1557,-81.6418656,41.5214566,"cleveland, oh 44103, usa",44103
1558,-81.8879884,40.2892965,"coshocton, oh 43812, usa",43812
1559,-82.7562895,39.898703,"pickerington, oh 43147, usa",43147
1560,-84.1224036,39.9350959,"tipp city, oh 45371, usa",45371
1561,-81.7404134,41.4789363,"cleveland, oh 44102, usa",44102
1562,-82.6915429,41.4091138,"sandusky, oh 44870, usa",44870
1563,-83.5523205,41.6670429,"toledo, oh 43620, usa",43620
1564,-83.624201,40.8936473,"arlington, oh 45814, usa",45814
1565,-84.2489525,39.2411393,"loveland, oh 45140, usa",45140
1566,-81.8879884,40.2892965,"coshocton, oh 43812, usa",43812
1567,-81.7239979,40.267501,"west lafayette, oh 43845, usa",43845
1568,-84.5327038,39.2444348,"cincinnati, oh 45231, usa",45231
1569,-81.8606821,41.3681574,"berea, oh 44017, usa",44017
1570,-84.3226488,39.3585759,"mason, oh 45040, usa",45040
1571,-83.6561215,41.0462307,"findlay, oh 45840, usa",45840
1572,-84.406761,39.7337228,"new lebanon, oh 45345, usa",45345
1573,-83.7305392,41.6992425,"sylvania, oh 43560, usa",43560
1574,-84.0960056,39.6720868,"dayton, oh 45440, usa",45440
1575,-84.5012435,40.2397291,"versailles, oh 45380, usa",45380
1576,-80.5993854,41.3064942,"fowler, oh 44418, usa",44418
1577,-84.0484601,40.7145838,"lima, oh 45804, usa",45804
1578,-81.229853,40.8467103,"louisville, oh 44641, usa",44641
1579,-83.3789389,39.008313,"peebles, oh 45660, usa",45660
1580,-83.6508025,41.6998261,"toledo, oh 43623, usa",43623
1581,-82.5239953,40.7318256,"mansfield, oh 44907, usa",44907
1582,-83.7730237,39.9475712,"springfield, oh 45503, usa",45503
1583,-84.2067992,39.445842,"lebanon, oh 45036, usa",45036
1584,-80.8654534,40.2229656,"adena, oh 43901, usa",43901
1585,-82.2250555,41.3983479,"amherst, oh 44001, usa",44001
1586,-84.5667665,39.0930395,"cincinnati, oh 45204, usa",45204
1587,-81.8497567,41.4768217,"rocky river, oh 44116, usa",44116
1588,-81.6363869,41.2274088,"richfield, oh 44286, usa",44286
1589,-83.4643551,39.5096149,"washington court house, oh 43160, usa",43160
1590,-83.025396,40.1296424,"columbus, oh 43235, usa",43235
1591,-83.0146526,38.9247362,"lucasville, oh 45648, usa",45648
1592,-82.8963604,40.1014036,"westerville, oh 43081, usa",43081
1593,-83.5496566,39.1838139,"hillsboro, oh 45133, usa",45133
1594,-83.1220074,40.5518645,"marion, oh 43302, usa",43302
1595,-84.1540659,40.7199785,"lima, oh 45805, usa",45805
1596,-81.0092062,41.4685922,"middlefield, oh 44062, usa",44062
1597,-82.5834947,39.1469886,"wellston, oh 45692, usa",45692
1598,-82.1604849,41.4636771,"lorain, oh 44052, usa",44052
1599,-84.485507,39.1540971,"cincinnati, oh 45229, usa",45229
1600,-81.5514154,41.5867536,"cleveland, oh 44119, usa",44119
1601,-82.5726805,40.7702489,"mansfield, oh 44906, usa",44906
1602,-84.3909991,39.1495912,"cincinnati, oh 45227, usa",45227
1603,-81.2408689,41.4567519,"newbury township, oh 44065, usa",44065
1604,-80.7436141,41.3679647,"cortland, oh 44410, usa",44410
1605,-83.0683519,40.0506279,"columbus, oh 43220, usa",43220
1606,-83.6986568,41.5683175,"maumee, oh 43537, usa",43537
1607,-84.3962535,40.5396595,"st marys, oh 45885, usa",45885
1608,-82.2365981,41.2795429,"oberlin, oh 44074, usa",44074
1609,-83.1005505,39.0544378,"piketon, oh 45661, usa",45661
1610,-80.9650023,41.781854,"geneva, oh 44041, usa",44041
1611,-83.4003037,41.1522215,"fostoria, oh 44830, usa",44830
1612,-81.7294702,41.3886412,"cleveland, oh 44129, usa",44129
1613,-84.0801613,40.786903,"lima, oh 45801, usa",45801
1614,-82.5834947,41.3822571,"huron, oh 44839, usa",44839
1615,-82.2202951,41.4329234,"lorain, oh 44053, usa",44053
1616,-84.7524482,40.2105956,"union city, oh 45390, usa",45390
1617,-80.6937177,41.0699247,"youngstown, oh 44511, usa",44511
1618,-83.6561215,41.0462307,"findlay, oh 45840, usa",45840
1619,-84.0378894,39.5198309,"waynesville, oh 45068, usa",45068
1620,-80.9207737,40.0953458,"st clairsville, oh 43950, usa",43950
1621,-82.6915429,41.4091138,"sandusky, oh 44870, usa",44870
1622,-80.8765205,40.8994485,"salem, oh 44460, usa",44460
1623,-84.5169757,39.1452057,"cincinnati, oh 45220, usa",45220
1624,-84.0061661,39.816412,"fairborn, oh 45324, usa",45324
1625,-82.9447782,40.078872,"columbus, oh 43231, usa",43231
1626,-84.21207,39.7909447,"dayton, oh 45405, usa",45405
1627,-83.0141439,41.0503543,"bloomville, oh 44818, usa",44818
1628,-84.2489525,39.6128751,"miamisburg, oh 45342, usa",45342
1629,-80.5660657,40.6735208,"east liverpool, oh 43920, usa",43920
1630,-83.025396,40.1296424,"columbus, oh 43235, usa",43235
1631,-81.4937993,40.5443195,"dover, oh 44622, usa",44622
1632,-80.5327324,41.2611961,"masury, oh 44438, usa",44438
1633,-81.229853,40.8467103,"louisville, oh 44641, usa",44641
1634,-83.5496566,39.1838139,"hillsboro, oh 45133, usa",45133
1635,-81.5377013,40.7088966,"navarre, oh 44662, usa",44662
1636,-83.6295222,41.5993157,"toledo, oh 43614, usa",43614
1637,-82.6915429,41.4091138,"sandusky, oh 44870, usa",44870
1638,-82.3234843,38.8812788,"bidwell, oh 45614, usa",45614
1639,-84.2489525,39.6128751,"miamisburg, oh 45342, usa",45342
1640,-81.4498717,39.4404583,"marietta, oh 45750, usa",45750
1641,-82.7562895,40.832297,"crestline, oh 44827, usa",44827
1642,-82.8101975,38.6520109,"franklin furnace, oh 45629, usa",45629
1643,-81.3509416,41.3059538,"aurora, oh 44202, usa",44202
1644,-81.4828198,41.5544029,"cleveland, oh 44143, usa",44143
1645,-81.4169093,41.0913196,"tallmadge, oh 44278, usa",44278
1646,-81.3179364,41.6906085,"mentor, oh 44060, usa",44060
1647,-82.5402275,40.576404,"bellville, oh 44813, usa",44813
1648,-82.5834947,40.6600092,"mansfield, oh 44904, usa",44904
1649,-82.5185837,40.3521894,"mt vernon, oh 43050, usa",43050
1650,-81.3179364,41.6906085,"mentor, oh 44060, usa",44060
1651,-82.605118,39.7047822,"lancaster, oh 43130, usa",43130
1652,-82.4319405,39.5292702,"logan, oh 43138, usa",43138
1653,-81.5047772,41.4766201,"beachwood, oh 44122, usa",44122
1654,-83.570964,41.5214385,"perrysburg, oh 43551, usa",43551
1655,-84.5274616,39.2079206,"cincinnati, oh 45224, usa",45224
1656,-81.8879884,40.5323483,"millersburg, oh 44654, usa",44654
1657,-84.5327038,39.2444348,"cincinnati, oh 45231, usa",45231
1658,-83.0677244,40.298702,"delaware, oh 43015, usa",43015
1659,-81.2739073,40.9704275,"hartville, oh 44632, usa",44632
1660,-82.7562895,40.5497252,"mt gilead, oh 43338, usa",43338
1661,-82.3560389,41.3972356,"vermilion, oh 44089, usa",44089
1662,-83.9532571,40.9415696,"pandora, oh 45877, usa",45877
1663,-84.1435136,40.2833065,"sidney, oh 45365, usa",45365
1664,-80.8765205,40.8994485,"salem, oh 44460, usa",44460
1665,-84.2173403,39.8886463,"vandalia, oh 45377, usa",45377
1666,-81.9971108,40.80216,"wooster, oh 44691, usa",44691
1667,-81.1857736,40.4403193,"bowerston, oh 44695, usa",44695
1668,-83.4003037,39.3615952,"greenfield, oh 45123, usa",45123
1669,-83.4910242,41.7008069,"toledo, oh 43611, usa",43611
1670,-84.5117321,39.4296413,"hamilton, oh 45011, usa",45011
1671,-83.6986568,41.5683175,"maumee, oh 43537, usa",43537
1672,-83.7517851,41.620939,"holland, oh 43528, usa",43528
1673,-84.3016021,39.543358,"franklin, oh 45005, usa",45005
1674,-84.5431867,41.1317987,"paulding, oh 45879, usa",45879
1675,-81.614468,41.4051673,"cleveland, oh 44125, usa",44125
1676,-80.9650023,41.781854,"geneva, oh 44041, usa",44041
1677,-80.7879407,41.8466216,"ashtabula, oh 44004, usa",44004
1678,-81.6089873,41.5091257,"cleveland, oh 44106, usa",44106
1679,-84.1540659,40.6795447,"lima, oh 45806, usa",45806
1680,-81.909826,39.9856069,"zanesville, oh 43701, usa",43701
1681,-80.9097127,40.3682842,"hopedale, oh 43976, usa",43976
1682,-84.6479124,39.4049854,"hamilton, oh 45013, usa",45013
1683,-81.7677645,41.376464,"cleveland, oh 44130, usa",44130
1684,-81.8279011,41.425548,"cleveland, oh 44135, usa",44135
1685,-83.7358514,41.6647825,"toledo, oh 43617, usa",43617
1686,-80.6659842,40.93262,"north lima, oh 44452, usa",44452
1687,-81.0975397,39.7420629,"woodsfield, oh 43793, usa",43793
1688,-84.7106567,40.9385068,"convoy, oh 45832, usa",45832
1689,-82.6159271,41.314531,"milan, oh 44846, usa",44846
1690,-83.4109834,41.6615051,"oregon, oh 43616, usa",43616
1691,-81.7021049,41.3916411,"cleveland, oh 44134, usa",44134
1692,-82.5834947,41.3822571,"huron, oh 44839, usa",44839
1693,-83.8685072,41.5775019,"swanton, oh 43558, usa",43558
1694,-81.4388858,40.8122437,"canton, oh 44708, usa",44708
1695,-83.1863358,39.3905459,"frankfort, oh 45628, usa",45628
1696,-82.5185837,40.3521894,"mt vernon, oh 43050, usa",43050
1697,-81.3564411,40.8512811,"canton, oh 44714, usa",44714
1698,-81.5047772,40.8171314,"massillon, oh 44646, usa",44646
1699,-81.7404134,41.4789363,"cleveland, oh 44102, usa",44102
1700,-84.406761,39.341965,"west chester, oh 45069, usa",45069
1701,-83.1220074,41.3559092,"fremont, oh 43420, usa",43420
1702,-81.9971108,40.80216,"wooster, oh 44691, usa",44691
1703,-84.6479124,39.7348022,"eaton, oh 45320, usa",45320
1704,-81.5047772,40.8171314,"massillon, oh 44646, usa",44646
1705,-80.7436141,40.7281889,"lisbon, oh 44432, usa",44432
1706,-80.8433145,41.7623044,"austinburg, oh 44010, usa",44010
1707,-83.6561215,39.4996294,"sabina, oh 45169, usa",45169
1708,-81.1526976,41.430108,"burton, oh 44021, usa",44021
1709,-81.4937993,40.5443195,"dover, oh 44622, usa",44622
1710,-82.8748301,40.0388765,"columbus, oh 43230, usa",43230
1711,-81.3894297,40.8437144,"canton, oh 44709, usa",44709
1712,-80.8765205,40.8994485,"salem, oh 44460, usa",44460
1713,-84.1435136,41.5719341,"wauseon, oh 43567, usa",43567
1714,-80.6659842,40.4094475,"steubenville, oh 43952, usa",43952
1715,-83.7730237,39.9475712,"springfield, oh 45503, usa",45503
1716,-84.1751648,39.6400784,"dayton, oh 45459, usa",45459
1717,-81.6418656,41.5214566,"cleveland, oh 44103, usa",44103
1718,-83.1863358,41.1397548,"tiffin, oh 44883, usa",44883
1719,-81.8497567,41.4768217,"rocky river, oh 44116, usa",44116
1720,-80.8765205,40.8994485,"salem, oh 44460, usa",44460
1721,-81.6089873,41.5091257,"cleveland, oh 44106, usa",44106
1722,-83.0898194,38.8356137,"mcdermott, oh 45652, usa",45652
1723,-83.9955879,39.9695432,"new carlisle, oh 45344, usa",45344
1724,-84.6165146,39.5583574,"somerville, oh 45064, usa",45064
1725,-81.6089873,41.5091257,"cleveland, oh 44106, usa",44106
1726,-81.8115051,41.3198259,"strongsville, oh 44136, usa",44136
1727,-82.9716617,39.5837779,"circleville, oh 43113, usa",43113
1728,24.9688475,51.6288118,"kamin'-kashyrs'kyi, volyns'ka oblast, ukraine, 44501",44501
1729,-81.460856,41.4932198,"cleveland, oh 44124, usa",44124
1730,-83.8366958,39.9509734,"springfield, oh 45504, usa",45504
1731,-83.1863358,41.1397548,"tiffin, oh 44883, usa",44883
1732,-82.2365981,41.1596486,"wellington, oh 44090, usa",44090
1733,-84.3226488,39.3585759,"mason, oh 45040, usa",45040
1734,-84.2436849,39.7822504,"dayton, oh 45406, usa",45406
1735,-81.7568253,40.845526,"orrville, oh 44667, usa",44667
1736,-81.0423429,41.560459,"huntsburg, oh 44046, usa",44046
1737,-84.6688348,40.6943313,"rockford, oh 45882, usa",45882
1738,-81.1857736,41.1637316,"ravenna, oh 44266, usa",44266
1739,-81.5596427,40.042095,"cambridge, oh 43725, usa",43725
1740,-80.7990185,41.2629796,"warren, oh 44483, usa",44483
1741,-81.8005724,39.6711503,"mcconnelsville, oh 43756, usa",43756
1742,-82.8855961,41.2416432,"bellevue, oh 44811, usa",44811
1743,-83.634843,40.6622015,"kenton, oh 43326, usa",43326
1744,-82.9178838,40.0415191,"columbus, oh 43219, usa",43219
1745,-82.4969331,39.2655094,"mcarthur, oh 45651, usa",45651
1746,-80.8654534,40.2229656,"adena, oh 43901, usa",43901
1747,-81.229853,40.8467103,"louisville, oh 44641, usa",44641
1748,-83.1756188,40.01616,"hilliard, oh 43026, usa",43026
1749,-83.528342,38.7878376,"west union, oh 45693, usa",45693
1750,-83.9108968,40.8587757,"bluffton, oh 45817, usa",45817
1751,-84.5798623,39.2000014,"cincinnati, oh 45239, usa",45239
1752,-83.624201,41.6735366,"toledo, oh 43606, usa",43606
1753,-84.5431867,41.4520535,"bryan, oh 43506, usa",43506
1754,-84.485507,39.1540971,"cincinnati, oh 45229, usa",45229
1755,-84.0061661,39.816412,"fairborn, oh 45324, usa",45324
1756,-81.9971108,40.80216,"wooster, oh 44691, usa",44691
1757,-84.6165146,39.1654029,"cincinnati, oh 45211, usa",45211
1758,-82.8748301,40.0388765,"columbus, oh 43230, usa",43230
1759,-84.4828838,39.130628,"cincinnati, oh 45206, usa",45206
1760,-84.2910759,39.7383713,"dayton, oh 45417, usa",45417
1761,-81.7568253,41.3258767,"north royalton, oh 44133, usa",44133
1762,-84.5117321,39.4296413,"hamilton, oh 45011, usa",45011
1763,-82.4102628,40.2435658,"utica, oh 43080, usa",43080
1764,-84.1435136,41.4124518,"napoleon, oh 43545, usa",43545
1765,-82.345189,40.9062768,"ashland, oh 44805, usa",44805
1766,-84.3226488,39.0684387,"cincinnati, oh 45255, usa",45255
1767,-80.8765205,40.8994485,"salem, oh 44460, usa",44460
1768,-83.1327332,40.115674,"dublin, oh 43017, usa",43017
1769,-84.1540659,40.6795447,"lima, oh 45806, usa",45806
1770,-83.624201,41.6735366,"toledo, oh 43606, usa",43606
1771,-81.7458845,40.0249905,"new concord, oh 43762, usa",43762
1772,-84.5327038,39.2858588,"cincinnati, oh 45240, usa",45240
1773,-82.1076414,41.3683407,"elyria, oh 44035, usa",44035
1774,-80.9207737,40.0953458,"st clairsville, oh 43950, usa",43950
1775,-84.14879,39.7672403,"dayton, oh 45403, usa",45403
1776,-81.4498717,41.383063,"solon, oh 44139, usa",44139
1777,-81.9207423,41.3674222,"olmsted falls, oh 44138, usa",44138
1778,-83.8366958,41.426364,"grand rapids, oh 43522, usa",43522
1779,-84.5117321,39.4296413,"hamilton, oh 45011, usa",45011
1780,-81.4388858,41.1729114,"stow, oh 44224, usa",44224
1781,-83.6986568,41.5683175,"maumee, oh 43537, usa",43537
1782,-84.2173403,39.5598101,"springboro, oh 45066, usa",45066
1783,-80.754698,41.0998327,"youngstown, oh 44515, usa",44515
1784,-81.0975397,40.7561569,"minerva, oh 44657, usa",44657
1785,-83.5016887,41.6517775,"toledo, oh 43605, usa",43605
1786,-84.3331694,40.8399576,"delphos, oh 45833, usa",45833
1787,-80.9207737,40.0953458,"st clairsville, oh 43950, usa",43950
1788,-80.593833,41.051781,"struthers, oh 44471, usa",44471
1789,-83.7517851,41.620939,"holland, oh 43528, usa",43528
1790,-82.7994194,40.3903355,"marengo, oh 43334, usa",43334
1791,-80.6659842,41.0326881,"youngstown, oh 44512, usa",44512
1792,-82.3234843,40.1157418,"newark, oh 43055, usa",43055
1793,-84.6269824,40.4084826,"st henry, oh 45883, usa",45883
1794,-84.6479124,39.4049854,"hamilton, oh 45013, usa",45013
1795,-82.5077593,39.8112603,"pleasantville, oh 43148, usa",43148
1796,-81.460856,40.6528484,"bolivar, oh 44612, usa",44612
1797,-82.8694464,39.9721714,"columbus, oh 43213, usa",43213
1798,-82.669947,38.5702309,"ironton, oh 45638, usa",45638
1799,-81.7568253,40.845526,"orrville, oh 44667, usa",44667
1800,-80.7131255,40.1625974,"yorkville, oh 43971, usa",43971
1801,-82.9689738,39.9705946,"columbus, oh 43203, usa",43203
1802,-84.5117321,39.4296413,"hamilton, oh 45011, usa",45011
1803,-84.485507,39.2059442,"cincinnati, oh 45216, usa",45216
1804,-84.3331694,40.8399576,"delphos, oh 45833, usa",45833
1805,-81.1416691,40.9202113,"alliance, oh 44601, usa",44601
1806,-82.605118,39.7047822,"lancaster, oh 43130, usa",43130
1807,-84.3226488,39.3585759,"mason, oh 45040, usa",45040
1808,-84.0378894,41.0264299,"ottawa, oh 45875, usa",45875
1809,-80.8765205,40.8994485,"salem, oh 44460, usa",44460
1810,-82.6915429,41.4091138,"sandusky, oh 44870, usa",44870
1811,-84.4540213,39.1940851,"cincinnati, oh 45237, usa",45237
1812,-84.1540659,40.7199785,"lima, oh 45805, usa",45805
1813,-81.4828198,41.1362185,"cuyahoga falls, oh 44221, usa",44221
1814,-84.4697663,39.2414664,"cincinnati, oh 45215, usa",45215
1815,-84.564147,40.547674,"celina, oh 45822, usa",45822
1816,-81.4498717,41.383063,"solon, oh 44139, usa",44139
1817,-83.3148018,39.2326802,"bainbridge, oh 45612, usa",45612
1818,-81.7677645,41.376464,"cleveland, oh 44130, usa",44130
1819,-81.9971108,40.80216,"wooster, oh 44691, usa",44691
1820,-81.1416691,40.9202113,"alliance, oh 44601, usa",44601
1821,-84.6479124,39.4049854,"hamilton, oh 45013, usa",45013
1822,-84.1224036,38.9857886,"bethel, oh 45106, usa",45106
1823,-84.6688348,40.6943313,"rockford, oh 45882, usa",45882
1824,-84.1435136,40.2833065,"sidney, oh 45365, usa",45365
1825,-83.7730237,39.9475712,"springfield, oh 45503, usa",45503
1826,-81.7568253,41.046167,"wadsworth, oh 44281, usa",44281
1827,-84.4540213,39.1629772,"cincinnati, oh 45212, usa",45212
1828,-82.345189,40.9062768,"ashland, oh 44805, usa",44805
1829,-81.8631302,41.1524413,"medina, oh 44256, usa",44256
1830,-80.7103532,40.3725988,"steubenville, oh 43953, usa",43953
1831,-83.7305392,41.6992425,"sylvania, oh 43560, usa",43560
1832,-81.909826,39.9856069,"zanesville, oh 43701, usa",43701
1833,-83.7730237,39.9475712,"springfield, oh 45503, usa",45503
1834,-83.0677244,40.298702,"delaware, oh 43015, usa",43015
1835,-84.1935831,40.5678568,"wapakoneta, oh 45895, usa",45895
1836,-81.7677645,40.9567498,"rittman, oh 44270, usa",44270
1837,-81.1857736,40.4403193,"bowerston, oh 44695, usa",44695
1838,-82.1060683,39.3221839,"athens, oh 45701, usa",45701
1839,-84.5327038,39.2444348,"cincinnati, oh 45231, usa",45231
1840,-83.9955879,41.1045738,"leipsic, oh 45856, usa",45856
1841,-81.4498717,40.4602299,"new philadelphia, oh 44663, usa",44663
1842,-81.7458845,40.4514728,"baltic, oh 43804, usa",43804
1843,-84.1224036,41.2314102,"holgate, oh 43527, usa",43527
1844,-84.4015075,39.2123057,"cincinnati, oh 45236, usa",45236
1845,-80.7325287,41.2376982,"warren, oh 44484, usa",44484
1846,-82.9716617,39.9119721,"columbus, oh 43207, usa",43207
1847,-81.3619402,40.3727245,"uhrichsville, oh 44683, usa",44683
1848,-81.1765211,39.9880986,"barnesville, oh 43713, usa",43713
1849,-84.3226488,39.893846,"englewood, oh 45322, usa",45322
1850,-81.6007655,40.7110003,"brewster, oh 44613, usa",44613
1851,-82.5510469,38.4686596,"south point, oh 45680, usa",45680
1852,-81.806039,41.4836446,"lakewood, oh 44107, usa",44107
1853,-81.4828198,41.5544029,"cleveland, oh 44143, usa",44143
1854,-81.7230252,40.539101,"walnut creek, oh 44687, usa",44687
1855,-83.2934086,40.8043646,"upper sandusky, oh 43351, usa",43351
1856,-80.8322428,41.5339129,"orwell, oh 44076, usa",44076
1857,-81.614468,40.8854571,"canal fulton, oh 44614, usa",44614
1858,-81.9152844,41.4118396,"north olmsted, oh 44070, usa",44070
1859,-81.5596427,40.042095,"cambridge, oh 43725, usa",43725
1860,-81.3949264,41.4485544,"chagrin falls, oh 44022, usa",44022
1861,-81.5486728,41.3206951,"northfield, oh 44067, usa",44067
1862,-81.1416691,40.9202113,"alliance, oh 44601, usa",44601
1863,-81.4388858,41.1729114,"stow, oh 44224, usa",44224
1864,-83.7305392,41.6992425,"sylvania, oh 43560, usa",43560
1865,-81.5267282,40.9793352,"akron, oh 44319, usa",44319
1866,-80.7990185,41.2629796,"warren, oh 44483, usa",44483
1867,-84.7524482,39.4717184,"oxford, oh 45056, usa",45056
1868,-81.5047772,40.8171314,"massillon, oh 44646, usa",44646
1869,-80.7768613,39.9516504,"shadyside, oh 43947, usa",43947
1870,-81.909826,39.9856069,"zanesville, oh 43701, usa",43701
1871,-84.1962563,39.0206668,"amelia, oh 45102, usa",45102
1872,-81.6363869,41.0875099,"akron, oh 44321, usa",44321
1873,-84.2910759,41.5195989,"archbold, oh 43502, usa",43502
1874,-84.4172666,39.621079,"germantown, oh 45327, usa",45327
1875,-83.624201,41.6735366,"toledo, oh 43606, usa",43606
1876,-81.5047772,40.8171314,"massillon, oh 44646, usa",44646
1877,24.9688475,51.6288118,"kamin'-kashyrs'kyi, volyns'ka oblast, ukraine, 44501",44501
1878,-84.2067992,39.445842,"lebanon, oh 45036, usa",45036
1879,-84.1540659,40.7199785,"lima, oh 45805, usa",45805
1880,-81.460856,40.8540649,"canton, oh 44718, usa",44718
1881,-82.669947,40.3009806,"centerburg, oh 43011, usa",43011
1882,-81.3894297,40.8437144,"canton, oh 44709, usa",44709
1883,-84.406761,39.341965,"west chester, oh 45069, usa",45069
1884,-84.3226488,39.7912709,"dayton, oh 45426, usa",45426
1885,-83.025396,40.1296424,"columbus, oh 43235, usa",43235
1886,-83.1220074,40.5518645,"marion, oh 43302, usa",43302
1887,-83.7305392,41.6992425,"sylvania, oh 43560, usa",43560
1888,-80.5660657,40.6735208,"east liverpool, oh 43920, usa",43920
1889,-81.7404134,41.4789363,"cleveland, oh 44102, usa",44102
1890,-80.5660657,40.6735208,"east liverpool, oh 43920, usa",43920
1891,-83.0677244,40.298702,"delaware, oh 43015, usa",43015
1892,-83.4109834,41.6615051,"oregon, oh 43616, usa",43616
1893,-83.0415078,39.93153,"columbus, oh 43223, usa",43223
1894,-82.5402275,40.089177,"granville, oh 43023, usa",43023
1895,-82.2250555,41.3983479,"amherst, oh 44001, usa",44001
1896,-84.5169757,39.1452057,"cincinnati, oh 45220, usa",45220
1897,-83.7305392,41.6992425,"sylvania, oh 43560, usa",43560
1898,-81.5047772,41.4766201,"beachwood, oh 44122, usa",44122
1899,-84.3647199,39.2364358,"cincinnati, oh 45242, usa",45242
1900,-84.7942091,39.2667628,"harrison, oh 45030, usa",45030
1901,-81.5486728,41.2409395,"peninsula, oh 44264, usa",44264
1902,-82.5936315,39.9593226,"kirkersville, oh 43033, usa",43033
1903,-82.6915429,41.4091138,"sandusky, oh 44870, usa",44870
1904,-80.9650023,41.781854,"geneva, oh 44041, usa",44041
1905,-84.4697663,39.2414664,"cincinnati, oh 45215, usa",45215
1906,-83.5975882,41.6472294,"toledo, oh 43607, usa",43607
1907,-80.621591,40.9890605,"youngstown, oh 44514, usa",44514
1908,-80.7103532,40.3725988,"steubenville, oh 43953, usa",43953
1909,-84.5903367,39.2730168,"cincinnati, oh 45251, usa",45251
1910,-81.8879884,40.5323483,"millersburg, oh 44654, usa",44654
1911,-81.3894297,40.8437144,"canton, oh 44709, usa",44709
1912,-81.614468,41.4051673,"cleveland, oh 44125, usa",44125
1913,-83.0683519,41.2428057,"green springs, oh 44836, usa",44836
1914,-81.5760945,41.4769163,"cleveland, oh 44120, usa",44120
1915,-82.9501558,39.3145284,"chillicothe, oh 45601, usa",45601
1916,-80.7436141,41.3679647,"cortland, oh 44410, usa",44410
1917,-83.1220074,40.5518645,"marion, oh 43302, usa",43302
1918,-81.9971108,40.80216,"wooster, oh 44691, usa",44691
1919,-82.008014,41.4531581,"avon, oh 44011, usa",44011
1920,-81.7568253,41.3258767,"north royalton, oh 44133, usa",44133
1921,-81.4388858,41.3125528,"twinsburg, oh 44087, usa",44087
1922,-84.5327038,39.2444348,"cincinnati, oh 45231, usa",45231
1923,-84.2489525,39.2411393,"loveland, oh 45140, usa",45140
1924,-81.5760945,41.5364934,"cleveland, oh 44112, usa",44112
1925,-83.9108968,38.8500753,"georgetown, oh 45121, usa",45121
1926,-81.1765211,39.9880986,"barnesville, oh 43713, usa",43713
1927,-82.669947,40.015874,"pataskala, oh 43062, usa",43062
1928,-83.570964,41.5214385,"perrysburg, oh 43551, usa",43551
1929,-81.6418656,41.5214566,"cleveland, oh 44103, usa",44103
1930,-84.238417,38.9603716,"new richmond, oh 45157, usa",45157
1931,-82.7433192,41.5401268,"lakeside marblehead, oh 43440, usa",43440
1932,-81.8279011,41.425548,"cleveland, oh 44135, usa",44135
1933,-83.1863358,39.3905459,"frankfort, oh 45628, usa",45628
1934,-83.7730237,41.5624201,"monclova, oh 43542, usa",43542
1935,-81.9207423,41.4470451,"westlake, oh 44145, usa",44145
1936,-80.6659842,40.4094475,"steubenville, oh 43952, usa",43952
1937,-84.5327038,39.2444348,"cincinnati, oh 45231, usa",45231
1938,-82.8855961,41.2416432,"bellevue, oh 44811, usa",44811
1939,-80.9650023,41.781854,"geneva, oh 44041, usa",44041
1940,-82.7886395,39.8290849,"canal winchester, oh 43110, usa",43110
1941,-84.1540659,39.5978465,"dayton, oh 45458, usa",45458
1942,-82.4102628,39.8765387,"thornville, oh 43076, usa",43076
1943,-82.7994194,40.7140659,"galion, oh 44833, usa",44833
1944,-81.4992884,41.1024492,"akron, oh 44310, usa",44310
1945,-82.1387233,41.2429365,"lagrange, oh 44050, usa",44050
1946,-81.9207423,41.4470451,"westlake, oh 44145, usa",44145
1947,-83.1756188,40.01616,"hilliard, oh 43026, usa",43026
1948,-80.5549561,40.9635792,"new middletown, oh 44442, usa",44442
1949,-84.3016021,39.543358,"franklin, oh 45005, usa",45005
1950,-81.4828198,41.5544029,"cleveland, oh 44143, usa",44143
1951,-80.5549561,40.8433557,"east palestine, oh 44413, usa",44413
1952,-81.2739073,41.3698038,"chagrin falls, oh 44023, usa",44023
1953,-84.3909991,39.1495912,"cincinnati, oh 45227, usa",45227
1954,-82.7994194,38.7451748,"wheelersburg, oh 45694, usa",45694
1955,-80.7879407,41.8466216,"ashtabula, oh 44004, usa",44004
1956,-81.6089873,41.5091257,"cleveland, oh 44106, usa",44106
1957,-84.3226488,39.893846,"englewood, oh 45322, usa",45322
1958,-81.4388858,41.3125528,"twinsburg, oh 44087, usa",44087
1959,-84.4356468,39.1335733,"cincinnati, oh 45208, usa",45208
1960,-83.1756188,40.01616,"hilliard, oh 43026, usa",43026
1961,-84.2173403,39.8476384,"dayton, oh 45414, usa",45414
1962,-84.3226488,39.130723,"cincinnati, oh 45244, usa",45244
1963,-81.8115051,41.399503,"brook park, oh 44142, usa",44142
1964,-81.4388858,40.8122437,"canton, oh 44708, usa",44708
1965,-81.986206,40.9521188,"burbank, oh 44214, usa",44214
1966,-84.238417,39.33376,"maineville, oh 45039, usa",45039
1967,-81.5322149,41.4339301,"cleveland, oh 44128, usa",44128
1968,-81.614468,41.3055951,"brecksville, oh 44141, usa",44141
1969,-82.1060683,39.3221839,"athens, oh 45701, usa",45701
1970,-81.909826,39.9856069,"zanesville, oh 43701, usa",43701
1971,-84.6165146,39.1654029,"cincinnati, oh 45211, usa",45211
1972,-84.0854432,39.764031,"dayton, oh 45431, usa",45431
1973,-83.6561215,41.4065709,"bowling green, oh 43402, usa",43402
1974,-83.9108968,40.8587757,"bluffton, oh 45817, usa",45817
1975,-81.521241,41.1740315,"cuyahoga falls, oh 44223, usa",44223
1976,-81.4388858,41.2527491,"hudson, oh 44236, usa",44236
1977,-81.9971108,40.80216,"wooster, oh 44691, usa",44691
1978,-83.6986568,41.5683175,"maumee, oh 43537, usa",43537
1979,-81.8631302,41.1524413,"medina, oh 44256, usa",44256
1980,-84.2805478,39.0663831,"cincinnati, oh 45245, usa",45245
1981,-83.570964,41.5214385,"perrysburg, oh 43551, usa",43551
1982,-83.570964,41.5214385,"perrysburg, oh 43551, usa",43551
1983,-82.7886395,39.9518394,"reynoldsburg, oh 43068, usa",43068
1984,-82.5185837,40.3521894,"mt vernon, oh 43050, usa",43050
1985,-81.909826,39.9856069,"zanesville, oh 43701, usa",43701
1986,-84.2542195,39.8340845,"dayton, oh 45415, usa",45415
1987,-83.804868,39.4457756,"wilmington, oh 45177, usa",45177
1988,-80.7103532,40.3725988,"steubenville, oh 43953, usa",43953
1989,-83.4643551,39.5096149,"washington court house, oh 43160, usa",43160
1990,-83.1327332,40.115674,"dublin, oh 43017, usa",43017
1991,-81.4388858,41.3125528,"twinsburg, oh 44087, usa",44087
1992,-83.9108968,39.6779549,"xenia, oh 45385, usa",45385
1993,-84.2489525,39.2411393,"loveland, oh 45140, usa",45140
1994,-83.1220074,41.3559092,"fremont, oh 43420, usa",43420
1995,-84.0378894,41.0264299,"ottawa, oh 45875, usa",45875
1996,-98.4928586,45.4742195,"aberdeen, sd 57401, usa",57401
1997,-96.6295187,45.2199684,"milbank, sd 57252, usa",57252
1998,-98.1775638,44.4453916,"huron, sd 57350, usa",57350
1999,-99.4117197,43.4412863,"gregory, sd 57533, usa",57533
2000,-96.8458204,43.5190906,"sioux falls, sd 57106, usa",57106
2001,-103.5899733,43.7746814,"custer, sd 57730, usa",57730
2002,-103.1971067,44.1400311,"rapid city, sd 57701, usa",57701
2003,-100.3510108,44.3683222,"pierre, sd 57501, usa",57501
2004,-103.8307232,44.9851993,"belle fourche, sd 57717, usa",57717
2005,-97.0955169,44.9666491,"watertown, sd 57201, usa",57201
2006,-103.4049445,44.0219841,"rapid city, sd 57702, usa",57702
2007,-97.0171068,45.7267153,"sisseton, sd 57262, usa",57262
2008,-96.722641,43.521619,"sioux falls, sd 57105, usa",57105
2009,-103.4049445,44.0219841,"rapid city, sd 57702, usa",57702
2010,-98.4928586,45.4742195,"aberdeen, sd 57401, usa",57401
2011,-98.4928586,45.4742195,"aberdeen, sd 57401, usa",57401
2012,-103.9319295,44.481587,"spearfish, sd 57783, usa",57783
2013,-96.722641,43.521619,"sioux falls, sd 57105, usa",57105
2014,-96.8458204,43.5190906,"sioux falls, sd 57106, usa",57106
2015,-96.7172907,43.6032799,"sioux falls, sd 57104, usa",57104
2016,-100.3510108,44.3683222,"pierre, sd 57501, usa",57501
2017,-98.1129256,45.4261077,"groton, sd 57445, usa",57445
2018,-97.394882,43.7427308,"salem, sd 57058, usa",57058
2019,-97.1359377,44.3651175,"arlington, sd 57212, usa",57212
2020,-103.4049445,44.0219841,"rapid city, sd 57702, usa",57702
2021,-100.4621014,45.3478123,"mobridge, sd 57601, usa",57601
2022,-97.1359377,43.9873257,"madison, sd 57042, usa",57042
2023,-98.5831497,44.8642333,"redfield, sd 57469, usa",57469
2024,-99.0005361,45.4731325,"ipswich, sd 57451, usa",57451
2025,-100.1703257,43.1077534,"winner, sd 57580, usa",57580
2026,-98.352656,43.2940787,"armour, sd 57313, usa",57313
2027,-97.7716374,44.8476938,"clark, sd 57225, usa",57225
2028,-97.2005806,44.5675659,"lake norden, sd 57248, usa",57248
2029,-103.1971067,44.1400311,"rapid city, sd 57701, usa",57701
2030,-98.0028892,43.7016744,"mitchell, sd 57301, usa",57301
2031,-96.642433,43.0015606,"alcester, sd 57001, usa",57001
2032,-103.1971067,44.1400311,"rapid city, sd 57701, usa",57701
2033,-96.6851982,42.7273459,"elk point, sd 57025, usa",57025
2034,-96.6905458,43.5426559,"sioux falls, sd 57103, usa",57103
2035,-97.0955169,44.9666491,"watertown, sd 57201, usa",57201
2036,-97.3084571,43.4425057,"marion, sd 57043, usa",57043
2037,-97.4597725,42.9124127,"yankton, sd 57078, usa",57078
2038,-97.5399678,45.3141903,"webster, sd 57274, usa",57274
2039,-103.4974258,43.332479,"hot springs, sd 57747, usa",57747
2040,-98.4928586,45.4742195,"aberdeen, sd 57401, usa",57401
2041,-97.5680595,44.4124458,"de smet, sd 57231, usa",57231
2042,-97.5680595,44.0352604,"howard, sd 57349, usa",57349
2043,-97.1359377,43.9873257,"madison, sd 57042, usa",57042
2044,-97.4165053,44.5911711,"bryant, sd 57221, usa",57221
2045,-99.6459613,45.7249797,"eureka, sd 57437, usa",57437
2046,-96.7922355,44.3107829,"brookings, sd 57006, usa",57006
2047,-96.7922355,43.0894534,"beresford, sd 57004, usa",57004
2048,-96.8779926,43.3156343,"lennox, sd 57039, usa",57039
2049,-96.7922355,44.3107829,"brookings, sd 57006, usa",57006
2050,-99.1861375,45.0423824,"faulkton, sd 57438, usa",57438
2051,-96.6210611,44.0941621,"flandreau, sd 57028, usa",57028
2052,-97.286868,43.6161294,"canistota, sd 57012, usa",57012
2053,-96.9423844,43.0997482,"centerville, sd 57014, usa",57014
2054,-98.4403573,43.4409652,"corsica, sd 57328, usa",57328
2055,-102.1970288,45.7857292,"lemmon, sd 57638, usa",57638
2056,-97.9157099,43.2483946,"tripp, sd 57376, usa",57376
2057,-99.4117197,44.5744425,"highmore, sd 57345, usa",57345
2058,-97.8048733,45.2963479,"bristol, sd 57219, usa",57219
2059,-97.0713572,43.0145327,"wakonda, sd 57073, usa",57073
2060,-97.7634019,43.1240758,"scotland, sd 57059, usa",57059
2061,-96.722641,43.521619,"sioux falls, sd 57105, usa",57105
2062,-98.6160674,43.1206539,"lake andes, sd 57356, usa",57356
2063,-97.8503951,43.0023104,"tyndall, sd 57066, usa",57066
2064,-96.8994495,44.5861845,"estelline, sd 57234, usa",57234
2065,-97.2437105,43.1196507,"irene, sd 57037, usa",57037
2066,-96.642433,43.2718425,"canton, sd 57013, usa",57013
2067,-103.5090025,44.4154703,"sturgis, sd 57785, usa",57785
2068,-102.7594847,44.1717539,"new underwood, sd 57761, usa",57761
2069,-97.6795646,45.8365276,"britton, sd 57430, usa",57430
2070,-98.265058,43.0695548,"wagner, sd 57380, usa",57380
2071,-99.6038244,45.4617249,"bowdle, sd 57428, usa",57428
2072,-98.0028892,43.7016744,"mitchell, sd 57301, usa",57301
2073,-103.4049445,44.0219841,"rapid city, sd 57702, usa",57702
2074,-96.6210611,44.3961659,"white, sd 57276, usa",57276
2075,-97.4814163,43.3545556,"freeman, sd 57029, usa",57029
2076,-97.5463885,43.215695,"menno, sd 57045, usa",57045
2077,-97.4814163,43.5079232,"bridgewater, sd 57319, usa",57319
2078,-96.5143087,43.7391922,"garretson, sd 57030, usa",57030
2079,-96.7152534,44.8401034,"clear lake, sd 57226, usa",57226
2080,-98.265058,44.0624988,"woonsocket, sd 57385, usa",57385
2081,-96.8563374,45.4329404,"wilmot, sd 57279, usa",57279
2082,-97.1574784,43.1636659,"viborg, sd 57070, usa",57070
2083,-96.6816965,45.8230451,"rosholt, sd 57260, usa",57260
2084,-96.6295187,45.2199684,"milbank, sd 57252, usa",57252
2085,-100.0944336,45.381146,"selby, sd 57472, usa",57472
2086,-99.0571089,44.4537134,"miller, sd 57362, usa",57362
2087,-97.4908841,45.4952312,"roslyn, sd 57261, usa",57261
2088,-98.1775638,44.4453916,"huron, sd 57350, usa",57350
2089,-96.7172907,43.6032799,"sioux falls, sd 57104, usa",57104
2090,-96.7279918,43.8411261,"dell rapids, sd 57022, usa",57022
2091,-96.5996963,43.6196972,"brandon, sd 57005, usa",57005
2092,-96.5569882,43.1225049,"hudson, sd 57034, usa",57034
2093,-98.704075,43.7263894,"white lake, sd 57383, usa",57383
2094,-101.7979613,44.1640783,"philip, sd 57567, usa",57567
2095,-97.4597725,42.9124127,"yankton, sd 57078, usa",57078
2096,-98.9687011,43.400581,"platte, sd 57369, usa",57369
2097,-99.3229213,43.7533739,"chamberlain, sd 57325, usa",57325
2098,-101.7979613,43.103523,"martin, sd 57551, usa",57551
2099,-100.7097867,43.5169738,"white river, sd 57579, usa",57579
2100,-98.704075,44.0297714,"wessington springs, sd 57382, usa",57382
2101,-96.9638624,42.8467589,"vermillion, sd 57069, usa",57069
2102,-101.6157773,43.7312033,"kadoka, sd 57543, usa",57543
2103,-100.1722667,45.0713407,"gettysburg, sd 57442, usa",57442
2104,-98.5831497,44.8642333,"redfield, sd 57469, usa",57469
2105,-103.4974258,43.332479,"hot springs, sd 57747, usa",57747
2106,-97.9374948,43.3813015,"parkston, sd 57366, usa",57366
2107,-88.0167406,44.4812116,"green bay, wi 54301, usa",54301
2108,-92.5346089,45.1401262,"new richmond, wi 54017, usa",54017
2109,-88.2753144,43.0745082,"pewaukee, wi 53072, usa",53072
2110,-89.3321823,43.0078309,"madison, wi 53711, usa",53711
2111,-87.8647961,42.736631,"racine, wi 53406, usa",53406
2112,-88.099845,42.9746138,"new berlin, wi 53151, usa",53151
2113,-88.0460894,42.9980102,"milwaukee, wi 53227, usa",53227
2114,-89.3084607,43.099931,"madison, wi 53714, usa",53714
2115,-89.3084607,43.099931,"madison, wi 53714, usa",53714
2116,-87.879523,43.0824328,"milwaukee, wi 53211, usa",53211
2117,-89.8738987,44.3472348,"port edwards, wi 54469, usa",54469
2118,-89.4553088,43.192794,"waunakee, wi 53597, usa",53597
2119,-88.0167406,43.0169374,"milwaukee, wi 53214, usa",53214
2120,-89.9813445,43.5414652,"reedsburg, wi 53959, usa",53959
2121,-87.8255007,42.638141,"kenosha, wi 53140, usa",53140
2122,-89.5113724,45.0362753,"wausau, wi 54403, usa",54403
2123,-88.148657,43.3724402,"west bend, wi 53095, usa",53095
2124,-87.8991514,43.0439776,"milwaukee, wi 53202, usa",53202
2125,-87.8746146,42.6292743,"kenosha, wi 53144, usa",53144
2126,-91.0777723,43.9195358,"west salem, wi 54669, usa",54669
2127,-89.8172797,44.3837264,"wisconsin rapids, wi 54494, usa",54494
2128,-90.4879916,42.7456634,"platteville, wi 53818, usa",53818
2129,-88.0607565,44.5431988,"green bay, wi 54303, usa",54303
2130,-89.0752499,42.8405704,"edgerton, wi 53534, usa",53534
2131,-88.2947675,43.0165459,"waukesha, wi 53188, usa",53188
2132,-88.8455037,42.9164307,"fort atkinson, wi 53538, usa",53538
2133,-88.3530747,44.2455449,"appleton, wi 54915, usa",54915
2134,-91.1544963,43.8041647,"la crosse, wi 54601, usa",54601
2135,-89.2562239,43.0850514,"madison, wi 53718, usa",53718
2136,-88.4306955,43.789674,"fond du lac, wi 54935, usa",54935
2137,-88.7686382,42.9934527,"jefferson, wi 53549, usa",53549
2138,-89.0752499,42.5276281,"beloit, wi 53511, usa",53511
2139,-88.4306955,43.789674,"fond du lac, wi 54935, usa",54935
2140,-89.5214505,43.0282084,"madison, wi 53719, usa",53719
2141,-88.1096118,42.8677237,"muskego, wi 53150, usa",53150
2142,-87.8255007,42.638141,"kenosha, wi 53140, usa",53140
2143,-87.8551999,42.5735241,"kenosha, wi 53142, usa",53142
2144,-88.9796776,43.9772722,"berlin, wi 54923, usa",54923
2145,-90.7152749,42.8225618,"lancaster, wi 53813, usa",53813
2146,-89.6628111,42.5896728,"monroe, wi 53566, usa",53566
2147,-88.4984991,44.0291228,"oshkosh, wi 54901, usa",54901
2148,-90.1869644,44.5876914,"marshfield, wi 54449, usa",54449
2149,-89.3724769,43.0833196,"madison, wi 53703, usa",53703
2150,-87.3413599,44.8571053,"sturgeon bay, wi 54235, usa",54235
2151,-87.8746146,44.4739494,"green bay, wi 54311, usa",54311
2152,-87.9432837,43.1272254,"milwaukee, wi 53209, usa",53209
2153,-89.189643,43.1912263,"sun prairie, wi 53590, usa",53590
2154,-88.9318082,43.082492,"lake mills, wi 53551, usa",53551
2155,-88.9222277,44.337508,"weyauwega, wi 54983, usa",54983
2156,-88.9222277,44.4885931,"manawa, wi 54949, usa",54949
2157,-89.7379958,43.5219322,"baraboo, wi 53913, usa",53913
2158,-87.8304145,42.564798,"kenosha, wi 53143, usa",53143
2159,-87.8991514,43.0439776,"milwaukee, wi 53202, usa",53202
2160,-90.4691097,43.1543807,"muscoda, wi 53573, usa",53573
2161,-88.6530753,42.6410322,"delavan, wi 53115, usa",53115
2162,-87.9824758,43.1666739,"milwaukee, wi 53223, usa",53223
2163,-89.736281,45.1865855,"merrill, wi 54452, usa",54452
2164,-88.0460894,42.9688506,"milwaukee, wi 53228, usa",53228
2165,-90.8354725,46.5517439,"ashland, wi 54806, usa",54806
2166,-90.1130987,45.261801,"rib lake, wi 54470, usa",54470
2167,-89.5308903,43.1156039,"middleton, wi 53562, usa",53562
2168,-89.7192132,42.9608139,"mt horeb, wi 53572, usa",53572
2169,-89.7334991,45.4871774,"tomahawk, wi 54487, usa",54487
2170,-88.6916315,43.2640345,"watertown, wi 53098, usa",53098
2171,-89.7334991,45.4871774,"tomahawk, wi 54487, usa",54487
2172,-88.5951751,44.8044992,"shawano, wi 54166, usa",54166
2173,-88.2266434,44.0252393,"chilton, wi 53014, usa",53014
2174,-87.9922684,43.7541316,"plymouth, wi 53073, usa",53073
2175,-88.8373023,43.4577167,"beaver dam, wi 53916, usa",53916
2176,-89.1134166,44.3391465,"waupaca, wi 54981, usa",54981
2177,-88.0607565,44.5431988,"green bay, wi 54303, usa",54303
2178,-88.5951751,44.8044992,"shawano, wi 54166, usa",54166
2179,-88.5468645,42.5711866,"williams bay, wi 53191, usa",53191
2180,-88.7686382,44.637647,"clintonville, wi 54929, usa",54929
2181,-90.3183792,44.906208,"colby, wi 54421, usa",54421
2182,-89.8317729,44.000744,"friendship, wi 53934, usa",53934
2183,-90.7152749,42.8225618,"lancaster, wi 53813, usa",53813
2184,-89.6063278,44.5306808,"stevens point, wi 54481, usa",54481
2185,-90.1869644,42.8246357,"mineral point, wi 53565, usa",53565
2186,-89.0370477,43.4989477,"randolph, wi 53956, usa",53956
2187,-87.5791287,44.4114864,"kewaunee, wi 54216, usa",54216
2188,-88.3925426,45.8546852,"florence, wi 54121, usa",54121
2189,-87.9481846,42.9574195,"milwaukee, wi 53221, usa",53221
2190,-90.0186555,44.5313554,"arpin, wi 54410, usa",54410
2191,-90.0933686,42.6880173,"darlington, wi 53530, usa",53530
2192,-88.4383564,45.0266748,"suring, wi 54174, usa",54174
2193,-91.5015009,44.7470586,"eau claire, wi 54701, usa",54701
2194,-90.4125181,43.3673375,"richland center, wi 53581, usa",53581
2195,-88.0411993,43.1095503,"milwaukee, wi 53225, usa",53225
2196,-89.7192132,44.9810012,"wausau, wi 54401, usa",54401
2197,-92.2291388,46.6102688,"superior, wi 54880, usa",54880
2198,-87.9432837,43.1272254,"milwaukee, wi 53209, usa",53209
2199,-89.3025281,43.4972598,"wyocena, wi 53969, usa",53969
2200,-90.7152749,43.1337266,"boscobel, wi 53805, usa",53805
2201,-91.748972,45.5495929,"rice lake, wi 54868, usa",54868
2202,-89.4600369,43.0716332,"madison, wi 53705, usa",53705
2203,-90.1869644,42.9804566,"dodgeville, wi 53533, usa",53533
2204,-87.3413599,44.8571053,"sturgeon bay, wi 54235, usa",54235
2205,-91.4821482,44.9530966,"chippewa falls, wi 54729, usa",54729
2206,-89.189643,43.1912263,"sun prairie, wi 53590, usa",53590
2207,-91.949021,44.5712677,"durand, wi 54736, usa",54736
2208,-88.0411993,43.0513426,"milwaukee, wi 53226, usa",53226
2209,-91.714958,44.5750105,"mondovi, wi 54755, usa",54755
2210,-92.5792482,44.858921,"river falls, wi 54022, usa",54022
2211,-90.8354725,46.5517439,"ashland, wi 54806, usa",54806
2212,-91.5015009,44.8594192,"eau claire, wi 54703, usa",54703
2213,-87.7172616,44.0923096,"manitowoc, wi 54220, usa",54220
2214,-89.01,42.71,"janesville, wi 53547, usa",53547
2215,-89.7379958,43.6756057,"wisconsin dells, wi 53965, usa",53965
2216,-90.4691097,42.6088027,"cuba city, wi 53807, usa",53807
2217,-90.1120696,43.2133937,"spring green, wi 53588, usa",53588
2218,-92.2291388,46.6102688,"superior, wi 54880, usa",54880
2219,-92.7580701,44.761177,"prescott, wi 54021, usa",54021
2220,-92.3910954,45.330785,"amery, wi 54001, usa",54001
2221,-90.5446912,44.9427184,"owen, wi 54460, usa",54460
2222,-89.5113724,45.0362753,"wausau, wi 54403, usa",54403
2223,-88.7493998,44.0511671,"omro, wi 54963, usa",54963
2224,-88.3530747,44.2455449,"appleton, wi 54915, usa",54915
2225,-91.9751751,46.5377839,"south range, wi 54874, usa",54874
2226,-90.7913227,44.2830622,"black river falls, wi 54615, usa",54615
2227,-89.1290876,45.1087328,"antigo, wi 54409, usa",54409
2228,-88.1096118,43.9471641,"new holstein, wi 53061, usa",53061
2229,-88.5951751,44.8044992,"shawano, wi 54166, usa",54166
2230,-87.8647961,42.9121206,"south milwaukee, wi 53172, usa",53172
2231,-87.9432837,42.991356,"milwaukee, wi 53215, usa",53215
2232,-88.1096118,43.1397761,"menomonee falls, wi 53051, usa",53051
2233,-91.1157621,45.4820557,"ladysmith, wi 54848, usa",54848
2234,-87.962884,43.0499798,"milwaukee, wi 53208, usa",53208
2235,-89.2847251,42.7444738,"evansville, wi 53536, usa",53536
2236,-91.4821482,44.9530966,"chippewa falls, wi 54729, usa",54729
2237,-89.5308903,44.9056901,"schofield, wi 54476, usa",54476
2238,-88.1096118,43.1397761,"menomonee falls, wi 53051, usa",53051
2239,-88.2947675,43.0165459,"waukesha, wi 53188, usa",53188
2240,-88.1584129,43.0532825,"brookfield, wi 53045, usa",53045
2241,-90.6204165,42.9983775,"fennimore, wi 53809, usa",53809
2242,-91.1544963,43.8041647,"la crosse, wi 54601, usa",54601
2243,-88.0607565,44.4866783,"green bay, wi 54304, usa",54304
2244,-88.9015674,45.5388011,"crandon, wi 54520, usa",54520
2245,-89.8172797,44.3837264,"wisconsin rapids, wi 54494, usa",54494
2246,-90.8124215,43.945742,"sparta, wi 54656, usa",54656
2247,-87.8255007,42.638141,"kenosha, wi 53140, usa",53140
2248,-88.0460894,42.9980102,"milwaukee, wi 53227, usa",53227
2249,-91.949021,44.8713797,"menomonie, wi 54751, usa",54751
2250,-91.2958423,46.010865,"hayward, wi 54843, usa",54843
2251,-90.2901815,44.9529814,"abbotsford, wi 54405, usa",54405
2252,-90.1120696,43.7525071,"mauston, wi 53948, usa",53948
2253,-91.1544963,43.8041647,"la crosse, wi 54601, usa",54601
2254,-92.1744993,44.6142296,"plum city, wi 54761, usa",54761
2255,-87.7172616,44.0923096,"manitowoc, wi 54220, usa",54220
2256,-90.4879916,43.9807736,"tomah, wi 54660, usa",54660
2257,-91.2409799,43.9083438,"onalaska, wi 54650, usa",54650
2258,-89.0370477,43.3447367,"columbus, wi 53925, usa",53925
2259,-88.8373023,43.4577167,"beaver dam, wi 53916, usa",53916
2260,-88.1876676,44.8549236,"oconto falls, wi 54154, usa",54154
2261,-87.8310972,45.0354565,"peshtigo, wi 54157, usa",54157
2262,-90.2620042,43.7522626,"elroy, wi 53929, usa",53929
2263,-88.6916315,43.379916,"juneau, wi 53039, usa",53039
2264,-91.4386366,44.8087611,"altoona, wi 54720, usa",54720
2265,-91.1544963,43.8041647,"la crosse, wi 54601, usa",54601
2266,-87.7099999,43.75,"sheboygan, wi 53082, usa",53082
2267,-87.8310972,45.0354565,"peshtigo, wi 54157, usa",54157
2268,-92.2728877,44.9494681,"woodville, wi 54028, usa",54028
2269,-89.3462193,45.6366479,"rhinelander, wi 54501, usa",54501
2270,-91.2698475,44.7873441,"fall creek, wi 54742, usa",54742
2271,-88.2753144,43.3261631,"slinger, wi 53086, usa",53086
2272,-89.8692203,43.2327288,"sauk city, wi 53583, usa",53583
2273,-88.3433623,44.1790349,"menasha, wi 54952, usa",54952
2274,-88.148657,43.3724402,"west bend, wi 53095, usa",53095
2275,-92.2827384,44.8090916,"spring valley, wi 54767, usa",54767
2276,-87.9804239,45.715354,"niagara, wi 54151, usa",54151
2277,-92.5346089,45.1401262,"new richmond, wi 54017, usa",54017
2278,-90.7722974,44.9414104,"thorp, wi 54771, usa",54771
2279,-90.1869644,42.9804566,"dodgeville, wi 53533, usa",53533
2280,-87.7172616,44.0923096,"manitowoc, wi 54220, usa",54220
2281,-87.706831,45.1077917,"marinette, wi 54143, usa",54143
2282,-87.8697056,42.9754355,"st francis, wi 53235, usa",53235
2283,-91.4879537,45.1023809,"bloomer, wi 54724, usa",54724
2284,-91.949021,44.8713797,"menomonie, wi 54751, usa",54751
2285,-88.5178518,44.2003965,"neenah, wi 54956, usa",54956
2286,-88.285042,42.6557003,"burlington, wi 53105, usa",53105
2287,-92.4801989,44.7300487,"ellsworth, wi 54011, usa",54011
2288,-88.372493,44.2837065,"appleton, wi 54911, usa",54911
2289,-89.5686271,42.999243,"verona, wi 53593, usa",53593
2290,-88.0607565,44.5431988,"green bay, wi 54303, usa",54303
2291,-89.1515476,44.5658817,"iola, wi 54945, usa",54945
2292,-90.7913227,44.2830622,"black river falls, wi 54615, usa",54615
2293,-88.1119718,45.2463009,"crivitz, wi 54114, usa",54114
2294,-88.1974148,43.015059,"waukesha, wi 53186, usa",53186
2295,-87.9873724,42.9678365,"milwaukee, wi 53220, usa",53220
2296,-87.0906417,45.17804,"sister bay, wi 54234, usa",54234
2297,-87.8058402,42.6964412,"racine, wi 53403, usa",53403
2298,-89.2277026,44.1884051,"wild rose, wi 54984, usa",54984
2299,-88.7686382,44.637647,"clintonville, wi 54929, usa",54929
2300,-87.9824758,43.1666739,"milwaukee, wi 53223, usa",53223
2301,-92.4505255,44.9644635,"hammond, wi 54015, usa",54015
2302,-92.3616203,44.957003,"baldwin, wi 54002, usa",54002
2303,-89.7192132,44.9810012,"wausau, wi 54401, usa",54401
2304,-87.9481846,42.9574195,"milwaukee, wi 53221, usa",53221
2305,-91.5015009,44.7470586,"eau claire, wi 54701, usa",54701
2306,-92.3910954,45.330785,"amery, wi 54001, usa",54001
2307,-88.8455037,42.5647723,"clinton, wi 53525, usa",53525
2308,-88.3044908,44.5188133,"seymour, wi 54165, usa",54165
2309,-87.7271123,43.7013054,"sheboygan, wi 53081, usa",53081
2310,-89.2277026,42.9196358,"stoughton, wi 53589, usa",53589
2311,-92.5792482,44.858921,"river falls, wi 54022, usa",54022
2312,-88.0705319,44.401935,"de pere, wi 54115, usa",54115
2313,-89.5686271,42.999243,"verona, wi 53593, usa",53593
2314,-89.5120084,43.5211936,"portage, wi 53901, usa",53901
2315,-88.1584129,43.0532825,"brookfield, wi 53045, usa",53045
2316,-89.5686271,43.3093378,"lodi, wi 53555, usa",53555
2317,-89.7567693,43.1163045,"black earth, wi 53515, usa",53515
2318,-88.4306955,43.789674,"fond du lac, wi 54935, usa",54935
2319,-87.9824758,43.1666739,"milwaukee, wi 53223, usa",53223
2320,-88.0363086,43.0852217,"milwaukee, wi 53222, usa",53222
2321,-91.09694,43.0531025,"prairie du chien, wi 53821, usa",53821
2322,-87.8647961,42.9121206,"south milwaukee, wi 53172, usa",53172
2323,-89.189643,44.7915151,"wittenberg, wi 54499, usa",54499
2324,-88.1584129,43.0532825,"brookfield, wi 53045, usa",53045
2325,-87.9824758,43.1666739,"milwaukee, wi 53223, usa",53223
2326,-90.4879916,42.7456634,"platteville, wi 53818, usa",53818
2327,-88.7301525,43.6496932,"waupun, wi 53963, usa",53963
2328,-92.5579385,45.4024216,"st croix falls, wi 54024, usa",54024
2329,-87.4802068,44.616552,"algoma, wi 54201, usa",54201
2330,-88.4306955,43.789674,"fond du lac, wi 54935, usa",54935
2331,-91.09694,44.7328928,"augusta, wi 54722, usa",54722
2332,-89.3795835,42.9205564,"oregon, wi 53575, usa",53575
2333,-88.0411993,43.3224055,"cedarburg, wi 53012, usa",53012
2334,-89.1134166,44.3391465,"waupaca, wi 54981, usa",54981
2335,-87.8991514,43.0439776,"milwaukee, wi 53202, usa",53202
2336,-90.1958118,46.323928,"hurley, wi 54534, usa",54534
2337,-88.5371958,42.7178505,"elkhorn, wi 53121, usa",53121
2338,-88.0314174,42.7102997,"union grove, wi 53182, usa",53182
2339,-88.6916315,43.2640345,"watertown, wi 53098, usa",53098
2340,-92.1646722,44.7364467,"elmwood, wi 54740, usa",54740
2341,-87.997164,43.0457293,"milwaukee, wi 53213, usa",53213
2342,-88.1096118,43.9471641,"new holstein, wi 53061, usa",53061
2343,-87.9432837,43.1272254,"milwaukee, wi 53209, usa",53209
2344,-88.3530747,44.2455449,"appleton, wi 54915, usa",54915
2345,-87.997164,42.9388315,"greendale, wi 53129, usa",53129
2346,-89.0370477,43.7293666,"markesan, wi 53946, usa",53946
2347,-88.8263006,43.8995087,"ripon, wi 54971, usa",54971
2348,-87.9432837,42.991356,"milwaukee, wi 53215, usa",53215
2349,-92.0222489,45.7532148,"shell lake, wi 54871, usa",54871
2350,-88.4984991,43.9529174,"oshkosh, wi 54902, usa",54902
2351,-87.8746146,42.6292743,"kenosha, wi 53144, usa",53144
2352,-88.0607565,44.4866783,"green bay, wi 54304, usa",54304
2353,-92.683053,45.7763905,"grantsburg, wi 54840, usa",54840
2354,-88.0167406,44.4812116,"green bay, wi 54301, usa",54301
2355,-88.4984991,43.1067452,"oconomowoc, wi 53066, usa",53066
2356,-88.3821989,42.7938889,"east troy, wi 53120, usa",53120
2357,-90.9438468,43.5183492,"viroqua, wi 54665, usa",54665
2358,-92.1253854,44.4739494,"pepin, wi 54759, usa",54759
2359,-88.4403883,42.5795903,"lake geneva, wi 53147, usa",53147
2360,-91.0018958,46.7048044,"washburn, wi 54891, usa",54891
2361,-87.7271123,43.7013054,"sheboygan, wi 53081, usa",53081
2362,-87.9775787,44.5087986,"green bay, wi 54302, usa",54302
2363,-88.4984991,42.9902388,"dousman, wi 53118, usa",53118
2364,-88.0705319,44.401935,"de pere, wi 54115, usa",54115
2365,-88.4306955,44.26558,"appleton, wi 54914, usa",54914
2366,-87.7172616,44.0923096,"manitowoc, wi 54220, usa",54220
2367,-88.0411993,43.3224055,"cedarburg, wi 53012, usa",53012
2368,-88.3093517,44.2875258,"little chute, wi 54140, usa",54140
2369,-91.4879537,45.1023809,"bloomer, wi 54724, usa",54724
2370,-90.1120696,43.9054608,"new lisbon, wi 53950, usa",53950
2371,-88.372493,44.2837065,"appleton, wi 54911, usa",54911
2372,-87.8844309,43.4160758,"port washington, wi 53074, usa",53074
2373,-88.7301525,42.798261,"whitewater, wi 53190, usa",53190
2374,-88.0411993,43.1095503,"milwaukee, wi 53225, usa",53225
2375,-89.3462193,45.6366479,"rhinelander, wi 54501, usa",54501
2376,-88.0167406,44.4812116,"green bay, wi 54301, usa",54301
2377,-90.9438468,43.5183492,"viroqua, wi 54665, usa",54665
2378,-91.1157621,45.4820557,"ladysmith, wi 54848, usa",54848
2379,-88.4306955,43.789674,"fond du lac, wi 54935, usa",54935
2380,-88.0460894,42.9396744,"hales corners, wi 53130, usa",53130
2381,-87.7271123,43.7013054,"sheboygan, wi 53081, usa",53081
2382,-88.7686382,44.4115636,"new london, wi 54961, usa",54961
2383,-87.9873724,42.996996,"milwaukee, wi 53219, usa",53219
2384,-92.1928798,45.0910554,"glenwood city, wi 54013, usa",54013
2385,-87.8304145,42.564798,"kenosha, wi 53143, usa",53143
2386,-87.9873724,42.9678365,"milwaukee, wi 53220, usa",53220
2387,-87.7271123,43.7013054,"sheboygan, wi 53081, usa",53081
2388,-91.3855161,44.5606466,"strum, wi 54770, usa",54770
2389,-87.7566513,43.8262678,"sheboygan, wi 53083, usa",53083
2390,-87.8647961,42.736631,"racine, wi 53406, usa",53406
2391,-87.7172616,44.0923096,"manitowoc, wi 54220, usa",54220
2392,-89.6063278,44.5306808,"stevens point, wi 54481, usa",54481
2393,-90.2707643,45.9416921,"park falls, wi 54552, usa",54552
2394,-92.2291388,46.6102688,"superior, wi 54880, usa",54880
2395,-88.5371958,43.5321412,"mayville, wi 53050, usa",53050
2396,-88.2655845,44.3294512,"kaukauna, wi 54130, usa",54130
2397,-88.148657,43.3724402,"west bend, wi 53095, usa",53095
2398,-90.8484524,43.6535842,"westby, wi 54667, usa",54667
2399,-88.2363819,43.7868499,"mt calvary, wi 53057, usa",53057
2400,-90.7722974,43.3847756,"soldiers grove, wi 54655, usa",54655
2401,-88.6460193,45.5549411,"laona, wi 54541, usa",54541
2402,-91.2313618,44.298114,"blair, wi 54616, usa",54616
2403,-88.5371958,42.7178505,"elkhorn, wi 53121, usa",53121
2404,-92.6802514,44.9872983,"hudson, wi 54016, usa",54016
2405,-90.3457015,45.713685,"phillips, wi 54555, usa",54555
2406,-91.3469247,44.1071284,"galesville, wi 54630, usa",54630
2407,-90.6393702,44.5107293,"neillsville, wi 54456, usa",54456
2408,-89.6439924,42.8047254,"new glarus, wi 53574, usa",53574
2409,-91.2958423,46.010865,"hayward, wi 54843, usa",54843
2410,-87.879523,43.0824328,"milwaukee, wi 53211, usa",53211
2411,-91.1597758,45.1248733,"cornell, wi 54732, usa",54732
2412,-88.4984991,44.0291228,"oshkosh, wi 54901, usa",54901
2413,-89.0274915,42.7328159,"janesville, wi 53545, usa",53545
2414,-88.4306955,43.789674,"fond du lac, wi 54935, usa",54935
2415,-90.4152179,45.1861367,"medford, wi 54451, usa",54451
2416,-88.4210006,43.5690483,"lomira, wi 53048, usa",53048
2417,-89.6628111,42.5896728,"monroe, wi 53566, usa",53566
2418,-89.5308903,43.1156039,"middleton, wi 53562, usa",53562
2419,-88.3433623,42.8713325,"mukwonago, wi 53149, usa",53149
2420,-88.2947675,43.0165459,"waukesha, wi 53188, usa",53188
2421,-88.4984991,43.9529174,"oshkosh, wi 54902, usa",54902
2422,-91.8793862,45.4155648,"barron, wi 54812, usa",54812
2423,-88.9605365,42.6442233,"janesville, wi 53546, usa",53546
2424,-91.9879452,45.2633715,"prairie farm, wi 54762, usa",54762
2425,-88.1096118,43.2172378,"germantown, wi 53022, usa",53022
2426,-91.748972,45.5495929,"rice lake, wi 54868, usa",54868
2427,-88.4306955,43.789674,"fond du lac, wi 54935, usa",54935
2428,-89.5686271,42.999243,"verona, wi 53593, usa",53593
2429,-89.3606298,43.7507798,"montello, wi 53949, usa",53949
2430,-87.8844309,42.5216933,"pleasant prairie, wi 53158, usa",53158
2431,-90.5068824,42.5302288,"hazel green, wi 53811, usa",53811
2432,-88.3433623,44.8946738,"gillett, wi 54124, usa",54124
2433,-90.8124215,43.945742,"sparta, wi 54656, usa",54656
2434,-89.0752499,42.5276281,"beloit, wi 53511, usa",53511
2435,-87.5988876,44.2037901,"two rivers, wi 54241, usa",54241
2436,-92.2394197,45.6923253,"frederic, wi 54837, usa",54837
2437,-89.01,42.71,"janesville, wi 53547, usa",53547
2438,-89.9813445,43.5414652,"reedsburg, wi 53959, usa",53959
2439,-87.9530849,43.2145528,"mequon, wi 53092, usa",53092
2440,-87.8647961,42.736631,"racine, wi 53406, usa",53406
2441,-87.8942451,44.9433307,"oconto, wi 54153, usa",54153
2442,-90.4125181,43.3673375,"richland center, wi 53581, usa",53581
2443,-91.6729359,45.2684049,"chetek, wi 54728, usa",54728
2444,-91.9093921,45.8690555,"spooner, wi 54801, usa",54801
2445,-87.8353278,43.7129786,"sheboygan falls, wi 53085, usa",53085
2446,-88.6241351,42.5329238,"walworth, wi 53184, usa",53184
2447,-89.807297,45.8657941,"minocqua, wi 54548, usa",54548
2448,-91.3083685,44.372924,"whitehall, wi 54773, usa",54773
2449,-92.4939383,45.5924667,"luck, wi 54853, usa",54853
2450,-89.2277026,42.9196358,"stoughton, wi 53589, usa",53589
2451,-87.9530849,43.2145528,"mequon, wi 53092, usa",53092
2452,-89.341667,42.5686831,"brodhead, wi 53520, usa",53520
2453,-90.1869644,44.5876914,"marshfield, wi 54449, usa",54449
2454,-87.9922684,43.7541316,"plymouth, wi 53073, usa",53073
2455,-88.1096118,42.8677237,"muskego, wi 53150, usa",53150
2456,-91.2073121,44.4257655,"pigeon falls, wi 54760, usa",54760
2457,-88.0314174,42.7102997,"union grove, wi 53182, usa",53182
2458,-88.5951751,44.8044992,"shawano, wi 54166, usa",54166
2459,-91.717192,45.0244489,"colfax, wi 54730, usa",54730
2460,-89.2562239,43.0850514,"madison, wi 53718, usa",53718
2461,-87.8746146,44.4739494,"green bay, wi 54311, usa",54311
2462,-91.8695542,45.2653649,"dallas, wi 54733, usa",54733
2463,-88.2266434,44.5176348,"oneida, wi 54155, usa",54155
2464,-90.5902781,46.3225764,"mellen, wi 54546, usa",54546
2465,-88.9222277,44.337508,"weyauwega, wi 54983, usa",54983
2466,-89.5308903,44.9056901,"schofield, wi 54476, usa",54476
2467,-88.099845,43.0717382,"brookfield, wi 53005, usa",53005
2468,-91.5015009,44.7470586,"eau claire, wi 54701, usa",54701
2469,-88.4984991,43.1067452,"oconomowoc, wi 53066, usa",53066
2470,-88.4210006,44.3316981,"appleton, wi 54913, usa",54913
2471,-88.6144839,44.0305833,"oshkosh, wi 54904, usa",54904
2472,-88.0411993,43.1095503,"milwaukee, wi 53225, usa",53225
2473,-92.6682072,45.2870888,"osceola, wi 54020, usa",54020
2474,-88.0411993,43.1095503,"milwaukee, wi 53225, usa",53225
2475,-91.4821482,44.9530966,"chippewa falls, wi 54729, usa",54729
2476,-91.2506002,44.505689,"osseo, wi, 54758, usa",54758
2477,-91.1157621,45.4820557,"ladysmith, wi 54848, usa",54848
2478,-89.5308903,44.9056901,"schofield, wi 54476, usa",54476
2479,-92.0488924,45.5635041,"cumberland, wi, 54829, usa",54829
2480,-91.949021,44.8713797,"menomonie, wi 54751, usa",54751
2481,-91.949021,44.8713797,"menomonie, wi 54751, usa",54751
2482,-91.8793862,45.4155648,"barron, wi 54812, usa",54812
2483,-89.1438051,44.3387864,"king, wi, 54946, usa",54946
2484,-89.1438051,44.3387864,"king, wi, 54946, usa",54946
2485,-89.1438051,44.3387864,"king, wi, 54946, usa",54946
2486,-89.1438051,44.3387864,"king, wi, 54946, usa",54946
2487,-90.1869644,44.5876914,"marshfield, wi 54449, usa",54449
2488,-88.0411993,43.0513426,"milwaukee, wi 53226, usa",53226
2489,-91.0777723,43.9195358,"west salem, wi 54669, usa",54669
2490,-91.3083685,44.372924,"whitehall, wi 54773, usa",54773
2491,-88.1876676,43.5271515,"kewaskum, wi, 53040",53040
2492,-90.1958118,46.323928,"hurley, wi 54534, usa",54534
2493,-87.9285777,43.0153807,"milwaukee, wi 53204, usa",53204
2494,-90.1869644,44.5876914,"marshfield, wi 54449, usa",54449
2495,-88.6916315,43.379916,"juneau, wi 53039, usa",53039
