,lon,lat,address,ZIP
1,-87.8746146,34.512273,"russellville, al 35653, usa",35653
2,-86.2516271,33.173129,"sylacauga, al 35150, usa",35150
3,-86.0733498,34.733095,"scottsboro, al 35768, usa",35768
4,-86.7164863,33.5685966,"birmingham, al 35206, usa",35206
5,-87.0824045,33.2920602,"mccalla, al 35111, usa",35111
6,-87.0824045,34.761354,"athens, al 35611, usa",35611
7,-86.3478151,32.5409874,"elmore, al 36025, usa",36025
8,-86.681253,32.7872186,"clanton, al 35045, usa",35045
9,-87.0824045,34.761354,"athens, al 35611, usa",35611
10,-86.1955169,32.6381123,"wetumpka, al 36092, usa",36092
11,-87.7566513,34.6429822,"tuscumbia, al 35674, usa",35674
12,-87.6751368,34.8017497,"florence, al 35631, usa",35631
13,-87.7172616,30.3928623,"foley, al 36535, usa",36535
14,-87.5890092,33.2692083,"northport, al 35473, usa",35473
15,-87.0714298,31.1086113,"brewton, al 36427, usa",36427
16,-86.2260131,32.265915,"montgomery, al 36116, usa",36116
17,-86.2412543,32.3512837,"montgomery, al 36106, usa",36106
18,-88.2266434,32.4569381,"york, al 36925, usa",36925
19,-86.2260131,32.265915,"montgomery, al 36116, usa",36116
20,-86.9774246,33.4968883,"pleasant grove, al 35127, usa",35127
21,-85.1686743,32.7381769,"valley, al 36854, usa",36854
22,-86.8069698,33.5373948,"birmingham, al 35234, usa",35234
23,-86.7516942,34.1437581,"cullman, al 35055, usa",35055
24,-87.8746146,30.6257115,"daphne, al 36526, usa",36526
25,-86.9523954,33.389869,"bessemer, al 35020, usa",35020
26,-85.56121,33.5829719,"heflin, al 36264, usa",36264
27,-86.9523954,33.389869,"bessemer, al 35020, usa",35020
28,-86.2767995,34.1636556,"boaz, al 35957, usa",35957
29,-86.4288534,32.4754941,"prattville, al 36066, usa",36066
30,-87.8746146,34.512273,"russellville, al 35653, usa",35653
31,-87.7566513,34.6429822,"tuscumbia, al 35674, usa",35674
32,-87.8746146,34.512273,"russellville, al 35653, usa",35653
33,-86.7818523,34.0667074,"hanceville, al 35077, usa",35077
34,-86.8822445,34.3580851,"falkville, al 35622, usa",35622
35,-86.6711817,33.5394261,"birmingham, al 35210, usa",35210
36,-86.0733498,31.4541879,"elba, al 36323, usa",36323
37,-87.0424393,32.4800392,"selma, al 36701, usa",36701
38,-86.9545763,31.4341907,"evergreen, al 36401, usa",36401
39,-86.7718017,33.586822,"birmingham, al 35217, usa",35217
40,-86.8094808,33.495492,"birmingham, al 35205, usa",35205
41,-88.0411993,30.6628121,"mobile, al 36603, usa",36603
42,-88.0721215,30.6614792,"mobile, al 36605, usa",36605
43,-86.317392,34.0314651,"altoona, al 35952, usa",35952
44,-88.1144943,30.7041262,"mobile, al 36607, usa",36607
45,-87.2618328,32.7335242,"marion, al 36756, usa",36756
46,-86.8069698,33.5373948,"birmingham, al 35234, usa",35234
47,-86.5501654,34.7364493,"huntsville, al 35801, usa",35801
48,-85.643487,32.4169386,"tuskegee, al 36083, usa",36083
49,-87.0424393,34.627813,"decatur, al 35601, usa",35601
50,-87.3038546,33.832184,"jasper, al 35502, usa",35502
51,-87.1722037,33.7530339,"cordova, al 35550, usa",35550
52,-86.5501654,34.7364493,"huntsville, al 35801, usa",35801
53,-86.8370937,33.5269755,"birmingham, al 35204, usa",35204
54,-87.0424393,32.4800392,"selma, al 36701, usa",36701
55,-85.7461548,33.656468,"anniston, al 36207, usa",36207
56,-88.285042,31.113856,"citronelle, al 36522, usa",36522
57,-88.3433623,31.4578061,"chatom, al 36518, usa",36518
58,-85.8895551,33.2360286,"ashland, al 36251, usa",36251
59,-85.3136218,33.2157232,"roanoke, al 36274, usa",36274
60,-86.6107106,34.6939733,"huntsville, al 35805, usa",35805
61,-87.3413599,34.4354008,"moulton, al 35650, usa",35650
62,-87.5000082,31.101077,"atmore, al 36502, usa",36502
63,-86.5602614,33.6370355,"trussville, al 35173, usa",35173
64,-85.8179039,33.5807136,"oxford, al 36203, usa",36203
65,-86.8320743,33.7001374,"gardendale, al 35071, usa",35071
66,-86.7114545,33.6523096,"birmingham, al 35215, usa",35215
67,-86.2260131,32.265915,"montgomery, al 36116, usa",36116
68,-86.8822445,34.3580851,"falkville, al 35622, usa",35622
69,-88.2071598,33.0210567,"aliceville, al 35442, usa",35442
70,-87.3612205,34.1472004,"double springs, al 35553, usa",35553
71,-85.9508923,32.5401692,"tallassee, al 36078, usa",36078
72,-88.0705319,33.4009911,"reform, al 35481, usa",35481
73,-85.7461548,33.3433112,"lineville, al 36266, usa",36266
74,-87.5939487,33.2300079,"northport, al 35476, usa",35476
75,-86.7919009,33.2288218,"alabaster, al 35007, usa",35007
76,-86.8119917,33.3639393,"birmingham, al 35244, usa",35244
77,-87.6482474,34.8287425,"florence, al 35630, usa",35630
78,-86.5198651,34.3483541,"arab, al 35016, usa",35016
79,-87.913867,33.9796877,"guin, al 35563, usa",35563
80,-85.8793252,31.0481831,"geneva, al 36340, usa",36340
81,-88.1144943,30.7041262,"mobile, al 36607, usa",36607
82,-85.3929544,31.2197115,"dothan, al 36302, usa",36302
83,-86.8671989,33.449373,"birmingham, al 35211, usa",35211
84,-87.8156715,33.6431187,"fayette, al 35555, usa",35555
85,-87.1622344,33.8755473,"jasper, al 35504, usa",35504
86,-85.7051116,34.4111977,"fort payne, al 35967, usa",35967
87,-87.5791287,34.2628015,"haleyville, al 35565, usa",35565
88,-87.2618328,32.7335242,"marion, al 36756, usa",36756
89,-86.438974,33.9459806,"oneonta, al 35121, usa",35121
90,-86.2516271,33.173129,"sylacauga, al 35150, usa",35150
91,-86.1344697,33.3335556,"talladega, al 35160, usa",35160
92,-86.2361744,34.2512489,"albertville, al 35950, usa",35950
93,-88.2266434,32.1395316,"butler, al 36904, usa",36904
94,-85.7871663,32.8054982,"dadeville, al 36853, usa",36853
95,-87.972681,34.1810132,"hamilton, al 35570, usa",35570
96,-88.0656445,30.6804215,"mobile, al 36604, usa",36604
97,-87.6482474,34.8287425,"florence, al 35630, usa",35630
98,-85.7256372,32.148066,"union springs, al 36089, usa",36089
99,-85.9406745,33.9194738,"gadsden, al 35905, usa",35905
100,-85.4994192,31.2070554,"dothan, al 36305, usa",36305
101,-86.0325629,34.289226,"crossville, al 35962, usa",35962
102,-87.913867,32.4068841,"demopolis, al 36732, usa",36732
103,-87.972681,32.9273968,"eutaw, al 35462, usa",35462
104,-85.0129509,32.495281,"phenix city, al 36867, usa",36867
105,-86.0019515,34.0772493,"gadsden, al 35904, usa",35904
106,-86.761749,31.655827,"georgiana, al 36033, usa",36033
107,-88.1876676,30.8143093,"eight mile, al 36613, usa",36613
108,-86.0733498,34.733095,"scottsboro, al 35768, usa",35768
109,-87.5939487,33.2300079,"northport, al 35476, usa",35476
110,-87.5791287,32.9204235,"moundville, al 35474, usa",35474
111,-87.972681,31.6579081,"jackson, al 36545, usa",36545
112,-86.2767995,33.6288538,"pell city, al 35125, usa",35125
113,-85.9100089,32.9446435,"alexander city, al 35010, usa",35010
114,-85.3756249,32.7008882,"opelika, al 36801, usa",36801
115,-86.6207943,31.7205259,"greenville, al 36037, usa",36037
116,-85.6113128,33.9244795,"piedmont, al 36272, usa",36272
117,-86.2767995,33.6288538,"pell city, al 35125, usa",35125
118,-85.2515482,32.8764315,"lanett, al 36863, usa",36863
119,-85.4788065,32.9523202,"la fayette, al 36862, usa",36862
120,-85.1686743,31.9693453,"eufaula, al 36027, usa",36027
121,-85.56121,34.1177222,"centre, al 35960, usa",35960
122,-88.1096118,34.5161195,"red bay, al 35582, usa",35582
123,-86.1141045,34.0252291,"attalla, al 35954, usa",35954
124,-86.0325629,33.1284236,"goodwater, al 35072, usa",35072
125,-86.9223432,34.5363567,"decatur, al 35603, usa",35603
126,-85.8690933,34.2838399,"collinsville, al 35961, usa",35961
127,-85.643487,31.4175206,"ozark, al 36360, usa",36360
128,-86.9523954,33.389869,"bessemer, al 35020, usa",35020
129,-86.2361744,31.2763668,"opp, al 36467, usa",36467
130,-88.0949609,30.7153357,"mobile, al 36617, usa",36617
131,-87.0424393,33.4704596,"bessemer, al 35023, usa",35023
132,-86.0325629,31.7719162,"troy, al 36079, usa",36079
133,-86.761749,34.7091114,"madison, al 35758, usa",35758
134,-87.1023746,32.9103223,"centreville, al 35042, usa",35042
135,-85.643487,31.4175206,"ozark, al 36360, usa",36360
136,-86.8922723,33.5675257,"birmingham, al 35214, usa",35214
137,-87.7369607,31.9272428,"thomasville, al 36784, usa",36784
138,-85.9100089,32.9446435,"alexander city, al 35010, usa",35010
139,-87.8746146,30.4876375,"fairhope, al 36532, usa",36532
140,-85.9406745,34.0530094,"gadsden, al 35901, usa",35901
141,-86.317392,34.3424511,"guntersville, al 35976, usa",35976
142,-88.0705319,33.7591055,"vernon, al 35592, usa",35592
143,-86.2260131,32.265915,"montgomery, al 36116, usa",36116
144,-86.9248483,33.4480108,"birmingham, al 35228, usa",35228
145,-87.1622344,33.8755473,"jasper, al 35504, usa",35504
146,-85.839922,31.3204544,"enterprise, al 36331, usa",36331
147,-86.8320743,33.4092779,"birmingham, al 35226, usa",35226
148,-87.3214908,31.5319093,"monroeville, al 36460, usa",36460
149,-87.5939487,33.2300079,"northport, al 35476, usa",35476
150,-87.7369607,32.2905602,"linden, al 36748, usa",36748
151,-85.0129509,32.495281,"phenix city, al 36867, usa",36867
152,-86.2767995,31.7792652,"luverne, al 36049, usa",36049
153,-87.5000082,34.8809517,"killen, al 35645, usa",35645
154,-86.9624086,33.2891965,"bessemer, al 35022, usa",35022
155,-87.4802068,33.3456008,"tuscaloosa, al 35406, usa",35406
156,-86.6107106,34.8043559,"huntsville, al 35810, usa",35810
157,-85.2308414,31.5852054,"abbeville, al 36310, usa",36310
158,-87.2618328,31.9179303,"camden, al 36726, usa",36726
159,-85.7461548,33.656468,"anniston, al 36207, usa",36207
160,-87.7566513,33.9323545,"winfield, al 35594, usa",35594
161,-86.317392,34.3424511,"guntersville, al 35976, usa",35976
162,-88.2753144,30.620114,"mobile, al 36695, usa",36695
163,-87.9530849,30.7189323,"spanish fort, al 36527, usa",36527
164,-85.0441304,32.417451,"phenix city, al 36869, usa",36869
165,-86.7516942,34.1437581,"cullman, al 35055, usa",35055
166,-85.9100089,32.9446435,"alexander city, al 35010, usa",35010
167,-86.6459944,33.6226176,"birmingham, al 35235, usa",35235
168,-86.3224638,32.3989318,"montgomery, al 36104, usa",36104
169,-85.7871663,33.8363538,"jacksonville, al 36265, usa",36265
170,-87.5692461,34.7830467,"muscle shoals, al 35661, usa",35661
171,-86.2818753,32.3864315,"montgomery, al 36107, usa",36107
172,-87.5988876,32.6726733,"greensboro, al 36744, usa",36744
173,-86.6107106,34.6939733,"huntsville, al 35805, usa",35805
174,-87.3214908,31.5319093,"monroeville, al 36460, usa",36460
175,-86.438974,33.5441749,"pell city, al 35128, usa",35128
176,-87.5988876,34.9049888,"florence, al 35634, usa",35634
177,-88.1144943,30.7041262,"mobile, al 36607, usa",36607
178,-87.0424393,33.4704596,"bessemer, al 35023, usa",35023
179,-88.3433623,30.4944043,"grand bay, al 36541, usa",36541
180,-86.1955169,33.8495908,"ashville, al 35953, usa",35953
181,-87.5593613,33.8393995,"carbon hill, al 35549, usa",35549
182,-85.37,32.65,"opelika, al 36802, usa",36802
183,-86.7919009,33.2288218,"alabaster, al 35007, usa",35007
184,-86.9223432,32.4319239,"selma, al 36703, usa",36703
185,-85.4788065,32.9523202,"la fayette, al 36862, usa",36862
186,-88.3433623,30.6784935,"mobile, al 36608, usa",36608
187,-86.5602614,31.1939511,"andalusia, al 36420, usa",36420
188,-87.7369607,30.9220263,"bay minette, al 36507, usa",36507
189,-85.7051116,31.0768488,"hartford, al 36344, usa",36344
190,-85.7461548,34.9425439,"bridgeport, al 35740, usa",35740
191,-86.438974,33.9459806,"oneonta, al 35121, usa",35121
192,-86.8069698,33.4702383,"birmingham, al 35209, usa",35209
193,-85.3136218,33.2157232,"roanoke, al 36274, usa",36274
194,-85.3756249,31.2483723,"dothan, al 36303, usa",36303
195,-88.3433623,30.6784935,"mobile, al 36608, usa",36608
196,-88.0411993,30.6628121,"mobile, al 36603, usa",36603
197,-86.7466661,34.78047,"madison, al 35757, usa",35757
198,-86.6711817,33.5394261,"birmingham, al 35210, usa",35210
199,-88.1388989,30.6182423,"mobile, al 36693, usa",36693
200,-88.3433623,30.6784935,"mobile, al 36608, usa",36608
201,-86.2514126,32.3855324,"montgomery, al 36109, usa",36109
202,-86.7516942,34.1437581,"cullman, al 35055, usa",35055
203,-86.5501654,34.6701872,"huntsville, al 35802, usa",35802
204,-86.681253,32.1539613,"hayneville, al 36040, usa",36040
205,-87.5791287,30.6435655,"robertsdale, al 36567, usa",36567
206,-86.8922723,33.5675257,"birmingham, al 35214, usa",35214
207,-86.8094808,33.495492,"birmingham, al 35205, usa",35205
208,-87.9013744,30.5656439,"montrose, al 36559, usa",36559
209,-86.4794359,34.6129163,"owens cross roads, al 35763, usa",35763
210,-86.5501654,34.6701872,"huntsville, al 35802, usa",35802
211,-86.3782198,31.0745509,"florala, al 36442, usa",36442
212,-85.4994192,32.4796915,"auburn, al 36830, usa",36830
213,-86.6006249,33.1900838,"columbiana, al 35051, usa",35051
214,-86.5602614,34.6152142,"huntsville, al 35803, usa",35803
215,-86.8069698,33.4702383,"birmingham, al 35209, usa",35209
216,-88.2753144,30.620114,"mobile, al 36695, usa",36695
217,-86.6711817,33.5394261,"birmingham, al 35210, usa",35210
218,-86.6913222,34.7624294,"huntsville, al 35806, usa",35806
219,-86.8119917,33.3639393,"birmingham, al 35244, usa",35244
220,-86.3984793,32.5989197,"deatsville, al 36022, usa",36022
221,-86.9774246,33.4968883,"pleasant grove, al 35127, usa",35127
222,-88.1388989,30.6182423,"mobile, al 36693, usa",36693
223,-86.681253,33.4165524,"birmingham, al 35242, usa",35242
224,-86.438974,32.3287007,"montgomery, al 36108, usa",36108
225,-86.2463337,32.4475902,"montgomery, al 36110, usa",36110
226,-81.6802054,28.8472701,"eustis, fl 32726, usa",32726
227,-81.0423429,29.1987957,"daytona beach, fl 32114, usa",32114
228,-80.3129541,25.7621935,"miami, fl 33144, usa",33144
229,-80.1819268,25.8909628,"miami, fl 33161, usa",33161
230,-80.1596041,26.0181766,"hollywood, fl 33020, usa",33020
231,-82.7293193,27.7514295,"st. petersburg, fl 33707, usa",33707
232,-81.5706109,30.1532158,"jacksonville, fl 32258, usa",32258
233,-80.1819268,26.0197012,"hollywood, fl 33021, usa",33021
234,-82.116955,28.0147874,"plant city, fl 33563, usa",33563
235,-80.1819268,25.8207159,"miami, fl 33137, usa",33137
236,-81.3949264,27.5059582,"sebring, fl 33870, usa",33870
237,-80.8875861,29.003795,"new smyrna beach, fl 32169, usa",32169
238,-80.1037721,26.7619563,"west palm beach, fl 33407, usa",33407
239,-82.5077593,27.5004431,"bradenton, fl 34208, usa",34208
240,-80.109357,26.931397,"jupiter, fl 33458, usa",33458
241,-82.6213311,27.8156609,"st. petersburg, fl 33703, usa",33703
242,-81.0423429,29.1987957,"daytona beach, fl 32114, usa",32114
243,-80.1819268,25.8909628,"miami, fl 33161, usa",33161
244,-80.0590804,26.5254562,"boynton beach, fl 33435, usa",33435
245,-82.6321376,27.7346248,"st. petersburg, fl 33705, usa",33705
246,-82.7401087,27.8219579,"st. petersburg, fl 33709, usa",33709
247,-80.1261093,26.0977657,"fort lauderdale, fl 33316, usa",33316
248,-80.1233175,26.1531223,"fort lauderdale, fl 33305, usa",33305
249,-80.1037721,26.3767589,"boca raton, fl 33431, usa",33431
250,-82.6321376,27.7346248,"st. petersburg, fl 33705, usa",33705
251,-80.1763467,26.142147,"fort lauderdale, fl 33311, usa",33311
252,-80.1372757,25.9347377,"north miami beach, fl 33160, usa",33160
253,-80.0590804,26.6188279,"lake worth, fl 33460, usa",33460
254,-82.7940297,27.9413341,"clearwater, fl 33756, usa",33756
255,-82.7832489,28.0339553,"dunedin, fl 34698, usa",34698
256,-81.5706109,30.2906907,"jacksonville, fl 32216, usa",32216
257,-81.6966306,30.3617348,"jacksonville, fl 32209, usa",32209
258,-82.4427769,28.0563834,"tampa, fl 33612, usa",33612
259,-81.3729372,29.0128283,"deland, fl 32720, usa",32720
260,-80.1540226,26.5145591,"boynton beach, fl 33437, usa",33437
261,-82.5456374,27.3331293,"sarasota, fl 34236, usa",34236
262,-85.4994192,30.1973686,"panama city, fl 32404, usa",32404
263,-82.6321376,27.7346248,"st. petersburg, fl 33705, usa",33705
264,-85.6588999,30.1624013,"panama city, fl 32401, usa",32401
265,-80.1819268,25.8909628,"miami, fl 33161, usa",33161
266,-82.5239953,27.3086034,"sarasota, fl 34239, usa",34239
267,-84.2173403,30.4805441,"tallahassee, fl 32308, usa",32308
268,-82.5889012,27.4872771,"bradenton, fl 34205, usa",34205
269,-82.7023383,28.2333343,"new port richey, fl 34653, usa",34653
270,-80.1819268,25.8909628,"miami, fl 33161, usa",33161
271,-80.2209773,26.1218038,"fort lauderdale, fl 33317, usa",33317
272,-81.7896381,27.9956037,"winter haven, fl 33880, usa",33880
273,-5.6333088,43.2856735,"33940 san martín del rey aurelio, asturias, spain",33940
274,-86.4794359,30.7793183,"crestview, fl 32539, usa",32539
275,-82.3659168,29.6156734,"gainesville, fl 32608, usa",32608
276,-82.1223977,29.1571921,"ocala, fl 34471, usa",34471
277,-82.6807458,27.7896783,"st. petersburg, fl 33713, usa",33713
278,-80.1037721,26.1897731,"fort lauderdale, fl 33308, usa",33308
279,-80.621591,28.0600145,"melbourne, fl 32901, usa",32901
280,-82.1060683,30.2668465,"macclenny, fl 32063, usa",32063
281,-80.1372757,25.9347377,"north miami beach, fl 33160, usa",33160
282,-80.1149414,26.3424842,"boca raton, fl 33486, usa",33486
283,-80.3547286,25.6624457,"miami, fl 33176, usa",33176
284,-82.6753466,27.8185373,"st. petersburg, fl 33714, usa",33714
285,-80.1484407,25.783312,"miami beach, fl 33139, usa",33139
286,-80.1819268,25.8909628,"miami, fl 33161, usa",33161
287,-82.5077593,28.0133862,"tampa, fl 33614, usa",33614
288,-80.2711588,26.1076663,"fort lauderdale, fl 33324, usa",33324
289,-81.8770671,26.6235485,"fort myers, fl 33901, usa",33901
290,50.1498042,26.280176,"dhahran 34641, saudi arabia",34641
291,-80.7879407,28.291625,"rockledge, fl 32955, usa",32955
292,-80.7879407,28.291625,"rockledge, fl 32955, usa",32955
293,-80.3380213,25.6085924,"miami, fl 33157, usa",33157
294,-80.1518422,26.2017638,"fort lauderdale, fl 33060, usa",33060
295,-80.3268812,27.4414482,"fort pierce, fl 34950, usa",34950
296,-80.0926014,26.2474478,"pompano beach, fl 33062, usa",33062
297,-80.0590804,26.6188279,"lake worth, fl 33460, usa",33460
298,-81.3729372,29.0128283,"deland, fl 32720, usa",32720
299,-81.229853,29.0612685,"deland, fl 32724, usa",32724
300,-86.6107106,30.4034846,"fort walton beach, fl 32548, usa",32548
301,-87.192136,30.4862944,"pensacola, fl 32504, usa",32504
302,-80.1037721,26.7619563,"west palm beach, fl 33407, usa",33407
303,-81.5870604,27.907758,"lake wales, fl 33853, usa",33853
304,-82.7293193,27.7514295,"st. petersburg, fl 33707, usa",33707
305,-82.7940297,27.9413341,"clearwater, fl 33756, usa",33756
306,-82.7023383,28.2333343,"new port richey, fl 34653, usa",34653
307,-80.2488596,27.1916272,"stuart, fl 34994, usa",34994
308,-82.7670745,28.1436975,"tarpon springs, fl 34689, usa",34689
309,-84.38,30.18,"crawfordville, fl 32326, usa",32326
310,-81.9207423,28.0964047,"lakeland, fl 33805, usa",33805
311,-85.6743082,30.1917155,"panama city, fl 32405, usa",32405
312,-81.8005724,27.8915661,"bartow, fl 33830, usa",33830
313,-81.7239979,30.2775931,"jacksonville, fl 32210, usa",32210
314,-82.04839,26.912833,"punta gorda, fl 33950, usa",33950
315,-80.621591,28.0600145,"melbourne, fl 32901, usa",32901
316,-82.723924,27.791959,"st. petersburg, fl 33710, usa",33710
317,-82.7293193,27.7514295,"st. petersburg, fl 33707, usa",33707
318,-86.6308759,30.4960651,"fort walton beach, fl 32547, usa",32547
319,-80.1372757,26.0517448,"dania beach, fl 33004, usa",33004
320,-82.345189,28.5970072,"brooksville, fl 34601, usa",34601
321,-80.1037721,26.1897731,"fort lauderdale, fl 33308, usa",33308
322,-82.3831561,28.0007147,"tampa, fl 33610, usa",33610
323,-80.1651854,27.0867813,"hobe sound, fl 33455, usa",33455
324,-82.0189155,28.0905324,"lakeland, fl 33810, usa",33810
325,-81.8005724,28.0776415,"auburndale, fl 33823, usa",33823
326,-81.8770671,28.7898508,"leesburg, fl 34748, usa",34748
327,-82.4698603,28.0869646,"tampa, fl 33613, usa",33613
328,-81.3014284,28.6092911,"winter park, fl 32792, usa",32792
329,-82.366887,28.760539,"inverness, fl 34452, usa",34452
330,-81.1857736,29.2890392,"ormond beach, fl 32174, usa",32174
331,-81.0699462,29.240991,"daytona beach, fl 32117, usa",32117
332,-81.3729372,29.9109642,"st augustine, fl 32084, usa",32084
333,-82.669947,28.8700376,"crystal river, fl 34429, usa",34429
334,-82.3560389,27.7254716,"sun city center, fl 33573, usa",33573
335,-82.1931149,28.3330103,"dade city, fl 33525, usa",33525
336,-82.1223977,29.1571921,"ocala, fl 34471, usa",34471
337,-82.7940297,27.9413341,"clearwater, fl 33756, usa",33756
338,-81.6802054,28.8472701,"eustis, fl 32726, usa",32726
339,-80.6992633,28.470872,"merritt island, fl 32953, usa",32953
340,-82.5131717,27.9263478,"tampa, fl 33629, usa",33629
341,-82.6375402,27.5073732,"bradenton, fl 34209, usa",34209
342,-87.0224442,30.8158292,"milton, fl 32570, usa",32570
343,-80.1484407,25.783312,"miami beach, fl 33139, usa",33139
344,-80.1819268,25.9260794,"miami, fl 33162, usa",33162
345,-81.3014284,28.6092911,"winter park, fl 32792, usa",32792
346,-81.6363869,28.7519902,"mt dora, fl 32757, usa",32757
347,-80.109357,26.4647478,"delray beach, fl 33445, usa",33445
348,-80.2265545,26.1865098,"fort lauderdale, fl 33319, usa",33319
349,-81.9425701,26.5804293,"cape coral, fl 33904, usa",33904
350,-82.7023383,28.2333343,"new port richey, fl 34653, usa",34653
351,-82.605118,30.2730727,"lake city, fl 32055, usa",32055
352,-81.3729372,29.0128283,"deland, fl 32720, usa",32720
353,-82.7832489,28.0339553,"dunedin, fl 34698, usa",34698
354,-82.4698603,28.0869646,"tampa, fl 33613, usa",33613
355,-81.3949264,27.5059582,"sebring, fl 33870, usa",33870
356,-81.5486728,28.6539165,"apopka, fl 32703, usa",32703
357,-81.9207423,28.0964047,"lakeland, fl 33805, usa",33805
358,-80.1540226,26.3510294,"boca raton, fl 33433, usa",33433
359,-80.3101684,25.8235041,"miami, fl 33166, usa",33166
360,-81.6856808,30.3152434,"jacksonville, fl 32204, usa",32204
361,-80.2723069,26.2136694,"fort lauderdale, fl 33321, usa",33321
362,-81.7568253,27.5628879,"wauchula, fl 33873, usa",33873
363,-82.09518,26.98699,"port charlotte, fl 33952, usa",33952
364,-84.2173403,30.4805441,"tallahassee, fl 32308, usa",32308
365,-81.3729372,28.6659654,"altamonte springs, fl 32701, usa",32701
366,-81.5706109,30.2906907,"jacksonville, fl 32216, usa",32216
367,-80.1763467,26.142147,"fort lauderdale, fl 33311, usa",33311
368,-80.0590804,26.6188279,"lake worth, fl 33460, usa",33460
369,-82.7428057,27.9765043,"clearwater, fl 33765, usa",33765
370,-81.3069315,28.9392593,"orange city, fl 32763, usa",32763
371,-81.8770671,28.7898508,"leesburg, fl 34748, usa",34748
372,-80.7879407,27.966866,"melbourne, fl 32904, usa",32904
373,-81.3509416,28.7108495,"longwood, fl 32750, usa",32750
374,-82.723924,28.0715767,"palm harbor, fl 34684, usa",34684
375,-81.422404,28.3040861,"kissimmee, fl 34741, usa",34741
376,-81.7458845,30.1643797,"orange park, fl 32073, usa",32073
377,-80.3769999,27.4391171,"fort pierce, fl 34947, usa",34947
378,-81.8770671,26.6235485,"fort myers, fl 33901, usa",33901
379,-82.1931149,28.3330103,"dade city, fl 33525, usa",33525
380,-81.898908,26.5545224,"fort myers, fl 33919, usa",33919
381,-82.5131717,27.3430762,"sarasota, fl 34237, usa",34237
382,-82.7401087,27.8219579,"st. petersburg, fl 33709, usa",33709
383,-85.6588999,30.1624013,"panama city, fl 32401, usa",32401
384,-80.2377078,25.8127791,"miami, fl 33142, usa",33142
385,-82.6591465,28.3937638,"hudson, fl 34667, usa",34667
386,-82.723924,28.0715767,"palm harbor, fl 34684, usa",34684
387,-86.6308759,30.4960651,"fort walton beach, fl 32547, usa",32547
388,-81.7677645,26.1953879,"naples, fl 34105, usa",34105
389,-82.5564559,28.4869095,"spring hill, fl 34608, usa",34608
390,-82.7616822,27.9046811,"largo, fl 33771, usa",33771
391,-80.4048306,27.6445079,"vero beach, fl 32960, usa",32960
392,-82.7994194,29.6167806,"trenton, fl 32693, usa",32693
393,-81.1857736,29.2890392,"ormond beach, fl 32174, usa",32174
394,-80.0590804,26.8404331,"north palm beach, fl 33408, usa",33408
395,-82.5456374,27.3681789,"sarasota, fl 34234, usa",34234
396,-80.1484407,25.8535635,"miami beach, fl 33141, usa",33141
397,-82.6807458,27.7896783,"st. petersburg, fl 33713, usa",33713
398,-80.2878794,27.2932971,"port st lucie, fl 34952, usa",34952
399,-80.109357,26.4647478,"delray beach, fl 33445, usa",33445
400,-82.7940297,27.8480989,"seminole, fl 33772, usa",33772
401,-82.345189,28.5970072,"brooksville, fl 34601, usa",34601
402,-82.4644445,27.3346138,"sarasota, fl 34232, usa",34232
403,-82.5077593,28.0133862,"tampa, fl 33614, usa",33614
404,-82.6807458,28.0459972,"oldsmar, fl 34677, usa",34677
405,-80.0533253,26.7153474,"west palm beach, fl 33401, usa",33401
406,-81.7458845,26.1237525,"naples, fl 34112, usa",34112
407,-82.7185282,27.8674465,"pinellas park, fl 33782, usa",33782
408,-81.614468,30.2018746,"jacksonville, fl 32257, usa",32257
409,-82.5889012,28.0003221,"tampa, fl 33615, usa",33615
410,-81.8716058,26.5588224,"fort myers, fl 33907, usa",33907
411,-81.6802054,27.9890156,"winter haven, fl 33884, usa",33884
412,-81.5925427,30.3378989,"jacksonville, fl 32211, usa",32211
413,-81.3674389,28.6366753,"maitland, fl 32751, usa",32751
414,-81.4388858,28.5775287,"orlando, fl 32808, usa",32808
415,-80.2028489,25.7767549,"miami, fl 33128, usa",33128
416,-84.2173403,30.4805441,"tallahassee, fl 32308, usa",32308
417,-82.3659168,29.6156734,"gainesville, fl 32608, usa",32608
418,-85.2929384,29.8210742,"port st joe, fl 32456, usa",32456
419,-82.7832489,28.0339553,"dunedin, fl 34698, usa",34698
420,-82.669947,28.8700376,"crystal river, fl 34429, usa",34429
421,-82.7023383,28.2333343,"new port richey, fl 34653, usa",34653
422,-81.806039,26.1917113,"naples, fl 34103, usa",34103
423,-81.6254283,28.4385186,"winter garden, fl 34787, usa",34787
424,-80.2711588,26.17785,"fort lauderdale, fl 33351, usa",33351
425,-81.5815776,28.064362,"haines city, fl 33844, usa",33844
426,-82.3343375,27.1171731,"venice, fl 34292, usa",34292
427,-87.2120599,30.5327462,"pensacola, fl 32514, usa",32514
428,-87.2120599,30.5327462,"pensacola, fl 32514, usa",32514
429,-81.2408689,28.8887495,"deltona, fl 32725, usa",32725
430,-80.8433145,28.6311026,"titusville, fl 32796, usa",32796
431,-80.2070328,25.8487631,"miami, fl 33150, usa",33150
432,-82.7670745,28.1436975,"tarpon springs, fl 34689, usa",34689
433,-82.3126294,26.9288268,"englewood, fl 34224, usa",34224
434,-82.8006,27.9656,"clearwater, fl 33758, usa",33758
435,-82.5131717,27.2612782,"sarasota, fl 34231, usa",34231
436,-81.4718387,27.2425172,"lake placid, fl 33852, usa",33852
437,-81.1857736,29.2890392,"ormond beach, fl 32174, usa",32174
438,-82.7023383,28.2333343,"new port richey, fl 34653, usa",34653
439,-82.3723105,29.6793128,"gainesville, fl 32605, usa",32605
440,-82.4536115,28.7654134,"lecanto, fl 34461, usa",34461
441,-81.0754657,26.6105319,"clewiston, fl 33440, usa",33440
442,-80.6659842,28.2949008,"merritt island, fl 32952, usa",32952
443,-80.6049374,28.0298719,"palm bay, fl 32905, usa",32905
444,-82.1223977,29.1571921,"ocala, fl 34471, usa",34471
445,-80.0926014,26.6211772,"lake worth, fl 33461, usa",33461
446,-82.4536115,29.4130369,"williston, fl 32696, usa",32696
447,-81.3179364,29.7580556,"st augustine, fl 32086, usa",32086
448,-80.1930859,25.9502474,"miami, fl 33179, usa",33179
449,-81.4937993,30.5944727,"fernandina beach, fl 32034, usa",32034
450,-81.4169093,28.3675319,"orlando, fl 32837, usa",32837
451,-82.4373589,27.0935232,"venice, fl 34285, usa",34285
452,-85.1271907,30.3682347,"blountstown, fl 32424, usa",32424
453,-80.4048306,27.6445079,"vero beach, fl 32960, usa",32960
454,-80.1372757,26.4608477,"delray beach, fl 33484, usa",33484
455,-80.1540226,26.3510294,"boca raton, fl 33433, usa",33433
456,-82.6645469,27.7480089,"st. petersburg, fl 33712, usa",33712
457,-82.6969408,27.9711651,"clearwater, fl 33759, usa",33759
458,-81.6254283,28.4385186,"winter garden, fl 34787, usa",34787
459,-81.4388858,28.5775287,"orlando, fl 32808, usa",32808
460,-80.1037721,26.3767589,"boca raton, fl 33431, usa",33431
461,-81.9752995,28.2274477,"lakeland, fl 33809, usa",33809
462,-80.8986502,27.5325072,"okeechobee, fl 34972, usa",34972
463,-80.0590804,26.5838179,"lake worth, fl 33462, usa",33462
464,-82.7185282,27.8674465,"pinellas park, fl 33782, usa",33782
465,-87.1173466,30.3407373,"gulf breeze, fl 32561, usa",32561
466,-82.1060683,29.9455019,"starke, fl 32091, usa",32091
467,-80.1540226,26.3510294,"boca raton, fl 33433, usa",33433
468,-82.5023464,27.890814,"tampa, fl 33611, usa",33611
469,-80.0926014,26.6561841,"west palm beach, fl 33406, usa",33406
470,-80.1986649,26.7044143,"west palm beach, fl 33411, usa",33411
471,-80.1819268,26.0197012,"hollywood, fl 33021, usa",33021
472,-80.0814292,26.5386936,"boynton beach, fl 33426, usa",33426
473,-82.3343375,27.1171731,"venice, fl 34292, usa",34292
474,-80.3045967,25.8641207,"hialeah, fl 33012, usa",33012
475,-81.7458845,26.0533532,"naples, fl 34113, usa",34113
476,-80.3380213,25.6085924,"miami, fl 33157, usa",33157
477,-80.1819268,25.8909628,"miami, fl 33161, usa",33161
478,-80.26001,26.2706389,"pompano beach, fl 33065, usa",33065
479,-82.723924,27.791959,"st. petersburg, fl 33710, usa",33710
480,-80.2042436,26.2551386,"pompano beach, fl 33063, usa",33063
481,-80.1540226,26.3510294,"boca raton, fl 33433, usa",33433
482,-81.8934484,26.6771746,"north fort myers, fl 33903, usa",33903
483,-80.3380213,25.6085924,"miami, fl 33157, usa",33157
484,-80.2432839,27.1038963,"stuart, fl 34997, usa",34997
485,-80.2377078,25.8127791,"miami, fl 33142, usa",33142
486,-80.2377078,25.84791,"miami, fl 33147, usa",33147
487,-81.7130522,28.5366442,"clermont, fl 34711, usa",34711
488,-80.1819268,25.8909628,"miami, fl 33161, usa",33161
489,-81.3179364,28.8821926,"debary, fl 32713, usa",32713
490,-82.1223977,27.9743757,"plant city, fl 33566, usa",33566
491,-80.1037721,26.7152999,"west palm beach, fl 33409, usa",33409
492,-81.6254283,28.4385186,"winter garden, fl 34787, usa",34787
493,-80.2265545,26.1514248,"fort lauderdale, fl 33313, usa",33313
494,-82.3126294,27.956046,"brandon, fl 33510, usa",33510
495,-80.1149414,26.3424842,"boca raton, fl 33486, usa",33486
496,-81.5486728,26.6043911,"lehigh acres, fl 33936, usa",33936
497,-82.2528975,27.0600849,"north port, fl 34287, usa",34287
498,-82.1496049,26.9783388,"port charlotte, fl 33948, usa",33948
499,-82.5131717,27.4481958,"bradenton, fl 34203, usa",34203
500,-81.0699462,29.240991,"daytona beach, fl 32117, usa",32117
501,-81.2849169,28.2431581,"st cloud, fl 34769, usa",34769
502,-82.6375402,27.5073732,"bradenton, fl 34209, usa",34209
503,-80.8433145,28.6311026,"titusville, fl 32796, usa",32796
504,-81.614468,30.2018746,"jacksonville, fl 32257, usa",32257
505,-87.2120599,30.5327462,"pensacola, fl 32514, usa",32514
506,-81.5537192,30.2205397,"jacksonville, fl 32256, usa",32256
507,-82.7293193,27.7514295,"st. petersburg, fl 33707, usa",33707
508,-82.0516102,26.984537,"punta gorda, fl 33980, usa",33980
509,-81.3069315,28.800557,"sanford, fl 32771, usa",32771
510,-80.5271756,25.4802746,"homestead, fl 33030, usa",33030
511,-82.4698603,28.0869646,"tampa, fl 33613, usa",33613
512,-85.6743082,30.1917155,"panama city, fl 32405, usa",32405
513,-82.6591465,28.3937638,"hudson, fl 34667, usa",34667
514,-81.3564411,28.5085825,"orlando, fl 32806, usa",32806
515,-81.3839326,29.4633008,"bunnell, fl 32110, usa",32110
516,-81.3179364,29.7580556,"st augustine, fl 32086, usa",32086
517,-82.6861446,28.0055309,"safety harbor, fl 34695, usa",34695
518,-80.3992652,25.4308762,"homestead, fl 33035, usa",33035
519,-82.5077593,27.5004431,"bradenton, fl 34208, usa",34208
520,-87.0224442,30.8158292,"milton, fl 32570, usa",32570
521,-82.5564559,28.0684157,"tampa, fl 33625, usa",33625
522,-80.3352364,25.8925211,"hialeah, fl 33016, usa",33016
523,-80.109357,26.931397,"jupiter, fl 33458, usa",33458
524,-81.4169093,28.7150611,"longwood, fl 32779, usa",32779
525,-80.1316927,26.6530817,"west palm beach, fl 33415, usa",33415
526,-81.4388858,28.2529101,"kissimmee, fl 34746, usa",34746
527,-80.3992652,25.595058,"miami, fl 33177, usa",33177
528,-87.2120599,30.5327462,"pensacola, fl 32514, usa",32514
529,-82.2039882,29.1561929,"ocala, fl 34474, usa",34474
530,-84.2173403,30.4805441,"tallahassee, fl 32308, usa",32308
531,-81.2849169,28.4750405,"orlando, fl 32822, usa",32822
532,-81.0699462,29.240991,"daytona beach, fl 32117, usa",32117
533,-81.6802054,27.9890156,"winter haven, fl 33884, usa",33884
534,-82.5131717,27.2612782,"sarasota, fl 34231, usa",34231
535,-82.6591465,28.3937638,"hudson, fl 34667, usa",34667
536,-81.0423429,29.1987957,"daytona beach, fl 32114, usa",32114
537,-82.4156829,29.647247,"gainesville, fl 32607, usa",32607
538,-80.109357,26.2778269,"pompano beach, fl 33064, usa",33064
539,-82.7616822,27.8580624,"seminole, fl 33777, usa",33777
540,-80.3352364,25.8925211,"hialeah, fl 33016, usa",33016
541,-81.2408689,28.5417016,"orlando, fl 32825, usa",32825
542,-80.1261093,26.0977657,"fort lauderdale, fl 33316, usa",33316
543,-80.2878794,27.2932971,"port st lucie, fl 34952, usa",34952
544,-81.0423429,29.1987957,"daytona beach, fl 32114, usa",32114
545,-82.7185282,28.0305402,"clearwater, fl 33761, usa",33761
546,-82.4644445,27.241131,"sarasota, fl 34238, usa",34238
547,-81.7458845,30.1643797,"orange park, fl 32073, usa",32073
548,-82.723924,28.0715767,"palm harbor, fl 34684, usa",34684
549,-82.008014,26.6309755,"cape coral, fl 33991, usa",33991
550,-81.1857736,29.2890392,"ormond beach, fl 32174, usa",32174
551,-82.4698603,28.0869646,"tampa, fl 33613, usa",33613
552,-80.4048306,27.6445079,"vero beach, fl 32960, usa",32960
553,-80.7657804,27.7562992,"vero beach, fl 32966, usa",32966
554,-80.1372757,25.9581433,"miami, fl 33180, usa",33180
555,-82.9985343,30.2889718,"live oak, fl 32064, usa",32064
556,-80.0590804,26.4670801,"delray beach, fl 33483, usa",33483
557,-82.1387233,28.2485703,"zephyrhills, fl 33540, usa",33540
558,-80.2878794,27.2932971,"port st lucie, fl 34952, usa",34952
559,-86.3427458,30.3790174,"miramar beach, fl 32550, usa",32550
560,-82.2039882,29.1561929,"ocala, fl 34474, usa",34474
561,-82.5402275,27.6072268,"palmetto, fl 34221, usa",34221
562,-80.2711588,26.1076663,"fort lauderdale, fl 33324, usa",33324
563,-82.345189,28.5970072,"brooksville, fl 34601, usa",34601
564,-80.0533253,26.7153474,"west palm beach, fl 33401, usa",33401
565,-80.2723069,26.2136694,"fort lauderdale, fl 33321, usa",33321
566,-80.1372757,25.9581433,"miami, fl 33180, usa",33180
567,-80.1316927,26.6530817,"west palm beach, fl 33415, usa",33415
568,-86.4794359,30.7793183,"crestview, fl 32539, usa",32539
569,-82.9985343,30.2889718,"live oak, fl 32064, usa",32064
570,-82.6537455,27.8756643,"st. petersburg, fl 33716, usa",33716
571,-81.4114142,30.2745944,"jacksonville beach, fl 32250, usa",32250
572,-81.3014284,28.6092911,"winter park, fl 32792, usa",32792
573,-81.9425701,27.9581331,"lakeland, fl 33813, usa",33813
574,-81.8770671,28.7898508,"leesburg, fl 34748, usa",34748
575,-80.109357,26.2778269,"pompano beach, fl 33064, usa",33064
576,-80.3157397,25.7360194,"miami, fl 33155, usa",33155
577,-85.7256372,30.8714066,"bonifay, fl 32425, usa",32425
578,-86.1141045,30.6770963,"defuniak springs, fl 32435, usa",32435
579,-80.1596041,26.2286939,"pompano beach, fl 33069, usa",33069
580,-87.2269973,30.423724,"pensacola, fl 32501, usa",32501
581,-82.6375402,27.5073732,"bradenton, fl 34209, usa",34209
582,-81.3729372,30.163259,"ponte vedra beach, fl 32082, usa",32082
583,-83.6135572,30.1652944,"perry, fl 32347, usa",32347
584,-81.6692532,30.4686832,"jacksonville, fl 32218, usa",32218
585,-82.7940297,27.9413341,"clearwater, fl 33756, usa",33756
586,-80.621591,28.0600145,"melbourne, fl 32901, usa",32901
587,-82.7940297,27.9413341,"clearwater, fl 33756, usa",33756
588,-85.2101269,30.876325,"marianna, fl 32446, usa",32446
589,-82.3289111,29.6422516,"gainesville, fl 32601, usa",32601
590,-80.0814292,26.8070321,"west palm beach, fl 33403, usa",33403
591,-80.3992652,25.6653934,"miami, fl 33186, usa",33186
592,-81.3509416,28.7108495,"longwood, fl 32750, usa",32750
593,-82.4427769,28.0563834,"tampa, fl 33612, usa",33612
594,-81.5706109,30.1532158,"jacksonville, fl 32258, usa",32258
595,-82.0625052,28.8356269,"wildwood, fl 34785, usa",34785
596,-82.5023464,27.890814,"tampa, fl 33611, usa",33611
597,-81.0423429,29.1987957,"daytona beach, fl 32114, usa",32114
598,-81.734942,29.7618374,"palatka, fl 32177, usa",32177
599,-81.7458845,30.1643797,"orange park, fl 32073, usa",32073
600,-82.7185282,28.0305402,"clearwater, fl 33761, usa",33761
601,-82.6375402,27.5073732,"bradenton, fl 34209, usa",34209
602,-82.4536115,28.7654134,"lecanto, fl 34461, usa",34461
603,-82.1768018,28.2333268,"zephyrhills, fl 33542, usa",33542
604,-80.0590804,26.6188279,"lake worth, fl 33460, usa",33460
605,-81.9752995,28.2274477,"lakeland, fl 33809, usa",33809
606,-85.5406209,30.9339226,"graceville, fl 32440, usa",32440
607,-81.734942,29.9456874,"green cove springs, fl 32043, usa",32043
608,-82.4156829,29.647247,"gainesville, fl 32607, usa",32607
609,-81.01473,29.168117,"daytona beach, fl 32119, usa",32119
610,-81.4937993,30.4573359,"jacksonville, fl 32226, usa",32226
611,-80.2793593,25.9906428,"hollywood, fl 33025, usa",33025
612,-81.2849169,28.2431581,"st cloud, fl 34769, usa",34769
613,-80.621591,28.0600145,"melbourne, fl 32901, usa",32901
614,-82.008014,26.6309755,"cape coral, fl 33991, usa",33991
615,-80.7879407,27.966866,"melbourne, fl 32904, usa",32904
616,-82.4427769,28.0563834,"tampa, fl 33612, usa",33612
617,-80.2711588,26.17785,"fort lauderdale, fl 33351, usa",33351
618,-80.2265545,26.1514248,"fort lauderdale, fl 33313, usa",33313
619,-81.5706109,30.2906907,"jacksonville, fl 32216, usa",32216
620,-81.4718387,26.7752734,"labelle, fl 33935, usa",33935
621,-81.8879884,30.253501,"jacksonville, fl 32221, usa",32221
622,-80.2153998,26.3494101,"boca raton, fl 33428, usa",33428
623,-80.2711588,26.17785,"fort lauderdale, fl 33351, usa",33351
624,-80.2488596,27.1916272,"stuart, fl 34994, usa",34994
625,-82.6537455,27.8756643,"st. petersburg, fl 33716, usa",33716
626,-82.7940297,27.9413341,"clearwater, fl 33756, usa",33756
627,-80.1540226,26.3042864,"deerfield beach, fl 33442, usa",33442
628,-81.7458845,30.1643797,"orange park, fl 32073, usa",32073
629,-81.9207423,28.0964047,"lakeland, fl 33805, usa",33805
630,-82.7616822,27.9046811,"largo, fl 33771, usa",33771
631,-82.1060683,29.9455019,"starke, fl 32091, usa",32091
632,-82.7401087,27.9385015,"clearwater, fl 33764, usa",33764
633,-82.5023464,28.0771075,"tampa, fl 33618, usa",33618
634,-80.6649,28.35892,"merritt island, fl 32954, usa",32954
635,-82.4806907,27.3646945,"sarasota, fl 34235, usa",34235
636,-82.3595994,28.8736713,"inverness, fl 34453, usa",34453
637,-81.8770671,28.7898508,"leesburg, fl 34748, usa",34748
638,-81.5267282,28.5830551,"ocoee, fl 34761, usa",34761
639,-81.8879884,30.253501,"jacksonville, fl 32221, usa",32221
640,-82.723924,28.0715767,"palm harbor, fl 34684, usa",34684
641,-80.3268812,25.9358702,"hialeah, fl 33015, usa",33015
642,-81.6692532,30.4686832,"jacksonville, fl 32218, usa",32218
643,-80.1819268,25.8909628,"miami, fl 33161, usa",33161
644,-82.723924,27.791959,"st. petersburg, fl 33710, usa",33710
645,-82.6861446,27.7374908,"st. petersburg, fl 33711, usa",33711
646,-82.6321376,27.7696063,"st. petersburg, fl 33701, usa",33701
647,-80.2153998,25.9400585,"miami, fl 33169, usa",33169
648,-82.5889012,28.0003221,"tampa, fl 33615, usa",33615
649,-82.2800546,29.1259294,"ocala, fl 34481, usa",34481
650,-82.2909146,27.9082595,"brandon, fl 33511, usa",33511
651,-80.360297,25.7038331,"miami, fl 33173, usa",33173
652,-81.3014284,28.6092911,"winter park, fl 32792, usa",32792
653,-81.7458845,30.2102306,"jacksonville, fl 32244, usa",32244
654,-81.8716058,26.5588224,"fort myers, fl 33907, usa",33907
655,-82.067952,29.2001796,"ocala, fl 34470, usa",34470
656,-82.4265217,27.9565429,"tampa, fl 33605, usa",33605
657,-85.56121,30.6823987,"chipley, fl 32428, usa",32428
658,-81.4004227,28.5345501,"orlando, fl 32805, usa",32805
659,-85.2101269,30.876325,"marianna, fl 32446, usa",32446
660,-81.7021049,28.0600916,"winter haven, fl 33881, usa",33881
661,-81.3756862,28.5416658,"orlando, fl 32801, usa",32801
662,-82.7832489,28.0339553,"dunedin, fl 34698, usa",34698
663,50.1498042,26.280176,"dhahran 34641, saudi arabia",34641
664,-81.229853,28.1816134,"st cloud, fl 34772, usa",34772
665,-81.3179364,28.8821926,"debary, fl 32713, usa",32713
666,-82.3560389,27.7254716,"sun city center, fl 33573, usa",33573
667,-82.1060683,30.2668465,"macclenny, fl 32063, usa",32063
668,-81.7896381,26.2904551,"naples, fl 34110, usa",34110
669,-81.9261999,28.0095179,"lakeland, fl 33803, usa",33803
670,-81.4169093,30.3493502,"atlantic beach, fl 32233, usa",32233
671,-82.6969408,27.9711651,"clearwater, fl 33759, usa",33759
672,-81.460856,30.2606613,"jacksonville, fl 32224, usa",32224
673,-87.2269973,30.423724,"pensacola, fl 32501, usa",32501
674,-82.6321376,27.8512042,"st. petersburg, fl 33702, usa",33702
675,-87.4009165,30.5251284,"pensacola, fl 32526, usa",32526
676,-81.3234382,28.4833031,"orlando, fl 32812, usa",32812
677,-80.109357,26.5114554,"boynton beach, fl 33436, usa",33436
678,-81.931657,30.7138131,"hilliard, fl 32046, usa",32046
679,-81.3756862,28.5416658,"orlando, fl 32801, usa",32801
680,-82.723924,28.0715767,"palm harbor, fl 34684, usa",34684
681,-82.3343375,27.1171731,"venice, fl 34292, usa",34292
682,-80.0870155,26.8598894,"palm beach gardens, fl 33410, usa",33410
683,-84.2173403,30.4805441,"tallahassee, fl 32308, usa",32308
684,-80.1819268,25.8909628,"miami, fl 33161, usa",33161
685,-82.605118,30.2730727,"lake city, fl 32055, usa",32055
686,-82.7994194,29.6167806,"trenton, fl 32693, usa",32693
687,-82.6321376,27.7346248,"st. petersburg, fl 33705, usa",33705
688,-82.537412,27.3350021,"sarasota, fl 34230, usa",34230
689,-85.6588999,30.1624013,"panama city, fl 32401, usa",32401
690,-80.9745372,29.1145775,"port orange, fl 32127, usa",32127
691,-81.5815776,28.2037477,"davenport, fl 33837, usa",33837
692,-81.9425701,26.5101373,"fort myers, fl 33908, usa",33908
693,-81.4498717,27.5909004,"avon park, fl 33825, usa",33825
694,-81.5486728,28.6539165,"apopka, fl 32703, usa",32703
695,-81.2408689,28.5417016,"orlando, fl 32825, usa",32825
696,-86.3984793,30.5013778,"niceville, fl 32578, usa",32578
697,-81.3509416,28.5950986,"winter park, fl 32789, usa",32789
698,-82.6591465,28.3937638,"hudson, fl 34667, usa",34667
699,-81.7677645,26.2422984,"naples, fl 34109, usa",34109
700,-81.3564411,28.5085825,"orlando, fl 32806, usa",32806
701,-81.6802054,27.9890156,"winter haven, fl 33884, usa",33884
702,-80.8211696,28.5370519,"titusville, fl 32780, usa",32780
703,-80.1316927,26.6530817,"west palm beach, fl 33415, usa",33415
704,-81.6363869,28.7519902,"mt dora, fl 32757, usa",32757
705,-81.4004227,28.5345501,"orlando, fl 32805, usa",32805
706,-80.1261093,26.716863,"west palm beach, fl 33417, usa",33417
707,-83.9744262,30.3432656,"monticello, fl 32344, usa",32344
708,-80.2823063,25.839203,"hialeah, fl 33010, usa",33010
709,-80.3769999,27.4391171,"fort pierce, fl 34947, usa",34947
710,-81.734942,29.7618374,"palatka, fl 32177, usa",32177
711,-83.3789389,30.4980672,"madison, fl 32340, usa",32340
712,-81.5377013,29.4040686,"crescent city, fl 32112, usa",32112
713,-83.1220074,30.3012564,"live oak, fl 32060, usa",32060
714,-84.3857442,30.4649282,"tallahassee, fl 32304, usa",32304
715,-81.4498717,27.5909004,"avon park, fl 33825, usa",33825
716,-81.6856808,30.3152434,"jacksonville, fl 32204, usa",32204
717,-81.3729372,29.9109642,"st augustine, fl 32084, usa",32084
718,-82.5456374,27.3331293,"sarasota, fl 34236, usa",34236
719,-80.2878794,27.2932971,"port st lucie, fl 34952, usa",34952
720,-81.6363869,30.2949194,"jacksonville, fl 32207, usa",32207
721,-81.6309078,30.243028,"jacksonville, fl 32217, usa",32217
722,-81.0423429,29.1987957,"daytona beach, fl 32114, usa",32114
723,-81.8005724,27.8915661,"bartow, fl 33830, usa",33830
724,-83.634843,30.4190335,"greenville, fl 32331, usa",32331
725,-82.9501558,30.4755958,"jasper, fl 32052, usa",32052
726,-81.6692532,30.4686832,"jacksonville, fl 32218, usa",32218
727,-80.0926014,26.6211772,"lake worth, fl 33461, usa",33461
728,-80.3435908,27.1458025,"palm city, fl 34990, usa",34990
729,-80.3435908,27.1458025,"palm city, fl 34990, usa",34990
730,-80.2878794,27.2932971,"port st lucie, fl 34952, usa",34952
731,-82.6321376,27.7346248,"st. petersburg, fl 33705, usa",33705
732,-81.6555607,30.3276337,"jacksonville, fl 32202, usa",32202
733,-80.1316927,26.6064003,"lake worth, fl 33463, usa",33463
734,-80.109357,26.5114554,"boynton beach, fl 33436, usa",33436
735,-80.1540226,26.8645934,"palm beach gardens, fl 33418, usa",33418
736,-81.422404,28.3040861,"kissimmee, fl 34741, usa",34741
737,-81.0699462,29.240991,"daytona beach, fl 32117, usa",32117
738,-82.4698603,27.2823268,"sarasota, fl 34233, usa",34233
739,-81.4114142,28.6626293,"altamonte springs, fl 32714, usa",32714
740,-82.5834947,30.111156,"lake city, fl 32025, usa",32025
741,-82.7940297,27.8830677,"largo, fl 33778, usa",33778
742,-80.0814292,26.5386936,"boynton beach, fl 33426, usa",33426
743,-80.1540226,26.3510294,"boca raton, fl 33433, usa",33433
744,-80.1540226,26.3510294,"boca raton, fl 33433, usa",33433
745,-84.2173403,30.4805441,"tallahassee, fl 32308, usa",32308
746,-81.6802054,28.8472701,"eustis, fl 32726, usa",32726
747,-81.8115051,26.2448015,"naples, fl 34108, usa",34108
748,-82.366887,28.760539,"inverness, fl 34452, usa",34452
749,-82.0516102,26.984537,"punta gorda, fl 33980, usa",33980
750,-87.3711477,30.9724762,"century, fl 32535, usa",32535
751,-80.7103532,28.1356631,"melbourne, fl 32934, usa",32934
752,-86.3427458,30.3790174,"miramar beach, fl 32550, usa",32550
753,-81.8716058,26.5588224,"fort myers, fl 33907, usa",33907
754,-82.3560389,27.7254716,"sun city center, fl 33573, usa",33573
755,-81.2408689,28.5417016,"orlando, fl 32825, usa",32825
756,-82.4536115,28.7654134,"lecanto, fl 34461, usa",34461
757,-81.2628961,28.6820373,"winter springs, fl 32708, usa",32708
758,-80.2377078,25.7307897,"miami, fl 33133, usa",33133
759,-80.0533253,26.7153474,"west palm beach, fl 33401, usa",33401
760,-82.6645469,27.7480089,"st. petersburg, fl 33712, usa",33712
761,-81.3014284,28.6092911,"winter park, fl 32792, usa",32792
762,-82.2909146,27.9082595,"brandon, fl 33511, usa",33511
763,-81.8333656,26.621043,"fort myers, fl 33916, usa",33916
764,-82.4427769,28.0563834,"tampa, fl 33612, usa",33612
765,-80.7879407,28.1988979,"melbourne, fl 32940, usa",32940
766,-81.3674389,28.6366753,"maitland, fl 32751, usa",32751
767,-81.2849169,28.2431581,"st cloud, fl 34769, usa",34769
768,-82.6645469,27.7480089,"st. petersburg, fl 33712, usa",33712
769,-82.4563199,27.9552692,"tampa, fl 33602, usa",33602
770,-83.3789389,30.4980672,"madison, fl 32340, usa",32340
771,-82.7616822,27.8580624,"seminole, fl 33777, usa",33777
772,-81.6254283,30.0535265,"st johns, fl 32259, usa",32259
773,-80.2070328,25.8487631,"miami, fl 33150, usa",33150
774,-80.621591,28.0600145,"melbourne, fl 32901, usa",32901
775,-80.3380213,25.6085924,"miami, fl 33157, usa",33157
776,-80.1037721,26.7152999,"west palm beach, fl 33409, usa",33409
777,-82.7670745,28.1436975,"tarpon springs, fl 34689, usa",34689
778,-81.0423429,29.1987957,"daytona beach, fl 32114, usa",32114
779,-81.5706109,30.2906907,"jacksonville, fl 32216, usa",32216
780,-82.5889012,27.4872771,"bradenton, fl 34205, usa",34205
781,-80.0870155,26.8598894,"palm beach gardens, fl 33410, usa",33410
782,-85.1271907,30.3682347,"blountstown, fl 32424, usa",32424
783,-82.6321376,27.7346248,"st. petersburg, fl 33705, usa",33705
784,-81.4937993,30.3658304,"jacksonville, fl 32225, usa",32225
785,-81.7458845,30.1643797,"orange park, fl 32073, usa",32073
786,-81.3729372,29.0128283,"deland, fl 32720, usa",32720
787,-87.2518824,30.4415185,"pensacola, fl 32505, usa",32505
788,-81.229853,29.0612685,"deland, fl 32724, usa",32724
789,-80.3129541,25.7621935,"miami, fl 33144, usa",33144
790,-81.9261999,28.0095179,"lakeland, fl 33803, usa",33803
791,-82.2909146,27.9082595,"brandon, fl 33511, usa",33511
792,-81.2188355,29.6250683,"palm coast, fl 32137, usa",32137
793,-82.4373589,27.0935232,"venice, fl 34285, usa",34285
794,-82.6861446,27.7374908,"st. petersburg, fl 33711, usa",33711
795,-81.444379,28.5141606,"orlando, fl 32811, usa",32811
796,-81.6966306,30.3617348,"jacksonville, fl 32209, usa",32209
797,-81.7458845,30.1643797,"orange park, fl 32073, usa",32073
798,-83.2077645,30.0299573,"mayo, fl 32066, usa",32066
799,-82.3343375,27.1171731,"venice, fl 34292, usa",34292
800,-81.9425701,26.5101373,"fort myers, fl 33908, usa",33908
801,-81.5267282,28.5830551,"ocoee, fl 34761, usa",34761
802,-80.0590804,26.5838179,"lake worth, fl 33462, usa",33462
803,-85.2101269,30.876325,"marianna, fl 32446, usa",32446
804,-80.2432839,27.1038963,"stuart, fl 34997, usa",34997
805,-81.2408689,28.5880175,"orlando, fl 32817, usa",32817
806,-85.4994192,30.1973686,"panama city, fl 32404, usa",32404
807,-82.7185282,27.8674465,"pinellas park, fl 33782, usa",33782
808,-80.1819268,26.3003637,"pompano beach, fl 33073, usa",33073
809,-81.6692532,30.4686832,"jacksonville, fl 32218, usa",32218
810,-82.1496049,26.9783388,"port charlotte, fl 33948, usa",33948
811,-82.4644445,27.3346138,"sarasota, fl 34232, usa",34232
812,-80.6049374,28.0298719,"palm bay, fl 32905, usa",32905
813,-82.1387233,28.2485703,"zephyrhills, fl 33540, usa",33540
814,-81.4169093,28.3675319,"orlando, fl 32837, usa",32837
815,-81.7677645,26.2422984,"naples, fl 34109, usa",34109
816,-82.5943072,28.5760375,"brooksville, fl 34613, usa",34613
817,-81.7021049,28.0600916,"winter haven, fl 33881, usa",33881
818,-82.2039882,29.1561929,"ocala, fl 34474, usa",34474
819,-81.8770671,26.6235485,"fort myers, fl 33901, usa",33901
820,-81.9752995,28.2274477,"lakeland, fl 33809, usa",33809
821,-81.8879884,28.9177956,"lady lake, fl 32159, usa",32159
822,-80.1763467,26.4460317,"delray beach, fl 33446, usa",33446
823,-82.4427769,28.2424856,"land o lakes, fl 34639, usa",34639
824,-80.2349196,25.7862401,"miami, fl 33125, usa",33125
825,-82.1931149,28.657897,"bushnell, fl 33513, usa",33513
826,-83.1863358,29.6372166,"cross city, fl 32628, usa",32628
827,-82.7616822,27.8580624,"seminole, fl 33777, usa",33777
828,-81.422404,28.3040861,"kissimmee, fl 34741, usa",34741
829,-80.2878794,27.2932971,"port st lucie, fl 34952, usa",34952
830,-80.1540226,26.8645934,"palm beach gardens, fl 33418, usa",33418
831,-82.5023464,28.0771075,"tampa, fl 33618, usa",33618
832,-82.6159271,27.4361633,"bradenton, fl 34210, usa",34210
833,-80.6548882,26.7936969,"pahokee, fl 33476, usa",33476
834,-81.9425701,26.5101373,"fort myers, fl 33908, usa",33908
835,-81.8333656,26.5273497,"fort myers, fl 33912, usa",33912
836,-80.2070328,25.7667897,"miami, fl 33130, usa",33130
837,-82.4644445,27.241131,"sarasota, fl 34238, usa",34238
838,-81.3949264,28.5747416,"orlando, fl 32804, usa",32804
839,-82.5294065,27.4081935,"sarasota, fl 34243, usa",34243
840,-81.3014284,28.5513952,"orlando, fl 32807, usa",32807
841,-86.4794359,30.7793183,"crestview, fl 32539, usa",32539
842,-81.3509416,28.7571267,"lake mary, fl 32746, usa",32746
843,-82.5889012,27.4872771,"bradenton, fl 34205, usa",34205
844,-80.2028489,25.7767549,"miami, fl 33128, usa",33128
845,-82.5239953,27.3086034,"sarasota, fl 34239, usa",34239
846,-82.6321376,27.8512042,"st. petersburg, fl 33702, usa",33702
847,-80.2042436,25.7870967,"miami, fl 33136, usa",33136
848,-82.5456374,27.3331293,"sarasota, fl 34236, usa",34236
849,-82.3777335,28.9348729,"hernando, fl 34442, usa",34442
850,-80.2793593,25.9906428,"hollywood, fl 33025, usa",33025
851,-81.5377013,29.910184,"st augustine, fl 32092, usa",32092
852,-82.6969408,27.9711651,"clearwater, fl 33759, usa",33759
853,-82.7940297,27.8480989,"seminole, fl 33772, usa",33772
854,-84.6479124,30.4644422,"quincy, fl 32351, usa",32351
855,-83.9744262,30.3432656,"monticello, fl 32344, usa",32344
856,-82.3659168,29.6156734,"gainesville, fl 32608, usa",32608
857,-80.2265545,26.1865098,"fort lauderdale, fl 33319, usa",33319
858,-87.0224442,30.8158292,"milton, fl 32570, usa",32570
859,-82.7023383,28.2333343,"new port richey, fl 34653, usa",34653
860,-81.1967958,28.6777437,"oviedo, fl 32765, usa",32765
861,-87.2269973,30.423724,"pensacola, fl 32501, usa",32501
862,-87.2170395,30.4580512,"pensacola, fl 32503, usa",32503
863,-82.4644445,27.3346138,"sarasota, fl 34232, usa",34232
864,-81.7568253,27.5628879,"wauchula, fl 33873, usa",33873
865,-85.56121,30.6823987,"chipley, fl 32428, usa",32428
866,-85.4994192,30.1973686,"panama city, fl 32404, usa",32404
867,-81.7239979,26.4273206,"estero, fl 33928, usa",33928
868,-81.5706109,30.2906907,"jacksonville, fl 32216, usa",32216
869,-82.0570579,27.0257714,"port charlotte, fl 33954, usa",33954
870,-80.6881718,28.0181548,"palm bay, fl 32907, usa",32907
871,-81.3729372,29.0128283,"deland, fl 32720, usa",32720
872,-81.7896381,26.2904551,"naples, fl 34110, usa",34110
873,-82.4644445,27.241131,"sarasota, fl 34238, usa",34238
874,-81.5706109,30.2906907,"jacksonville, fl 32216, usa",32216
875,-81.7130522,30.104973,"fleming island, fl 32003, usa",32003
876,-82.3659168,29.6156734,"gainesville, fl 32608, usa",32608
877,-80.0870155,26.8598894,"palm beach gardens, fl 33410, usa",33410
878,-81.6254283,29.0403906,"altoona, fl 32702, usa",32702
879,-81.5870604,27.907758,"lake wales, fl 33853, usa",33853
880,-81.8224362,27.170058,"arcadia, fl 34266, usa",34266
881,-82.09518,26.98699,"port charlotte, fl 33952, usa",33952
882,-87.2120599,30.5327462,"pensacola, fl 32514, usa",32514
883,-81.422404,28.3040861,"kissimmee, fl 34741, usa",34741
884,-80.4048306,27.6445079,"vero beach, fl 32960, usa",32960
885,-80.1372757,25.9581433,"miami, fl 33180, usa",33180
886,-81.7458845,30.1643797,"orange park, fl 32073, usa",32073
887,-82.6807458,28.185653,"new port richey, fl 34655, usa",34655
888,-80.3992652,25.9231399,"hialeah, fl 33018, usa",33018
889,-84.6688348,29.8897474,"carrabelle, fl 32322, usa",32322
890,-81.5706109,30.2906907,"jacksonville, fl 32216, usa",32216
891,-81.8879884,28.9177956,"lady lake, fl 32159, usa",32159
892,-82.2039882,29.1561929,"ocala, fl 34474, usa",34474
893,-82.5131717,27.2612782,"sarasota, fl 34231, usa",34231
894,-81.6802054,27.9890156,"winter haven, fl 33884, usa",33884
895,-81.5377013,29.910184,"st augustine, fl 32092, usa",32092
896,-81.8879884,24.5669442,"key west, fl 33040, usa",33040
897,-82.4806907,27.3646945,"sarasota, fl 34235, usa",34235
898,-80.2432839,26.6374761,"wellington, fl 33414, usa",33414
899,-80.5105028,25.0154628,"tavernier, fl 33070, usa",33070
900,-82.4806907,28.1340975,"lutz, fl 33548, usa",33548
901,-80.2878794,25.6579955,"miami, fl 33156, usa",33156
902,-81.986206,28.9121162,"the villages, fl 32162, usa",32162
903,-81.8105629,29.978568,"penney farms, fl 32079, usa",32079
904,-80.4048306,27.6445079,"vero beach, fl 32960, usa",32960
905,-82.4806907,27.3646945,"sarasota, fl 34235, usa",34235
906,-81.8879884,28.9177956,"lady lake, fl 32159, usa",32159
907,-80.2042436,25.7870967,"miami, fl 33136, usa",33136
908,-80.4882672,27.7954993,"sebastian, fl 32958, usa",32958
909,-82.5131717,27.3430762,"sarasota, fl 34237, usa",34237
910,-82.7293193,27.7514295,"st. petersburg, fl 33707, usa",33707
911,-81.7458845,26.3582748,"bonita springs, fl 34135, usa",34135
912,-85.6588999,30.1624013,"panama city, fl 32401, usa",32401
913,-80.1518422,26.2017638,"fort lauderdale, fl 33060, usa",33060
914,-84.3279093,33.828105,"atlanta, ga 30329, usa",30329
915,-84.1646163,32.0632399,"americus, ga 31709, usa",31709
916,-83.6880257,33.7803626,"monroe, ga 30655, usa",30655
917,-84.2805478,33.8092255,"decatur, ga 30033, usa",30033
918,-83.7836403,34.2402986,"gainesville, ga 30507, usa",30507
919,-84.4277703,33.8604722,"atlanta, ga 30327, usa",30327
920,-84.2594861,33.7414395,"decatur, ga 30032, usa",30032
921,-84.6479124,31.1059998,"colquitt, ga 39837, usa",39837
922,-85.2437841,34.9487162,"fort oglethorpe, ga 30742, usa",30742
923,-82.0733985,33.5315344,"augusta, ga 30907, usa",30907
924,-84.9921549,32.5621719,"columbus, ga 31904, usa",31904
925,-83.1005505,34.2480349,"royston, ga 30662, usa",30662
926,-83.581615,34.5724159,"demorest, ga 30535, usa",30535
927,-85.2825938,34.958476,"rossville, ga 30741, usa",30741
928,-81.4059186,32.4471031,"springfield, ga 31329, usa",31329
929,-84.3804888,33.7971137,"atlanta, ga 30309, usa",30309
930,-84.5379455,33.9488147,"marietta, ga 30060, usa",30060
931,-81.1747498,32.0371137,"savannah, ga 31405, usa",31405
932,-84.9921549,32.5621719,"columbus, ga 31904, usa",31904
933,-84.3857442,33.8363126,"atlanta, ga 30305, usa",30305
934,-81.1586515,31.9708128,"savannah, ga 31419, usa",31419
935,-84.8984775,33.3786293,"newnan, ga 30263, usa",30263
936,-84.4015075,33.5528023,"riverdale, ga 30274, usa",30274
937,-84.6322156,33.8417064,"austell, ga 30106, usa",30106
938,-84.8776392,32.4559867,"columbus, ga 31907, usa",31907
939,-82.0733985,33.4647333,"augusta, ga 30909, usa",30909
940,-81.9752995,33.380425,"augusta, ga 30906, usa",30906
941,-84.5379455,33.9488147,"marietta, ga 30060, usa",30060
942,-84.2805478,33.8092255,"decatur, ga 30033, usa",30033
943,-84.8776392,33.9800711,"dallas, ga 30132, usa",30132
944,-82.345189,31.8081037,"baxley, ga 31513, usa",31513
945,-84.7524482,31.5437345,"edison, ga 39846, usa",39846
946,-82.3560389,31.2298446,"waycross, ga 31501, usa",31501
947,-84.3121264,31.1830005,"camilla, ga 31730, usa",31730
948,-84.3699767,33.8856615,"atlanta, ga 30342, usa",30342
949,-84.981754,31.3021309,"blakely, ga 39823, usa",39823
950,-84.7315563,31.8385034,"cuthbert, ga 39840, usa",39840
951,-84.7524482,33.6630087,"douglasville, ga 30135, usa",30135
952,-84.377861,33.7440941,"atlanta, ga 30312, usa",30312
953,-84.5903367,33.8955185,"marietta, ga 30008, usa",30008
954,-85.1479364,33.029838,"lagrange, ga 30240, usa",30240
955,-83.5063097,33.8186951,"high shoals, ga 30645, usa",30645
956,-84.7315563,34.7046413,"chatsworth, ga 30705, usa",30705
957,-84.4435223,33.9668266,"marietta, ga 30068, usa",30068
958,-85.1271907,34.2566577,"rome, ga 30161, usa",30161
959,-83.6791098,32.8519904,"macon, ga 31204, usa",31204
960,-83.1005505,34.0265458,"comer, ga 30629, usa",30629
961,-81.9752995,33.380425,"augusta, ga 30906, usa",30906
962,-82.0733985,33.4647333,"augusta, ga 30909, usa",30909
963,-81.2628961,32.0883381,"pooler, ga 31322, usa",31322
964,-82.0733985,33.5315344,"augusta, ga 30907, usa",30907
965,-83.7411631,32.8999858,"macon, ga 31210, usa",31210
966,-84.338429,33.8730946,"atlanta, ga 30319, usa",30319
967,-84.6688348,33.6148122,"fairburn, ga 30213, usa",30213
968,-85.2101269,34.7022961,"lafayette, ga 30728, usa",30728
969,-82.0733985,33.5315344,"augusta, ga 30907, usa",30907
970,-84.338429,33.8730946,"atlanta, ga 30319, usa",30319
971,-84.6322156,33.8417064,"austell, ga 30106, usa",30106
972,-85.2515482,34.3058655,"rome, ga 30165, usa",30165
973,-82.669947,33.3788405,"warrenton, ga 30828, usa",30828
974,-84.2173403,33.8507937,"tucker, ga 30084, usa",30084
975,-84.6269824,30.8076819,"bainbridge, ga 39819, usa",39819
976,-82.6915429,33.7142683,"washington, ga 30673, usa",30673
977,-83.6986568,31.0859995,"moultrie, ga 31788, usa",31788
978,-83.9003022,34.1686107,"flowery branch, ga 30542, usa",30542
979,-84.3121264,32.9047684,"thomaston, ga 30286, usa",30286
980,-84.5379455,33.8598323,"smyrna, ga 30082, usa",30082
981,-82.013465,33.4775837,"augusta, ga 30904, usa",30904
982,-82.1604849,33.5593454,"evans, ga 30809, usa",30809
983,-84.1751648,32.3916468,"ideal, ga 31041, usa",31041
984,-81.1586515,31.9708128,"savannah, ga 31419, usa",31419
985,-84.9609464,34.5156085,"calhoun, ga 30701, usa",30701
986,-84.9921549,34.7486859,"dalton, ga 30720, usa",30720
987,-83.2077645,31.2207295,"nashville, ga 31639, usa",31639
988,-83.357567,34.5714584,"toccoa, ga 30577, usa",30577
989,-83.7411631,32.8999858,"macon, ga 31210, usa",31210
990,-84.0695961,33.9327331,"lawrenceville, ga 30044, usa",30044
991,-85.1271907,34.2566577,"rome, ga 30161, usa",30161
992,-84.0695961,33.9327331,"lawrenceville, ga 30044, usa",30044
993,-84.8776392,32.4559867,"columbus, ga 31907, usa",31907
994,-84.3121264,32.9047684,"thomaston, ga 30286, usa",30286
995,-85.1479364,33.029838,"lagrange, ga 30240, usa",30240
996,-82.9,32.54,"dublin, ga 31040, usa",31040
997,-82.9582213,32.8555614,"oconee, ga 31067, usa",31067
998,-82.5834947,32.4320792,"soperton, ga 30457, usa",30457
999,-84.5012435,33.473501,"fayetteville, ga 30214, usa",30214
1000,-81.9971108,33.0468937,"waynesboro, ga 30830, usa",30830
1001,-83.4856913,32.886946,"macon, ga 31217, usa",31217
1002,-85.2515482,34.3058655,"rome, ga 30165, usa",30165
1003,-83.9955879,32.2815846,"montezuma, ga 31063, usa",31063
1004,-82.5185837,33.5258626,"thomson, ga 30824, usa",30824
1005,-85.1479364,33.5674989,"carrollton, ga 30117, usa",30117
1006,-82.9501558,33.0148881,"sandersville, ga 31082, usa",31082
1007,-83.3468784,30.87419,"valdosta, ga 31602, usa",31602
1008,-84.9921549,34.7486859,"dalton, ga 30720, usa",30720
1009,-83.8260884,33.5756821,"covington, ga 30014, usa",30014
1010,-82.9,32.54,"dublin, ga 31040, usa",31040
1011,-83.3468784,30.87419,"valdosta, ga 31602, usa",31602
1012,-83.9744262,33.0685419,"forsyth, ga 31029, usa",31029
1013,-85.3136218,34.0196497,"cedartown, ga 30125, usa",30125
1014,-83.0361376,33.2882621,"sparta, ga 31087, usa",31087
1015,-85.1479364,33.5674989,"carrollton, ga 30117, usa",30117
1016,-83.3468784,30.87419,"valdosta, ga 31602, usa",31602
1017,-82.2583297,32.1645345,"lyons, ga 30436, usa",30436
1018,-83.4856913,32.886946,"macon, ga 31217, usa",31217
1019,-83.4750241,34.4564294,"baldwin, ga 30511, usa",30511
1020,-83.8260884,32.9042047,"macon, ga 31220, usa",31220
1021,-85.1271907,34.2566577,"rome, ga 30161, usa",30161
1022,-83.1541796,33.9074896,"crawford, ga 30630, usa",30630
1023,-83.0361376,33.2882621,"sparta, ga 31087, usa",31087
1024,-82.7778579,34.074498,"elberton, ga 30635, usa",30635
1025,-84.9921549,34.7486859,"dalton, ga 30720, usa",30720
1026,-82.7994194,31.902579,"lumber city, ga 31549, usa",31549
1027,-82.713132,32.7096119,"wrightsville, ga 31096, usa",31096
1028,-85.2437841,34.9487162,"fort oglethorpe, ga 30742, usa",30742
1029,-83.8154791,34.319379,"gainesville, ga 30501, usa",30501
1030,-82.0842901,32.4241804,"metter, ga 30439, usa",30439
1031,-83.4856913,31.4400847,"tifton, ga 31794, usa",31794
1032,-83.357567,32.6554564,"jeffersonville, ga 31044, usa",31044
1033,-81.8879884,31.6665297,"jesup, ga 31545, usa",31545
1034,-83.9744262,33.0685419,"forsyth, ga 31029, usa",31029
1035,-83.4750241,34.0137081,"athens, ga 30607, usa",30607
1036,-84.448772,34.1280759,"woodstock, ga 30188, usa",30188
1037,-84.3857442,34.0586259,"roswell, ga 30075, usa",30075
1038,-84.1751648,34.2041173,"cumming, ga 30040, usa",30040
1039,-82.345189,33.6043053,"appling, ga 30802, usa",30802
1040,-83.9108968,30.8676229,"thomasville, ga 31757, usa",31757
1041,-85.3494423,34.4781176,"summerville, ga 30747, usa",30747
1042,-83.7836403,31.9545421,"cordele, ga 31015, usa",31015
1043,-83.7411631,32.4498466,"perry, ga 31069, usa",31069
1044,-85.1271907,33.7229357,"bremen, ga 30110, usa",30110
1045,-82.9286428,34.3708514,"hartwell, ga 30643, usa",30643
1046,-85.3136218,34.0196497,"cedartown, ga 30125, usa",30125
1047,-85.1479364,33.5674989,"carrollton, ga 30117, usa",30117
1048,-84.1224036,33.0531651,"barnesville, ga 30204, usa",30204
1049,-82.9286428,34.3708514,"hartwell, ga 30643, usa",30643
1050,-85.2101269,34.7022961,"lafayette, ga 30728, usa",30728
1051,-83.0576156,32.7741043,"toomsboro, ga 31090, usa",31090
1052,-83.4430118,33.6005808,"madison, ga 30650, usa",30650
1053,-80.8875861,31.9941893,"tybee island, ga 31328, usa",31328
1054,-84.5746243,33.3984792,"peachtree city, ga 30269, usa",30269
1055,-84.8776392,34.1577811,"cartersville, ga 30120, usa",30120
1056,-84.1751648,33.447458,"mcdonough, ga 30253, usa",30253
1057,-83.570964,33.0259927,"gray, ga 31032, usa",31032
1058,-83.4323375,33.9448436,"athens, ga 30606, usa",30606
1059,-84.375233,34.8869359,"blue ridge, ga 30513, usa",30513
1060,-83.9955879,33.7177663,"conyers, ga 30012, usa",30012
1061,-83.2077645,32.2191202,"eastman, ga 31023, usa",31023
1062,-84.1118458,33.7344959,"lithonia, ga 30058, usa",30058
1063,-83.570964,33.0259927,"gray, ga 31032, usa",31032
1064,-83.2291862,33.0975564,"milledgeville, ga 31061, usa",31061
1065,-84.9921549,32.5621719,"columbus, ga 31904, usa",31904
1066,-83.3789389,32.4087854,"cochran, ga 31014, usa",31014
1067,-84.0378894,30.7819709,"thomasville, ga 31792, usa",31792
1068,-84.6688348,32.085419,"richland, ga 31825, usa",31825
1069,-84.2963392,33.7709887,"decatur, ga 30030, usa",30030
1070,-84.4802606,31.7370079,"dawson, ga 39842, usa",39842
1071,-84.3121264,32.9047684,"thomaston, ga 30286, usa",30286
1072,-83.6880257,32.7962119,"macon, ga 31206, usa",31206
1073,-83.8154791,34.319379,"gainesville, ga 30501, usa",30501
1074,-83.0576156,33.6686427,"union point, ga 30669, usa",30669
1075,-84.6322156,33.8417064,"austell, ga 30106, usa",30106
1076,-83.7199136,31.7018672,"ashburn, ga 31714, usa",31714
1077,-85.2437841,34.9487162,"fort oglethorpe, ga 30742, usa",30742
1078,-82.8855961,31.9979696,"mcrae, ga 31055, usa",31055
1079,-82.9286428,32.4969921,"dublin, ga 31021, usa",31021
1080,-83.2077645,33.565606,"greensboro, ga 30642, usa",30642
1081,-83.5496566,30.7815176,"quitman, ga 31643, usa",31643
1082,-84.0378894,30.7819709,"thomasville, ga 31792, usa",31792
1083,-84.4802606,34.4285521,"jasper, ga 30143, usa",30143
1084,-81.8879884,31.6665297,"jesup, ga 31545, usa",31545
1085,-84.338429,33.8730946,"atlanta, ga 30319, usa",30319
1086,-83.8260884,31.1834568,"moultrie, ga 31768, usa",31768
1087,-84.6688348,33.6148122,"fairburn, ga 30213, usa",30213
1088,-84.2489525,32.5642575,"butler, ga 31006, usa",31006
1089,-84.5012435,34.2745511,"canton, ga 30114, usa",30114
1090,-83.4323375,33.9448436,"athens, ga 30606, usa",30606
1091,-84.448772,33.7946333,"atlanta, ga 30318, usa",30318
1092,-82.4319405,31.5412085,"alma, ga 31510, usa",31510
1093,-84.6583745,34.0041089,"kennesaw, ga 30152, usa",30152
1094,-84.1118458,33.8680523,"lilburn, ga 30047, usa",30047
1095,-81.49,31.15,"brunswick, ga 31521, usa",31521
1096,-84.4697663,33.9290987,"marietta, ga 30067, usa",30067
1097,-81.9548454,32.3892407,"pulaski, ga 30451, usa",30451
1098,-84.0378894,32.6895998,"roberta, ga 31078, usa",31078
1099,-82.1604849,33.5593454,"evans, ga 30809, usa",30809
1100,-84.3857442,33.7026678,"atlanta, ga 30315, usa",30315
1101,-84.8984775,33.3786293,"newnan, ga 30263, usa",30263
1102,-84.2489525,33.2831586,"griffin, ga 30223, usa",30223
1103,-85.0441304,33.9868753,"rockmart, ga 30153, usa",30153
1104,-84.3489467,33.7845409,"atlanta, ga 30306, usa",30306
1105,-83.6986568,33.6584347,"social circle, ga 30025, usa",30025
1106,-82.345189,32.6202762,"swainsboro, ga 30401, usa",30401
1107,-81.0865035,31.9858113,"savannah, ga 31406, usa",31406
1108,-84.3279093,33.5829386,"morrow, ga 30260, usa",30260
1109,-83.6986568,34.0142667,"winder, ga 30680, usa",30680
1110,-84.2489525,33.2831586,"griffin, ga 30223, usa",30223
1111,-84.6688348,33.8822455,"powder springs, ga 30127, usa",30127
1112,-84.3226488,33.5213067,"jonesboro, ga 30236, usa",30236
1113,-82.1931149,32.543469,"twin city, ga 30471, usa",30471
1114,-83.5390002,32.1121335,"pineview, ga 31071, usa",31071
1115,-84.412014,33.7539971,"atlanta, ga 30314, usa",30314
1116,-84.8776392,34.1577811,"cartersville, ga 30120, usa",30120
1117,-81.6035062,32.7074673,"sylvania, ga 30467, usa",30467
1118,-84.3226488,33.5213067,"jonesboro, ga 30236, usa",30236
1119,-81.0865035,31.9858113,"savannah, ga 31406, usa",31406
1120,-81.1747498,32.1723473,"port wentworth, ga 31407, usa",31407
1121,-84.375233,32.0274326,"plains, ga 31780, usa",31780
1122,-84.0907246,34.2000834,"cumming, ga 30041, usa",30041
1123,-83.666758,32.6601786,"warner robins, ga 31093, usa",31093
1124,-81.3619402,31.7677096,"midway, ga 31320, usa",31320
1125,-81.5047772,31.1763619,"brunswick, ga 31520, usa",31520
1126,-84.448772,33.6832181,"atlanta, ga 30344, usa",30344
1127,-84.238417,33.2042944,"griffin, ga 30224, usa",30224
1128,-85.5406209,34.8911615,"trenton, ga 30752, usa",30752
1129,-83.7199136,34.568577,"cleveland, ga 30528, usa",30528
1130,-83.7199136,34.568577,"cleveland, ga 30528, usa",30528
1131,-84.2173403,33.8507937,"tucker, ga 30084, usa",30084
1132,-83.3468784,30.87419,"valdosta, ga 31602, usa",31602
1133,-83.9532571,33.3138938,"jackson, ga 30233, usa",30233
1134,-83.9426698,32.1773202,"byromville, ga 31007, usa",31007
1135,-84.1909841,33.7994803,"stone mountain, ga 30083, usa",30083
1136,-84.9297206,32.5371089,"columbus, ga 31909, usa",31909
1137,-83.7836403,31.9545421,"cordele, ga 31015, usa",31015
1138,-84.3857442,33.7026678,"atlanta, ga 30315, usa",30315
1139,-84.0378894,30.7819709,"thomasville, ga 31792, usa",31792
1140,-84.8776392,34.1577811,"cartersville, ga 30120, usa",30120
1141,-84.5327038,33.5754008,"union city, ga 30291, usa",30291
1142,-82.1060683,32.0422322,"reidsville, ga 30453, usa",30453
1143,-84.7106567,32.6746739,"waverly hall, ga 31831, usa",31831
1144,-81.8879884,31.6665297,"jesup, ga 31545, usa",31545
1145,-83.2291862,33.0975564,"milledgeville, ga 31061, usa",31061
1146,-84.448772,33.638615,"atlanta, ga 30337, usa",30337
1147,-84.5903367,33.8955185,"marietta, ga 30008, usa",30008
1148,-81.3619402,31.2690865,"saint simons island, ga 31522, usa",31522
1149,-84.95,34.5,"calhoun, ga 30703, usa",30703
1150,-84.377861,33.7440941,"atlanta, ga 30312, usa",30312
1151,-83.4643551,32.232644,"hawkinsville, ga 31036, usa",31036
1152,-85.2101269,33.8599004,"buchanan, ga 30113, usa",30113
1153,-83.86,33.6,"covington, ga 30015, usa",30015
1154,-85.2101269,33.8599004,"buchanan, ga 30113, usa",30113
1155,-81.9971108,31.1510963,"nahunta, ga 31553, usa",31553
1156,-83.3789389,33.3069978,"eatonton, ga 31024, usa",31024
1157,-84.2173403,33.8507937,"tucker, ga 30084, usa",30084
1158,-81.8005724,32.3835021,"statesboro, ga 30458, usa",30458
1159,-81.909826,32.1427011,"claxton, ga 30417, usa",30417
1160,-84.564147,32.2846944,"buena vista, ga 31803, usa",31803
1161,-84.0378894,34.1199318,"buford, ga 30518, usa",30518
1162,-81.8005724,32.3835021,"statesboro, ga 30458, usa",30458
1163,-84.7524482,32.9015134,"warm springs, ga 31830, usa",31830
1164,-81.8005724,32.3835021,"statesboro, ga 30458, usa",30458
1165,-82.3560389,31.2298446,"waycross, ga 31501, usa",31501
1166,-84.5012435,34.2745511,"canton, ga 30114, usa",30114
1167,-84.3331694,30.9325351,"whigham, ga 39897, usa",39897
1168,-83.2720082,31.5654752,"ocilla, ga 31774, usa",31774
1169,-81.1747498,32.0371137,"savannah, ga 31405, usa",31405
1170,-82.8101975,31.5516965,"douglas, ga 31533, usa",31533
1171,-83.624201,32.590481,"warner robins, ga 31088, usa",31088
1172,-82.5834947,33.2397265,"gibson, ga 30810, usa",30810
1173,-84.1435136,31.7220046,"leesburg, ga 31763, usa",31763
1174,-82.3609841,31.2131092,"waycross, ga 31502, usa",31502
1175,-85.0979934,33.2776087,"franklin, ga 30217, usa",30217
1176,-83.2077645,31.7664035,"fitzgerald, ga 31750, usa",31750
1177,-81.8005724,32.3835021,"statesboro, ga 30458, usa",30458
1178,-81.909826,31.9620717,"glennville, ga 30427, usa",30427
1179,-81.2078164,31.8249486,"richmond hill, ga 31324, usa",31324
1180,-83.2077645,32.2191202,"eastman, ga 31023, usa",31023
1181,-83.357567,31.9782825,"abbeville, ga 31001, usa",31001
1182,-81.0478643,32.0563741,"savannah, ga 31404, usa",31404
1183,-84.1751648,31.5301723,"albany, ga 31701, usa",31701
1184,-82.605118,31.8234851,"hazlehurst, ga 31539, usa",31539
1185,-83.9532571,32.4150706,"marshallville, ga 31057, usa",31057
1186,-84.16,31.58,"albany, ga 31702, usa",31702
1187,-83.8897057,31.5282489,"sylvester, ga 31791, usa",31791
1188,-82.0842901,30.8830272,"folkston, ga 31537, usa",31537
1189,-83.4750241,34.0137081,"athens, ga 30607, usa",30607
1190,-80.8875861,31.9941893,"tybee island, ga 31328, usa",31328
1191,-82.6915429,31.0100737,"homerville, ga 31634, usa",31634
1192,-83.6986568,32.7180396,"macon, ga 31216, usa",31216
1193,-85.1479364,33.5674989,"carrollton, ga 30117, usa",30117
1194,-81.1586515,31.9708128,"savannah, ga 31419, usa",31419
1195,-81.0865035,31.9858113,"savannah, ga 31406, usa",31406
1196,-82.0842901,32.4241804,"metter, ga 30439, usa",30439
1197,-84.0273168,33.8639894,"snellville, ga 30078, usa",30078
1198,-82.1822399,33.1592735,"keysville, ga 30816, usa",30816
1199,-83.985008,33.9508571,"lawrenceville, ga 30046, usa",30046
1200,-84.238417,33.6958943,"decatur, ga 30034, usa",30034
1201,-83.2291862,33.0975564,"milledgeville, ga 31061, usa",31061
1202,-83.9108968,32.5483579,"fort valley, ga 31030, usa",31030
1203,-83.6880257,32.7962119,"macon, ga 31206, usa",31206
1204,-83.2077645,31.7664035,"fitzgerald, ga 31750, usa",31750
1205,-83.4430118,31.1189052,"adel, ga 31620, usa",31620
1206,-83.4856913,32.886946,"macon, ga 31217, usa",31217
1207,-83.666758,32.6601786,"warner robins, ga 31093, usa",31093
1208,-84.7524482,33.0363257,"greenville, ga 30222, usa",30222
1209,-83.9214896,33.9255183,"lawrenceville, ga 30045, usa",30045
1210,-84.5955732,33.9346756,"marietta, ga 30064, usa",30064
1211,-84.9921549,34.7486859,"dalton, ga 30720, usa",30720
1212,-81.7130522,31.7005624,"ludowici, ga 31316, usa",31316
1213,-83.8260884,31.1834568,"moultrie, ga 31768, usa",31768
1214,-83.8260884,31.1834568,"moultrie, ga 31768, usa",31768
1215,-83.9955879,33.7177663,"conyers, ga 30012, usa",30012
1216,-82.5834947,32.522133,"adrian, ga 31002, usa",31002
1217,-82.013465,33.4775837,"augusta, ga 30904, usa",30904
1218,-84.2067992,33.5494383,"stockbridge, ga 30281, usa",30281
1219,-84.3726049,33.7717008,"atlanta, ga 30308, usa",30308
1220,-83.7199136,33.3246924,"monticello, ga 31064, usa",31064
1221,-83.4856913,31.4400847,"tifton, ga 31794, usa",31794
1222,-84.4802606,34.4285521,"jasper, ga 30143, usa",30143
1223,-82.366887,32.9133543,"wadley, ga 30477, usa",30477
1224,-83.7411631,32.8999858,"macon, ga 31210, usa",31210
1225,-82.366887,33.0477278,"louisville, ga 30434, usa",30434
1226,-84.3279093,33.828105,"atlanta, ga 30329, usa",30329
1227,-84.564147,34.6973008,"ellijay, ga 30540, usa",30540
1228,-81.4937993,30.777092,"st marys, ga 31558, usa",31558
1229,-82.7778579,34.074498,"elberton, ga 30635, usa",30635
1230,-82.7778579,34.074498,"elberton, ga 30635, usa",30635
1231,-83.9108968,34.335219,"gainesville, ga 30506, usa",30506
1232,-83.357567,34.879595,"clayton, ga 30525, usa",30525
1233,-84.059029,34.5855409,"dahlonega, ga 30533, usa",30533
1234,-84.0907246,34.067013,"suwanee, ga 30024, usa",30024
1235,-82.9501558,33.0148881,"sandersville, ga 31082, usa",31082
1236,-83.6791098,32.8519904,"macon, ga 31204, usa",31204
1237,-84.4697663,32.99046,"molena, ga 30258, usa",30258
1238,-84.1118458,33.8012981,"stone mountain, ga 30087, usa",30087
1239,-83.9744262,34.8457601,"blairsville, ga 30512, usa",30512
1240,-85.0025539,31.5992714,"fort gaines, ga 39851, usa",39851
1241,-84.3279093,33.828105,"atlanta, ga 30329, usa",30329
1242,-81.9971108,32.7781246,"millen, ga 30442, usa",30442
1243,-83.7199136,34.9208214,"hiawassee, ga 30546, usa",30546
1244,-82.9501558,33.0148881,"sandersville, ga 31082, usa",31082
1245,-82.669947,32.2116538,"glenwood, ga 30428, usa",30428
1246,-82.345189,32.6202762,"swainsboro, ga 30401, usa",30401
1247,-82.4145445,32.2151789,"vidalia, ga 30475, usa",30475
1248,-84.5012435,34.5400048,"talking rock, ga 30175, usa",30175
1249,-83.0576156,31.0987278,"lakeland, ga 31635, usa",31635
1250,-83.9108968,32.5483579,"fort valley, ga 31030, usa",31030
1251,-85.1479364,33.029838,"lagrange, ga 30240, usa",30240
1252,-83.4856913,34.1805506,"commerce, ga 30529, usa",30529
1253,-84.6269824,30.8076819,"bainbridge, ga 39819, usa",39819
1254,-84.8984775,30.9331429,"donalsonville, ga 39845, usa",39845
1255,-83.2720082,31.5654752,"ocilla, ga 31774, usa",31774
1256,-83.4856913,34.1805506,"commerce, ga 30529, usa",30529
1257,-81.0202533,31.9134308,"savannah, ga 31411, usa",31411
1258,-84.9921549,32.5621719,"columbus, ga 31904, usa",31904
1259,-84.4225186,33.7321902,"atlanta, ga 30310, usa",30310
1260,-81.3619402,31.2690865,"saint simons island, ga 31522, usa",31522
1261,-85.2515482,34.3058655,"rome, ga 30165, usa",30165
1262,-85.1271907,34.2566577,"rome, ga 30161, usa",30161
1263,-81.5047772,31.1763619,"brunswick, ga 31520, usa",31520
1264,-84.8984775,33.3786293,"newnan, ga 30263, usa",30263
1265,-84.0907246,34.067013,"suwanee, ga 30024, usa",30024
1266,-84.0273168,33.8639894,"snellville, ga 30078, usa",30078
1267,-84.238417,33.6958943,"decatur, ga 30034, usa",30034
1268,-82.0161996,33.3701528,"north view, ga 30812, usa",30812
1269,-83.2204845,33.0501775,"milledgeville, ga 31062, usa",31062
1270,-89.8879304,31.6738881,"prentiss, ms 39474, usa",39474
1271,-88.9796776,33.1197471,"louisville, ms 39339, usa",39339
1272,-90.0373201,33.1238994,"lexington, ms 39095, usa",39095
1273,-89.1038783,30.3981324,"gulfport, ms 39501, usa",39501
1274,-88.9653226,30.4028755,"biloxi, ms 39531, usa",39531
1275,-89.1372527,31.6995406,"laurel, ms 39440, usa",39440
1276,-88.9796776,33.1197471,"louisville, ms 39339, usa",39339
1277,-88.5951751,33.7438161,"aberdeen, ms 39730, usa",39730
1278,-90.1120696,31.125165,"tylertown, ms 39667, usa",39667
1279,-90.3936722,31.2391441,"mccomb, ms 39648, usa",39648
1280,-88.8838834,34.7468892,"ripley, ms 38663, usa",38663
1281,-90.2338473,32.3672122,"jackson, ms 39213, usa",39213
1282,-89.8130356,33.7516314,"grenada, ms 38901, usa",38901
1283,-88.6819958,34.2684438,"tupelo, ms 38804, usa",38804
1284,-89.9626799,32.220001,"brandon, ms 39042, usa",39042
1285,-89.4742177,32.8073509,"carthage, ms 39051, usa",39051
1286,-89.9906734,34.9837306,"southaven, ms 38671, usa",38671
1287,-88.5951751,34.8984684,"corinth, ms 38834, usa",38834
1288,-88.6530753,33.6326542,"west point, ms 39773, usa",39773
1289,-90.2291565,32.2821952,"jackson, ms 39204, usa",39204
1290,-90.5446912,33.7282241,"ruleville, ms 38771, usa",38771
1291,-90.6962853,33.7721644,"cleveland, ms 38732, usa",38732
1292,-90.1775946,32.3673036,"jackson, ms 39206, usa",39206
1293,-90.1565209,32.3361632,"jackson, ms 39216, usa",39216
1294,-89.3037147,33.5932426,"eupora, ms 39744, usa",39744
1295,-88.5951751,32.3029712,"meridian, ms 39301, usa",39301
1296,-88.4597673,33.9876974,"amory, ms 38821, usa",38821
1297,-90.2291565,32.2821952,"jackson, ms 39204, usa",39204
1298,-91.1161166,31.0516381,"centreville, ms 39631, usa",39631
1299,-88.2071598,34.8051099,"iuka, ms 38852, usa",38852
1300,-90.5446912,33.7282241,"ruleville, ms 38771, usa",38771
1301,-88.8838834,34.7468892,"ripley, ms 38663, usa",38663
1302,-88.6819958,34.2684438,"tupelo, ms 38804, usa",38804
1303,-89.1324866,32.7603148,"philadelphia, ms 39350, usa",39350
1304,-89.1324866,34.8151808,"ashland, ms 38603, usa",38603
1305,-89.9813445,34.3088241,"batesville, ms 38606, usa",38606
1306,-90.8675134,32.2170441,"vicksburg, ms 39180, usa",39180
1307,-89.6816208,30.5044923,"picayune, ms 39466, usa",39466
1308,-88.7686382,30.4069394,"ocean springs, ms 39564, usa",39564
1309,-90.3936722,31.2391441,"mccomb, ms 39648, usa",39648
1310,-90.563609,32.8523122,"yazoo city, ms 39194, usa",39194
1311,-90.3560076,32.3782595,"clinton, ms 39056, usa",39056
1312,-89.189643,31.3287429,"petal, ms 39465, usa",39465
1313,-89.8130356,31.9471741,"mendenhall, ms 39114, usa",39114
1314,-89.1324866,32.3077848,"newton, ms 39345, usa",39345
1315,-90.1869644,33.5726622,"greenwood, ms 38930, usa",38930
1316,-89.8130356,33.7516314,"grenada, ms 38901, usa",38901
1317,-89.2847251,31.2148677,"hattiesburg, ms 39401, usa",39401
1318,-88.90306,31.3952297,"richton, ms 39476, usa",39476
1319,-88.362785,34.275721,"fulton, ms 38843, usa",38843
1320,-88.6530753,34.5232901,"baldwyn, ms 38824, usa",38824
1321,-90.6393702,31.5810726,"brookhaven, ms 39601, usa",39601
1322,-89.3701078,30.3766274,"diamondhead, ms 39525, usa",39525
1323,-91.0203224,31.6698772,"fayette, ms 39069, usa",39069
1324,-88.5951751,32.3029712,"meridian, ms 39301, usa",39301
1325,-89.4174641,31.3299729,"hattiesburg, ms 39402, usa",39402
1326,-91.3276422,31.5758013,"natchez, ms 39120, usa",39120
1327,-89.7379958,33.482915,"winona, ms 38967, usa",38967
1328,-88.8263006,33.4776589,"starkville, ms 39759, usa",39759
1329,-91.3276422,31.5758013,"natchez, ms 39120, usa",39120
1330,-88.5468645,30.4161933,"moss point, ms 39563, usa",39563
1331,-90.6393702,31.5810726,"brookhaven, ms 39601, usa",39601
1332,-88.6144839,31.1865227,"leakesville, ms 39451, usa",39451
1333,-88.556531,30.7959493,"lucedale, ms 39452, usa",39452
1334,-89.1515476,30.4560609,"gulfport, ms 39503, usa",39503
1335,-90.658333,33.4590347,"indianola, ms 38751, usa",38751
1336,-89.5874819,33.1232253,"kosciusko, ms 39090, usa",39090
1337,-90.9629523,32.0119115,"port gibson, ms 39150, usa",39150
1338,-88.3433623,33.4497573,"columbus, ms 39702, usa",39702
1339,-88.5226886,30.3640657,"pascagoula, ms 39581, usa",39581
1340,-90.4313729,31.8327591,"hazlehurst, ms 39083, usa",39083
1341,-90.1869644,33.5726622,"greenwood, ms 38930, usa",38930
1342,-88.362785,34.275721,"fulton, ms 38843, usa",38843
1343,-90.8865834,31.4197092,"meadville, ms 39653, usa",39653
1344,-90.1307797,31.559768,"monticello, ms 39654, usa",39654
1345,-89.5686271,31.6504004,"collins, ms 39428, usa",39428
1346,-90.1869644,33.5726622,"greenwood, ms 38930, usa",38930
1347,-91.0777723,33.3664005,"greenville, ms 38701, usa",38701
1348,-88.2071598,34.8051099,"iuka, ms 38852, usa",38852
1349,-91.0777723,33.5009356,"greenville, ms 38703, usa",38703
1350,-90.9629523,32.8273285,"rolling fork, ms 39159, usa",39159
1351,-90.6393702,31.5810726,"brookhaven, ms 39601, usa",39601
1352,-88.3433623,33.4497573,"columbus, ms 39702, usa",39702
1353,-91.3276422,31.5758013,"natchez, ms 39120, usa",39120
1354,-89.7379958,31.2165811,"columbia, ms 39429, usa",39429
1355,-90.6962853,33.7721644,"cleveland, ms 38732, usa",38732
1356,-89.5120084,34.7289034,"holly springs, ms 38635, usa",38635
1357,-88.4210006,33.5851639,"columbus, ms 39705, usa",39705
1358,-88.5951751,34.8984684,"corinth, ms 38834, usa",38834
1359,-89.0370477,30.9152156,"wiggins, ms 39577, usa",39577
1360,-90.8675134,32.2170441,"vicksburg, ms 39180, usa",39180
1361,-90.1120696,31.125165,"tylertown, ms 39667, usa",39667
1362,-88.7686382,30.4069394,"ocean springs, ms 39564, usa",39564
1363,-88.8838834,34.7468892,"ripley, ms 38663, usa",38663
1364,-90.1729106,32.3163028,"jackson, ms 39202, usa",39202
1365,-89.6628111,32.4009704,"morton, ms 39117, usa",39117
1366,-88.6723578,32.7563034,"de kalb, ms 39328, usa",39328
1367,-91.0777723,33.5009356,"greenville, ms 38703, usa",38703
1368,-90.8675134,32.2170441,"vicksburg, ms 39180, usa",39180
1369,-88.3433623,33.4497573,"columbus, ms 39702, usa",39702
1370,-90.5068824,33.190345,"belzoni, ms 39038, usa",39038
1371,-89.1515476,32.6022834,"union, ms 39365, usa",39365
1372,-88.5951751,32.3029712,"meridian, ms 39301, usa",39301
1373,-89.1372527,31.6995406,"laurel, ms 39440, usa",39440
1374,-88.7686382,32.4633755,"meridian, ms 39305, usa",39305
1375,-88.5178518,34.6324369,"booneville, ms 38829, usa",38829
1376,-89.4174641,31.3299729,"hattiesburg, ms 39402, usa",39402
1377,-89.9626799,32.220001,"brandon, ms 39042, usa",39042
1378,-90.6393702,34.1960298,"clarksdale, ms 38614, usa",38614
1379,-89.0561532,34.4605576,"new albany, ms 38652, usa",38652
1380,-89.436391,34.2853188,"oxford, ms 38655, usa",38655
1381,-89.0561532,34.1940742,"pontotoc, ms 38863, usa",38863
1382,-90.7913227,31.1227954,"liberty, ms 39645, usa",39645
1383,-89.7379958,31.2165811,"columbia, ms 39429, usa",39429
1384,-90.2713944,32.2537549,"jackson, ms 39212, usa",39212
1385,-90.1588618,32.4352998,"ridgeland, ms 39157, usa",39157
1386,-90.2338473,32.3672122,"jackson, ms 39213, usa",39213
1387,-90.1729106,32.3163028,"jackson, ms 39202, usa",39202
1388,-88.6144839,31.1865227,"leakesville, ms 39451, usa",39451
1389,-89.7567693,31.8332555,"magee, ms 39111, usa",39111
1390,-89.9440061,34.3976229,"sardis, ms 38666, usa",38666
1391,-90.3936722,31.2391441,"mccomb, ms 39648, usa",39648
1392,-90.0466559,34.9616778,"horn lake, ms 38637, usa",38637
1393,-90.3560076,32.3782595,"clinton, ms 39056, usa",39056
1394,-89.7192132,33.2809406,"vaiden, ms 39176, usa",39176
1395,-90.8675134,32.2170441,"vicksburg, ms 39180, usa",39180
1396,-90.2291565,32.2821952,"jackson, ms 39204, usa",39204
1397,-88.7493998,31.6678378,"waynesboro, ms 39367, usa",39367
1398,-89.2657266,30.410662,"pass christian, ms 39571, usa",39571
1399,-88.5951751,32.0305407,"quitman, ms 39355, usa",39355
1400,-88.6434308,30.4172273,"gautier, ms 39553, usa",39553
1401,-89.1038783,30.3981324,"gulfport, ms 39501, usa",39501
1402,-90.3560076,31.969565,"crystal springs, ms 39059, usa",39059
1403,-91.0276332,33.399799,"greenville, ms 38704, usa",38704
1404,-90.7342734,33.9505233,"shelby, ms 38774, usa",38774
1405,-90.6393702,34.1960298,"clarksdale, ms 38614, usa",38614
1406,-89.9906734,34.9837306,"southaven, ms 38671, usa",38671
1407,-89.2847251,31.2148677,"hattiesburg, ms 39401, usa",39401
1408,-88.4210006,33.5851639,"columbus, ms 39705, usa",39705
1409,-90.2713944,32.208368,"byram, ms 39272, usa",39272
1410,-88.8263006,33.4776589,"starkville, ms 39759, usa",39759
1411,-89.8692203,34.6192004,"senatobia, ms 38668, usa",38668
1412,-90.1869644,32.1290469,"florence, ms 39073, usa",39073
1413,-90.1307797,32.5145763,"madison, ms 39110, usa",39110
1414,-88.4597673,33.9876974,"amory, ms 38821, usa",38821
1415,-88.9796776,33.9261914,"houston, ms 38851, usa",38851
1416,-90.1869644,33.5726622,"greenwood, ms 38930, usa",38930
1417,-89.0370477,30.9152156,"wiggins, ms 39577, usa",39577
1418,-88.7686382,34.2137735,"tupelo, ms 38801, usa",38801
1419,-90.6393702,31.5810726,"brookhaven, ms 39601, usa",39601
1420,-89.6628111,34.8177943,"byhalia, ms 38611, usa",38611
1421,-89.0561532,34.4605576,"new albany, ms 38652, usa",38652
1422,-88.6530753,33.6326542,"west point, ms 39773, usa",39773
1423,-91.0777723,33.5009356,"greenville, ms 38703, usa",38703
1424,-88.7686382,32.4633755,"meridian, ms 39305, usa",39305
1425,-89.7379958,31.2165811,"columbia, ms 39429, usa",39429
1426,-88.7686382,34.2137735,"tupelo, ms 38801, usa",38801
1427,-89.1515476,32.6022834,"union, ms 39365, usa",39365
1428,-89.0561532,34.1940742,"pontotoc, ms 38863, usa",38863
1429,-88.5178518,34.6324369,"booneville, ms 38829, usa",38829
1430,-89.2847251,31.2148677,"hattiesburg, ms 39401, usa",39401
1431,-89.4931176,30.2733722,"bay st louis, ms 39520, usa",39520
1432,-88.8934728,30.4426171,"d'iberville, ms 39540, usa",39540
1433,-89.341667,34.0401106,"bruce, ms 38915, usa",38915
1434,-90.0840215,32.2540172,"pearl, ms 39208, usa",39208
1435,-90.1775946,32.3673036,"jackson, ms 39206, usa",39206
1436,-90.563609,32.8523122,"yazoo city, ms 39194, usa",39194
1437,-88.6458421,32.4196623,"marion, ms 39342, usa",39342
1438,-89.9626799,32.5825142,"canton, ms 39046, usa",39046
1439,-89.5686271,31.6504004,"collins, ms 39428, usa",39428
1440,-89.8692203,33.1013373,"durant, ms 39063, usa",39063
1441,-88.556531,30.7959493,"lucedale, ms 39452, usa",39452
1442,-90.3560076,34.7072488,"tunica, ms 38676, usa",38676
1443,-89.2847251,31.2148677,"hattiesburg, ms 39401, usa",39401
1444,-89.2086773,31.5802262,"ellisville, ms 39437, usa",39437
1445,-89.3606298,30.9401636,"lumberton, ms 39455, usa",39455
1446,-89.1324866,32.7603148,"philadelphia, ms 39350, usa",39350
1447,-88.7686382,32.4633755,"meridian, ms 39305, usa",39305
1448,-89.1515476,30.4560609,"gulfport, ms 39503, usa",39503
1449,-88.8070886,32.3278136,"meridian, ms 39307, usa",39307
1450,-89.5874819,30.8492406,"poplarville, ms 39470, usa",39470
1451,-88.7686382,33.9911608,"okolona, ms 38860, usa",38860
1452,-89.6628111,34.1082186,"water valley, ms 38965, usa",38965
1453,-89.2277026,31.9677239,"bay springs, ms 39422, usa",39422
1454,-90.6962853,33.7721644,"cleveland, ms 38732, usa",38732
1455,-90.1120696,34.0195319,"charleston, ms 38921, usa",38921
1456,-90.07587,32.23699,"whitfield, ms 39193, usa",39193
1457,-89.341667,33.8170488,"calhoun city, ms 38916, usa",38916
1458,-89.4742177,32.8073509,"carthage, ms 39051, usa",39051
1459,-88.5178518,33.1151313,"macon, ms 39341, usa",39341
1460,-90.3371889,34.2861473,"marks, ms 38646, usa",38646
1461,-89.0561532,34.1940742,"pontotoc, ms 38863, usa",38863
1462,-89.1372527,31.6995406,"laurel, ms 39440, usa",39440
1463,-89.3037147,33.5932426,"eupora, ms 39744, usa",39744
1464,-89.5120084,32.0373511,"raleigh, ms 39153, usa",39153
1465,-90.07587,32.23699,"whitfield, ms 39193, usa",39193
1466,-90.07587,32.23699,"whitfield, ms 39193, usa",39193
1467,-90.07587,32.23699,"whitfield, ms 39193, usa",39193
1468,-90.07587,32.23699,"whitfield, ms 39193, usa",39193
1469,-90.102718,32.3220478,"flowood, ms 39232, usa",39232
1470,-89.2847251,31.2148677,"hattiesburg, ms 39401, usa",39401
1471,-88.8070886,32.3278136,"meridian, ms 39307, usa",39307
1472,-89.2086773,33.3909832,"ackerman, ms 39735, usa",39735
1473,-88.5951751,34.8984684,"corinth, ms 38834, usa",38834
1474,-90.810357,34.0392068,"duncan, ms 38740, usa",38740
1475,-79.7512033,35.3591939,"biscoe, nc 27209, usa",27209
1476,-78.9853813,36.025609,"durham, nc 27705, usa",27705
1477,-77.9852853,34.3023653,"wilmington, nc 28401, usa",28401
1478,-80.3324514,36.0564654,"winston-salem, nc 27103, usa",27103
1479,-78.9627624,36.4094786,"roxboro, nc 27573, usa",27573
1480,-79.8184684,36.1857974,"greensboro, nc 27455, usa",27455
1481,-80.823938,35.1928527,"charlotte, nc 28207, usa",28207
1482,-78.651221,35.8059449,"raleigh, nc 27608, usa",27608
1483,-82.5510469,35.6304783,"asheville, nc 28804, usa",28804
1484,-80.2321313,35.7352485,"lexington, nc 27292, usa",27292
1485,-80.7990185,35.2263714,"charlotte, nc 28205, usa",28205
1486,-79.7568107,36.0676041,"greensboro, nc 27401, usa",27401
1487,-79.7960523,35.7312824,"asheboro, nc 27203, usa",27203
1488,-79.7512033,35.9217252,"pleasant garden, nc 27313, usa",27313
1489,-80.7103532,35.1105564,"matthews, nc 28105, usa",28105
1490,-76.317414,36.2927068,"elizabeth city, nc 27909, usa",27909
1491,-80.2432839,36.1568627,"winston-salem, nc 27105, usa",27105
1492,-79.3690831,35.1739185,"southern pines, nc 28387, usa",28387
1493,-81.7021049,36.1379754,"blowing rock, nc 28605, usa",28605
1494,-82.3234843,35.6922407,"black mountain, nc 28711, usa",28711
1495,-78.6540576,35.7927515,"raleigh, nc 27605, usa",27605
1496,-79.9752212,36.3708661,"madison, nc 27025, usa",27025
1497,-80.0534923,35.0254895,"wadesboro, nc 28170, usa",28170
1498,-78.9853813,36.025609,"durham, nc 27705, usa",27705
1499,-78.8835548,34.661535,"lumberton, nc 28358, usa",28358
1500,-78.9853813,36.025609,"durham, nc 27705, usa",27705
1501,-77.9053182,35.6733387,"wilson, nc 27893, usa",27893
1502,-80.2321313,35.7352485,"lexington, nc 27292, usa",27292
1503,-78.9853813,36.025609,"durham, nc 27705, usa",27705
1504,-77.4931403,34.7216995,"jacksonville, nc 28540, usa",28540
1505,-78.5547283,35.7482425,"raleigh, nc 27610, usa",27610
1506,-82.3234843,35.6922407,"black mountain, nc 28711, usa",28711
1507,-81.3289397,35.7655407,"hickory, nc 28601, usa",28601
1508,-78.8269385,36.0323222,"durham, nc 27704, usa",27704
1509,-81.9971108,35.3445288,"rutherfordton, nc 28139, usa",28139
1510,-80.2432839,36.1568627,"winston-salem, nc 27105, usa",27105
1511,-80.1651854,36.3116368,"walnut cove, nc 27052, usa",27052
1512,-80.0423151,35.9679365,"high point, nc 27262, usa",27262
1513,-79.4379412,36.0955555,"burlington, nc 27215, usa",27215
1514,-80.3268812,36.0937141,"winston-salem, nc 27104, usa",27104
1515,-79.9752212,35.9623181,"high point, nc 27260, usa",27260
1516,-80.7990185,36.3301314,"elkin, nc 28621, usa",28621
1517,-80.8765205,35.4172882,"huntersville, nc 28078, usa",28078
1518,-80.5680973,35.0015178,"monroe, nc 28111, usa",28111
1519,-77.7223162,36.2125047,"enfield, nc 27823, usa",27823
1520,-83.1434573,35.5241463,"maggie valley, nc 28751, usa",28751
1521,-80.7103532,35.1105564,"matthews, nc 28105, usa",28105
1522,-78.3159411,35.8434853,"zebulon, nc 27597, usa",27597
1523,-80.0199562,36.0091763,"high point, nc 27265, usa",27265
1524,-81.3619402,35.6703562,"hickory, nc 28602, usa",28602
1525,-80.2098219,35.3213858,"albemarle, nc 28001, usa",28001
1526,-83.0146526,35.4731561,"waynesville, nc 28786, usa",28786
1527,-79.3690831,35.1739185,"southern pines, nc 28387, usa",28387
1528,-77.9053182,35.3712582,"goldsboro, nc 27534, usa",27534
1529,-80.4660256,35.6999973,"salisbury, nc 28144, usa",28144
1530,-79.8632834,36.0175027,"greensboro, nc 27407, usa",27407
1531,-77.8252923,34.2426224,"wilmington, nc 28405, usa",28405
1532,-82.366887,35.3902982,"hendersonville, nc 28792, usa",28792
1533,-80.7990185,36.3301314,"elkin, nc 28621, usa",28621
1534,-78.0423683,35.168552,"mt olive, nc 28365, usa",28365
1535,-82.116955,35.2542295,"tryon, nc 28782, usa",28782
1536,-80.9207737,35.7678029,"statesville, nc 28677, usa",28677
1537,-80.5882803,35.9367033,"mocksville, nc 27028, usa",27028
1538,-80.5216184,35.3898417,"concord, nc 28025, usa",28025
1539,-80.3769999,35.9953936,"clemmons, nc 27012, usa",27012
1540,-79.7624177,36.0196499,"greensboro, nc 27406, usa",27406
1541,-81.229853,36.1365807,"wilkesboro, nc 28697, usa",28697
1542,-80.7934798,35.1660032,"charlotte, nc 28211, usa",28211
1543,-77.8595963,35.8837599,"rocky mount, nc 27803, usa",27803
1544,-81.5596427,36.0092311,"lenoir, nc 28645, usa",28645
1545,-80.4647192,35.6627691,"salisbury, nc 28145, usa",28145
1546,-80.7325287,35.3301529,"charlotte, nc 28262, usa",28262
1547,-79.4253776,35.7530672,"siler city, nc 27344, usa",27344
1548,-80.0758425,35.8736458,"thomasville, nc 27360, usa",27360
1549,-77.0564464,35.7774892,"williamston, nc 27892, usa",27892
1550,-80.1982494,35.3481309,"albemarle, nc 28002, usa",28002
1551,-79.8856824,36.127028,"greensboro, nc 27410, usa",27410
1552,-80.3324514,36.1426113,"winston-salem, nc 27106, usa",27106
1553,-77.9053182,34.9812417,"kenansville, nc 28349, usa",28349
1554,-81.3619402,35.2353013,"kings mountain, nc 28086, usa",28086
1555,-81.3289397,35.7655407,"hickory, nc 28601, usa",28601
1556,-80.4660256,35.6999973,"salisbury, nc 28144, usa",28144
1557,-79.7960523,35.7312824,"asheboro, nc 27203, usa",27203
1558,-77.58,35.26,"kinston, nc 28502, usa",28502
1559,-81.2739073,35.4902575,"lincolnton, nc 28092, usa",28092
1560,-77.7680952,34.3134705,"wilmington, nc 28411, usa",28411
1561,-81.229853,35.6607773,"newton, nc 28658, usa",28658
1562,-81.2408689,35.2156681,"gastonia, nc 28052, usa",28052
1563,-81.6254283,36.2081106,"boone, nc 28607, usa",28607
1564,-76.6181655,36.0927193,"edenton, nc 27932, usa",27932
1565,-82.0189155,35.7158243,"marion, nc 28752, usa",28752
1566,-80.254435,36.447711,"danbury, nc 27016, usa",27016
1567,-80.6548882,36.0929378,"yadkinville, nc 27055, usa",27055
1568,-77.4242972,35.6450428,"greenville, nc 27834, usa",27834
1569,-81.1526976,35.2528422,"gastonia, nc 28054, usa",28054
1570,-76.745195,34.7394328,"morehead city, nc 28557, usa",28557
1571,-81.5815776,35.3380357,"shelby, nc 28150, usa",28150
1572,-80.0423151,35.9679365,"high point, nc 27262, usa",27262
1573,-78.9061921,35.38163,"lillington, nc 27546, usa",27546
1574,-82.5564559,35.5927461,"asheville, nc 28801, usa",28801
1575,-78.3614672,35.5029834,"smithfield, nc 27577, usa",27577
1576,-79.4591378,35.2035849,"pinehurst, nc 28374, usa",28374
1577,-80.7879407,35.584285,"mooresville, nc 28115, usa",28115
1578,-78.8835548,34.661535,"lumberton, nc 28358, usa",28358
1579,-77.4242972,35.6450428,"greenville, nc 27834, usa",27834
1580,-76.3810922,34.8667378,"sealevel, nc 28577, usa",28577
1581,-80.5216184,35.3898417,"concord, nc 28025, usa",28025
1582,-76.317414,36.2927068,"elizabeth city, nc 27909, usa",27909
1583,-78.4979248,34.2534269,"lake waccamaw, nc 28450, usa",28450
1584,-80.6548882,35.4002721,"concord, nc 28027, usa",28027
1585,-81.8224362,35.854382,"morganton, nc 28655, usa",28655
1586,-84.0341837,35.0878385,"murphy, nc 28906, usa",28906
1587,-80.610489,36.4763956,"mt airy, nc 27030, usa",27030
1588,-77.9053182,35.6733387,"wilson, nc 27893, usa",27893
1589,-83.4643551,35.4328955,"bryson city, nc 28713, usa",28713
1590,-79.0871005,34.6582138,"lumberton, nc 28360, usa",28360
1591,-77.5160788,35.9125437,"tarboro, nc 27886, usa",27886
1592,-80.0758425,35.6141751,"denton, nc 27239, usa",27239
1593,-81.9971108,35.3445288,"rutherfordton, nc 28139, usa",28139
1594,-82.6159271,35.5692059,"asheville, nc 28806, usa",28806
1595,-79.0475559,35.9722081,"chapel hill, nc 27514, usa",27514
1596,-80.8294747,35.2150714,"charlotte, nc 28204, usa",28204
1597,-78.5547283,35.7482425,"raleigh, nc 27610, usa",27610
1598,-81.8442934,36.1801325,"banner elk, nc 28604, usa",28604
1599,-82.5564559,35.5927461,"asheville, nc 28801, usa",28801
1600,-81.229853,36.1365807,"wilkesboro, nc 28697, usa",28697
1601,-82.4969331,35.8768108,"mars hill, nc 28754, usa",28754
1602,-78.7249469,34.3185672,"whiteville, nc 28472, usa",28472
1603,-82.7778579,35.2190534,"brevard, nc 28712, usa",28712
1604,-80.3324514,36.1426113,"winston-salem, nc 27106, usa",27106
1605,-78.52065,34.6276267,"elizabethtown, nc 28337, usa",28337
1606,-77.1,35.1,"new bern, nc 28563, usa",28563
1607,-78.8722341,35.0637521,"fayetteville, nc 28301, usa",28301
1608,-78.9061921,35.38163,"lillington, nc 27546, usa",27546
1609,-77.0520004,35.546822,"washington, nc 27889, usa",27889
1610,-79.1322744,35.4023416,"sanford, nc 27332, usa",27332
1611,-77.4013403,34.8425818,"jacksonville, nc 28546, usa",28546
1612,-78.3387066,35.0457992,"clinton, nc 28328, usa",28328
1613,-81.8224362,35.854382,"morganton, nc 28655, usa",28655
1614,-82.5402275,35.705887,"weaverville, nc 28787, usa",28787
1615,-81.6055617,35.7560979,"drexel, nc 28619, usa",28619
1616,-82.5402275,35.2701864,"hendersonville, nc 28739, usa",28739
1617,-79.0475559,35.9722081,"chapel hill, nc 27514, usa",27514
1618,-75.6091696,35.8993832,"nags head, nc 27959, usa",27959
1619,-79.6951103,36.3790421,"reidsville, nc 27320, usa",27320
1620,-77.0520004,35.546822,"washington, nc 27889, usa",27889
1621,-81.5815776,35.3380357,"shelby, nc 28150, usa",28150
1622,-81.3619402,35.6703562,"hickory, nc 28602, usa",28602
1623,-81.8879884,35.6636322,"nebo, nc 28761, usa",28761
1624,-78.8835548,34.661535,"lumberton, nc 28358, usa",28358
1625,-79.4379412,36.0955555,"burlington, nc 27215, usa",27215
1626,-77.9852853,34.3023653,"wilmington, nc 28401, usa",28401
1627,-78.3614672,35.5029834,"smithfield, nc 27577, usa",27577
1628,-80.7934798,35.1660032,"charlotte, nc 28211, usa",28211
1629,-78.1564432,36.3208776,"warrenton, nc 27589, usa",27589
1630,-79.7624177,36.4919544,"eden, nc 27288, usa",27288
1631,-77.5160788,35.9125437,"tarboro, nc 27886, usa",27886
1632,-80.7491563,35.195314,"charlotte, nc 28212, usa",28212
1633,-76.745195,34.7394328,"morehead city, nc 28557, usa",28557
1634,-77.8595963,34.5848419,"burgaw, nc 28425, usa",28425
1635,-81.4169093,35.8151974,"granite falls, nc 28630, usa",28630
1636,-81.2078164,35.8974199,"taylorsville, nc 28681, usa",28681
1637,-79.7624177,36.4919544,"eden, nc 27288, usa",27288
1638,-81.2534128,35.472453,"lincolnton, nc 28093, usa",28093
1639,-78.0880129,34.9994902,"warsaw, nc 28398, usa",28398
1640,-82.4536115,35.4393566,"fletcher, nc 28732, usa",28732
1641,-80.5216184,34.9102669,"monroe, nc 28112, usa",28112
1642,-81.4059186,35.4127478,"cherryville, nc 28021, usa",28021
1643,-80.5771737,35.4919675,"kannapolis, nc 28083, usa",28083
1644,-77.8481628,36.000632,"rocky mount, nc 27804, usa",27804
1645,-81.1416691,36.517185,"sparta, nc 28675, usa",28675
1646,-76.4100267,36.1329763,"hertford, nc 27944, usa",27944
1647,-83.4643551,35.1705372,"franklin, nc 28734, usa",28734
1648,-81.0644263,35.3770063,"stanley, nc 28164, usa",28164
1649,-79.3465557,36.3803903,"yanceyville, nc 27379, usa",27379
1650,-76.7567368,35.8087701,"plymouth, nc 27962, usa",27962
1651,-78.52065,34.6276267,"elizabethtown, nc 28337, usa",28337
1652,-80.3435908,34.9835691,"marshville, nc 28103, usa",28103
1653,-80.3881333,35.6396304,"salisbury, nc 28146, usa",28146
1654,-82.0645536,35.9154579,"spruce pine, nc 28777, usa",28777
1655,-79.7624177,36.0196499,"greensboro, nc 27406, usa",27406
1656,-79.7960523,35.7312824,"asheboro, nc 27203, usa",27203
1657,-80.610489,36.4763956,"mt airy, nc 27030, usa",27030
1658,-77.8481628,36.000632,"rocky mount, nc 27804, usa",27804
1659,-79.2451149,35.0432488,"raeford, nc 28376, usa",28376
1660,-80.2098219,35.3213858,"albemarle, nc 28001, usa",28001
1661,-81.5815776,35.3380357,"shelby, nc 28150, usa",28150
1662,-80.7879407,35.584285,"mooresville, nc 28115, usa",28115
1663,-80.3324514,36.0564654,"winston-salem, nc 27103, usa",27103
1664,-82.5402275,35.2701864,"hendersonville, nc 28739, usa",28739
1665,-80.5660657,35.69709,"salisbury, nc 28147, usa",28147
1666,-80.4382153,35.6923678,"spencer, nc 28159, usa",28159
1667,-75.9811564,36.3700639,"barco, nc 27917, usa",27917
1668,-78.6114999,36.3655298,"oxford, nc 27565, usa",27565
1669,-76.8836261,35.0797761,"grantsboro, nc 28529, usa",28529
1670,-79.6726632,34.8844123,"hamlet, nc 28345, usa",28345
1671,-78.41,33.94,"shallotte, nc 28459, usa",28459
1672,-81.4169093,36.3977815,"jefferson, nc 28640, usa",28640
1673,-79.4478858,34.7776407,"laurinburg, nc 28352, usa",28352
1674,-77.8595963,34.5848419,"burgaw, nc 28425, usa",28425
1675,-79.4028639,36.1602349,"burlington, nc 27217, usa",27217
1676,-83.2291862,35.3544375,"sylva, nc 28779, usa",28779
1677,-82.5437614,35.5671423,"asheville, nc 28803, usa",28803
1678,-80.7990185,35.2263714,"charlotte, nc 28205, usa",28205
1679,-82.345189,35.888897,"burnsville, nc 28714, usa",28714
1680,-80.9207737,35.7678029,"statesville, nc 28677, usa",28677
1681,-81.1085744,35.2277973,"gastonia, nc 28056, usa",28056
1682,-77.6135158,36.4199874,"weldon, nc 27890, usa",27890
1683,-80.0758425,35.8736458,"thomasville, nc 27360, usa",27360
1684,-78.9627624,36.4094786,"roxboro, nc 27573, usa",27573
1685,-82.5077593,35.3664107,"hendersonville, nc 28791, usa",28791
1686,-77.4013403,36.3495631,"jackson, nc 27845, usa",27845
1687,-81.8770671,35.3037942,"forest city, nc 28043, usa",28043
1688,-78.8835548,34.661535,"lumberton, nc 28358, usa",28358
1689,-78.3955986,36.3338756,"henderson, nc 27536, usa",27536
1690,-78.4524591,35.5981967,"clayton, nc 27520, usa",27520
1691,-78.0423683,34.1217236,"winnabow, nc 28479, usa",28479
1692,-82.6840319,35.7972953,"marshall, nc 28753, usa",28753
1693,-78.3955986,36.3338756,"henderson, nc 27536, usa",27536
1694,-82.366887,35.3902982,"hendersonville, nc 28792, usa",28792
1695,-77.7909776,34.7304831,"wallace, nc 28466, usa",28466
1696,-78.52065,35.2369644,"dunn, nc 28334, usa",28334
1697,-80.7103532,35.1105564,"matthews, nc 28105, usa",28105
1698,-82.5437614,35.5671423,"asheville, nc 28803, usa",28803
1699,-81.5596427,36.0092311,"lenoir, nc 28645, usa",28645
1700,-79.9864071,35.8229988,"trinity, nc 27370, usa",27370
1701,-80.771321,35.1097782,"charlotte, nc 28270, usa",28270
1702,-77.92,35.72,"wilson, nc 27895, usa",27895
1703,-80.2990246,35.8487812,"lexington, nc 27295, usa",27295
1704,-78.2476146,36.0730279,"louisburg, nc 27549, usa",27549
1705,-77.7223162,36.4260215,"roanoke rapids, nc 27870, usa",27870
1706,-79.3127543,35.9371041,"graham, nc 27253, usa",27253
1707,-76.964306,36.0245185,"windsor, nc 27983, usa",27983
1708,-80.8765205,35.8509953,"statesville, nc 28625, usa",28625
1709,-82.8640623,35.3989096,"canton, nc 28716, usa",28716
1710,-80.6659842,35.4989016,"kannapolis, nc 28081, usa",28081
1711,-77.9053182,35.3712582,"goldsboro, nc 27534, usa",27534
1712,-78.3955986,36.3338756,"henderson, nc 27536, usa",27536
1713,-80.5216184,34.9102669,"monroe, nc 28112, usa",28112
1714,-78.8722341,35.0637521,"fayetteville, nc 28301, usa",28301
1715,-77.6765184,34.4353406,"hampstead, nc 28443, usa",28443
1716,-81.1526976,35.2528422,"gastonia, nc 28054, usa",28054
1717,-82.3234843,35.2566114,"saluda, nc 28773, usa",28773
1718,-78.8722341,35.0637521,"fayetteville, nc 28301, usa",28301
1719,-80.0758425,36.1322707,"kernersville, nc 27284, usa",27284
1720,-83.804868,35.3634623,"robbinsville, nc 28771, usa",28771
1721,-77.3094674,36.2543819,"rich square, nc 27869, usa",27869
1722,-76.964306,35.1642895,"new bern, nc 28560, usa",28560
1723,-78.2476146,36.0730279,"louisburg, nc 27549, usa",27549
1724,-77.0334179,36.3097236,"ahoskie, nc 27910, usa",27910
1725,-80.5216184,35.3898417,"concord, nc 28025, usa",28025
1726,-79.2676668,36.1051434,"mebane, nc 27302, usa",27302
1727,-77.4931403,35.285623,"kinston, nc 28501, usa",28501
1728,-77.6765184,35.4342915,"snow hill, nc 28580, usa",28580
1729,-78.6540576,35.1872817,"falcon, nc 28342, usa",28342
1730,-78.6875364,35.8019142,"raleigh, nc 27607, usa",27607
1731,-79.4591378,35.2035849,"pinehurst, nc 28374, usa",28374
1732,-76.964306,35.1642895,"new bern, nc 28560, usa",28560
1733,-77.9053182,35.6733387,"wilson, nc 27893, usa",27893
1734,-78.0423683,33.9899994,"southport, nc 28461, usa",28461
1735,-77.9664279,35.9747446,"nashville, nc 27856, usa",27856
1736,-77.4013403,36.1360073,"scotland neck, nc 27874, usa",27874
1737,-78.8948741,34.9788116,"fayetteville, nc 28306, usa",28306
1738,-77.4242972,35.6450428,"greenville, nc 27834, usa",27834
1739,-79.8072611,34.9394992,"rockingham, nc 28379, usa",28379
1740,-78.9627624,35.0285822,"fayetteville, nc 28304, usa",28304
1741,-80.3435908,36.3262595,"king, nc 27021, usa",27021
1742,-79.4478858,34.7776407,"laurinburg, nc 28352, usa",28352
1743,-77.5848665,35.5973014,"farmville, nc 27828, usa",27828
1744,-81.2739073,35.4902575,"lincolnton, nc 28092, usa",28092
1745,-81.0865035,36.2013832,"north wilkesboro, nc 28659, usa",28659
1746,-80.7657933,35.2794552,"charlotte, nc 28256, usa",28256
1747,-78.5887951,35.6544684,"garner, nc 27529, usa",27529
1748,-79.9864071,36.253766,"stokesdale, nc 27357, usa",27357
1749,-79.7568107,36.0676041,"greensboro, nc 27401, usa",27401
1750,-80.0534923,35.0254895,"wadesboro, nc 28170, usa",28170
1751,-82.713132,35.4989049,"candler, nc 28715, usa",28715
1752,-77.1715228,34.9918471,"pollocksville, nc 28573, usa",28573
1753,-81.4059186,35.4127478,"cherryville, nc 28021, usa",28021
1754,-83.1220074,35.6753404,"waynesville, nc 28785, usa",28785
1755,-78.7249469,34.3185672,"whiteville, nc 28472, usa",28472
1756,-83.2291862,35.3544375,"sylva, nc 28779, usa",28779
1757,-81.0865035,36.2013832,"north wilkesboro, nc 28659, usa",28659
1758,-78.7759559,35.7315398,"cary, nc 27518, usa",27518
1759,-76.964306,36.0245185,"windsor, nc 27983, usa",27983
1760,-80.9760556,35.2833293,"charlotte, nc 28214, usa",28214
1761,-76.7567368,36.4067458,"gatesville, nc 27938, usa",27938
1762,-76.247912,35.4073428,"swanquarter, nc 27885, usa",27885
1763,-78.9175088,35.890231,"durham, nc 27713, usa",27713
1764,-79.1774268,34.7100395,"pembroke, nc 28372, usa",28372
1765,-80.610489,36.4763956,"mt airy, nc 27030, usa",27030
1766,-83.0146526,35.4731561,"waynesville, nc 28786, usa",28786
1767,-78.6114999,36.3655298,"oxford, nc 27565, usa",27565
1768,-82.366887,35.5210268,"fairview, nc 28730, usa",28730
1769,-78.9627624,35.0938365,"fayetteville, nc 28303, usa",28303
1770,-80.8875861,35.080412,"pineville, nc 28134, usa",28134
1771,-80.4326521,35.9459285,"advance, nc 27006, usa",27006
1772,-78.5887951,35.9989632,"wake forest, nc 27587, usa",27587
1773,-82.4102628,35.6108066,"swannanoa, nc 28778, usa",28778
1774,-80.2321313,35.7352485,"lexington, nc 27292, usa",27292
1775,-79.4028639,36.1602349,"burlington, nc 27217, usa",27217
1776,-79.1774268,35.7524399,"pittsboro, nc 27312, usa",27312
1777,-77.9053182,35.6733387,"wilson, nc 27893, usa",27893
1778,-81.8005724,35.5273075,"bostic, nc 28018, usa",28018
1779,-83.7836403,35.2092378,"andrews, nc 28901, usa",28901
1780,-80.5660657,35.69709,"salisbury, nc 28147, usa",28147
1781,-79.4253776,35.40687,"carthage, nc 28327, usa",28327
1782,-77.4013403,36.1360073,"scotland neck, nc 27874, usa",27874
1783,-82.6159271,35.5692059,"asheville, nc 28806, usa",28806
1784,-83.7199136,35.0964003,"hayesville, nc 28904, usa",28904
1785,-78.8269385,36.0323222,"durham, nc 27704, usa",27704
1786,-78.4865602,35.7847649,"knightdale, nc 27545, usa",27545
1787,-83.2291862,35.0480788,"highlands, nc 28741, usa",28741
1788,-82.4861053,35.6046911,"asheville, nc 28805, usa",28805
1789,-79.0871005,36.0887108,"hillsborough, nc 27278, usa",27278
1790,-81.1526976,35.2528422,"gastonia, nc 28054, usa",28054
1791,-80.2098219,35.3213858,"albemarle, nc 28001, usa",28001
1792,-80.2432839,36.1568627,"winston-salem, nc 27105, usa",27105
1793,-78.7816219,35.7698044,"cary, nc 27511, usa",27511
1794,-81.4937993,35.7231549,"connelly springs, nc 28612, usa",28612
1795,-82.5510469,35.6304783,"asheville, nc 28804, usa",28804
1796,-79.7624177,36.0196499,"greensboro, nc 27406, usa",27406
1797,-80.3435908,36.3262595,"king, nc 27021, usa",27021
1798,-79.9304633,35.9154211,"high point, nc 27263, usa",27263
1799,-81.2408689,35.2156681,"gastonia, nc 28052, usa",28052
1800,-78.8948741,36.1031244,"durham, nc 27712, usa",27712
1801,-82.116955,35.2105521,"columbus, nc 28722, usa",28722
1802,-79.7624177,36.0196499,"greensboro, nc 27406, usa",27406
1803,-82.7778579,35.2190534,"brevard, nc 28712, usa",28712
1804,-82.366887,35.3902982,"hendersonville, nc 28792, usa",28792
1805,-81.9971108,35.3445288,"rutherfordton, nc 28139, usa",28139
1806,-76.964306,35.1642895,"new bern, nc 28560, usa",28560
1807,-80.6548882,36.0929378,"yadkinville, nc 27055, usa",27055
1808,-80.823938,35.1928527,"charlotte, nc 28207, usa",28207
1809,-77.8710285,34.2253022,"wilmington, nc 28403, usa",28403
1810,-80.9539475,35.1290557,"charlotte, nc 28273, usa",28273
1811,-78.3387066,35.0457992,"clinton, nc 28328, usa",28328
1812,-80.7491563,35.195314,"charlotte, nc 28212, usa",28212
1813,-79.8856824,36.127028,"greensboro, nc 27410, usa",27410
1814,-83.2720082,35.5749683,"cherokee, nc 28719, usa",28719
1815,-82.5726805,35.4576471,"arden, nc 28704, usa",28704
1816,-78.52065,35.2369644,"dunn, nc 28334, usa",28334
1817,-80.3324514,36.1426113,"winston-salem, nc 27106, usa",27106
1818,-78.8722341,35.0637521,"fayetteville, nc 28301, usa",28301
1819,-80.7990185,35.1173473,"charlotte, nc 28226, usa",28226
1820,-81.5596427,36.0092311,"lenoir, nc 28645, usa",28645
1821,-82.7778579,35.2190534,"brevard, nc 28712, usa",28712
1822,-76.8490328,34.9135647,"havelock, nc 28532, usa",28532
1823,-80.7325287,35.3301529,"charlotte, nc 28262, usa",28262
1824,-77.4013403,35.4487211,"ayden, nc 28513, usa",28513
1825,-76.8490328,34.7834102,"newport, nc 28570, usa",28570
1826,-78.8722341,35.0637521,"fayetteville, nc 28301, usa",28301
1827,-82.3777335,35.2927999,"flat rock, nc 28731, usa",28731
1828,-81.1526976,35.2528422,"gastonia, nc 28054, usa",28054
1829,-80.8599193,35.1274285,"charlotte, nc 28210, usa",28210
1830,-79.4379412,36.0955555,"burlington, nc 27215, usa",27215
1831,-78.6455475,35.8861371,"raleigh, nc 27615, usa",27615
1832,-78.8000278,35.5843376,"fuquay varina, nc 27526, usa",27526
1833,-78.9853813,36.025609,"durham, nc 27705, usa",27705
1834,-80.5993854,35.1019648,"indian trail, nc 28079, usa",28079
1835,-80.5660657,35.69709,"salisbury, nc 28147, usa",28147
1836,-78.0423683,33.9899994,"southport, nc 28461, usa",28461
1837,-78.8948741,34.9788116,"fayetteville, nc 28306, usa",28306
1838,-79.8632834,36.0175027,"greensboro, nc 27407, usa",27407
1839,-77.9,34.13,"wilmington, nc 28408, usa",28408
1840,-78.9175088,35.7178049,"apex, nc 27502, usa",27502
1841,-79.4366324,35.1146143,"aberdeen, nc 28315, usa",28315
1842,-77.5160788,35.9125437,"tarboro, nc 27886, usa",27886
1843,-80.8765205,35.8509953,"statesville, nc 28625, usa",28625
1844,-77.3209555,35.5371999,"greenville, nc 27858, usa",27858
1845,-78.5774408,35.8150476,"raleigh, nc 27604, usa",27604
1846,-77.9664279,35.9747446,"nashville, nc 27856, usa",27856
1847,-80.6437906,35.3015269,"harrisburg, nc 28075, usa",28075
1848,-81.2188355,35.7358579,"conover, nc 28613, usa",28613
1849,-79.4591378,35.2035849,"pinehurst, nc 28374, usa",28374
1850,-78.5433701,35.3907897,"benson, nc 27504, usa",27504
1851,-80.0758425,35.8736458,"thomasville, nc 27360, usa",27360
1852,-76.3810922,34.8667378,"sealevel, nc 28577, usa",28577
1853,-82.4536115,35.4393566,"fletcher, nc 28732, usa",28732
1854,-79.6277523,35.7059958,"ramseur, nc 27316, usa",27316
1855,-80.6548882,35.4002721,"concord, nc 28027, usa",28027
1856,-81.4937993,35.7231549,"connelly springs, nc 28612, usa",28612
1857,-80.0199562,36.0737937,"colfax, nc 27235, usa",27235
1858,-78.5547283,35.8774409,"raleigh, nc 27616, usa",27616
1859,-79.6951103,36.3790421,"reidsville, nc 27320, usa",27320
1860,-80.4647192,35.6627691,"salisbury, nc 28145, usa",28145
1861,-79.1548533,35.555945,"sanford, nc 27330, usa",27330
1862,-79.0419053,35.8263369,"chapel hill, nc 27517, usa",27517
1863,-79.1548533,35.555945,"sanford, nc 27330, usa",27330
1864,-79.9248669,35.9957936,"jamestown, nc 27282, usa",27282
1865,-77.9852853,34.3023653,"wilmington, nc 28401, usa",28401
1866,-78.6795836,35.6631125,"raleigh, nc 27603, usa",27603
1867,-79.1774268,35.7524399,"pittsboro, nc 27312, usa",27312
1868,-80.8765205,35.4172882,"huntersville, nc 28078, usa",28078
1869,-78.9853813,36.025609,"durham, nc 27705, usa",27705
1870,-80.4326521,35.9459285,"advance, nc 27006, usa",27006
1871,-80.7103532,35.2413572,"charlotte, nc 28215, usa",28215
1872,-79.4379412,36.0955555,"burlington, nc 27215, usa",27215
1873,-78.6455475,35.8861371,"raleigh, nc 27615, usa",27615
1874,-79.8632834,36.0175027,"greensboro, nc 27407, usa",27407
1875,-79.6838874,36.1097128,"mcleansville, nc 27301, usa",27301
1876,-78.1792434,34.0033581,"bolivia, nc 28422, usa",28422
1877,-80.7436141,34.9274555,"waxhaw, nc 28173, usa",28173
1878,-78.9853813,36.025609,"durham, nc 27705, usa",27705
1879,-79.9248669,35.9957936,"jamestown, nc 27282, usa",27282
1880,-79.0532061,35.0585989,"fayetteville, nc 28314, usa",28314
1881,-77.9167457,34.1421988,"wilmington, nc 28412, usa",28412
1882,-78.6965972,35.8533273,"raleigh, nc 27612, usa",27612
1883,-82.5437614,35.5671423,"asheville, nc 28803, usa",28803
1884,-77.9167457,34.1421988,"wilmington, nc 28412, usa",28412
1885,-82.3234843,35.6922407,"black mountain, nc 28711, usa",28711
1886,-80.3324514,36.0564654,"winston-salem, nc 27103, usa",27103
1887,-77.6307018,35.2134024,"kinston, nc 28504, usa",28504
1888,-78.8000278,35.5843376,"fuquay varina, nc 27526, usa",27526
1889,-80.6548882,35.1825962,"charlotte, nc 28227, usa",28227
1890,-80.8211696,35.0535496,"charlotte, nc 28277, usa",28277
1891,-80.8599193,35.1274285,"charlotte, nc 28210, usa",28210
1892,-80.3769999,35.9953936,"clemmons, nc 27012, usa",27012
1893,-80.5216184,35.0849752,"monroe, nc 28110, usa",28110
1894,-82.3234843,35.6922407,"black mountain, nc 28711, usa",28711
1895,-77.99,35.38,"goldsboro, nc 27533, usa",27533
1896,-82.269193,34.8920374,"greer, sc 29650, usa",29650
1897,-79.9416549,34.6884611,"cheraw, sc 29520, usa",29520
1898,-81.0036821,34.0291227,"columbia, sc 29204, usa",29204
1899,-79.8520818,34.1980902,"florence, sc 29501, usa",29501
1900,-81.5596427,34.702163,"union, sc 29379, usa",29379
1901,-81.0036821,34.0291227,"columbia, sc 29204, usa",29204
1902,-81.7130522,33.5857518,"aiken, sc 29801, usa",29801
1903,-79.4253776,34.1838269,"marion, sc 29571, usa",29571
1904,-82.7994194,34.583875,"anderson, sc 29625, usa",29625
1905,-80.7657804,34.7321261,"lancaster, sc 29720, usa",29720
1906,-82.5834947,34.8787343,"easley, sc 29640, usa",29640
1907,-81.9425701,34.9803527,"spartanburg, sc 29303, usa",29303
1908,-81.8442934,34.9190189,"spartanburg, sc 29302, usa",29302
1909,-82.0625052,35.0648849,"inman, sc 29349, usa",29349
1910,-81.647344,34.2679755,"newberry, sc 29108, usa",29108
1911,-82.3777335,34.9208336,"greenville, sc 29609, usa",29609
1912,-82.6159271,34.4296214,"anderson, sc 29624, usa",29624
1913,-79.3352899,33.3809044,"georgetown, sc 29440, usa",29440
1914,-82.6267345,34.5294947,"anderson, sc 29621, usa",29621
1915,-80.6770787,32.8656408,"walterboro, sc 29488, usa",29488
1916,-82.0625052,34.4940877,"laurens, sc 29360, usa",29360
1917,-80.8322428,33.479032,"orangeburg, sc 29115, usa",29115
1918,-82.4319405,34.1422125,"abbeville, sc 29620, usa",29620
1919,-82.3343375,34.8083898,"greenville, sc 29607, usa",29607
1920,-81.2078164,34.7649635,"chester, sc 29706, usa",29706
1921,-81.5596427,34.965225,"gaffney, sc 29340, usa",29340
1922,-82.1496049,34.1465789,"greenwood, sc 29646, usa",29646
1923,-79.8968798,34.2898095,"darlington, sc 29532, usa",29532
1924,-80.6728456,32.4336621,"beaufort, sc 29901, usa",29901
1925,-81.0036821,34.0291227,"columbia, sc 29204, usa",29204
1926,-78.8099472,33.7600115,"myrtle beach, sc 29572, usa",29572
1927,-81.8442934,34.4796903,"clinton, sc 29325, usa",29325
1928,-81.0533854,34.1156043,"columbia, sc 29203, usa",29203
1929,-82.9394002,34.7571338,"seneca, sc 29672, usa",29672
1930,-81.647344,34.2679755,"newberry, sc 29108, usa",29108
1931,-82.1496049,34.1465789,"greenwood, sc 29646, usa",29646
1932,-80.610489,34.3028622,"camden, sc 29020, usa",29020
1933,-81.734942,34.0972043,"saluda, sc 29138, usa",29138
1934,-79.9752212,32.8669545,"north charleston, sc 29405, usa",29405
1935,-82.713132,34.9304671,"pickens, sc 29671, usa",29671
1936,-80.8322428,33.479032,"orangeburg, sc 29115, usa",29115
1937,-78.8835548,34.0476395,"loris, sc 29569, usa",29569
1938,-81.0533854,34.9944873,"rock hill, sc 29732, usa",29732
1939,-81.229853,35.0074096,"york, sc 29745, usa",29745
1940,-82.394,34.8505552,"greenville, sc 29601, usa",29601
1941,-81.9021301,34.9378859,"spartanburg, sc 29305, usa",29305
1942,-79.2563916,34.2899029,"fork, sc 29543, usa",29543
1943,-81.5596427,34.965225,"gaffney, sc 29340, usa",29340
1944,-81.9425701,34.9803527,"spartanburg, sc 29303, usa",29303
1945,-81.3839326,33.184635,"barnwell, sc 29812, usa",29812
1946,-81.275111,34.1442239,"white rock, sc 29177, usa",29177
1947,-82.4536115,34.8268335,"greenville, sc 29611, usa",29611
1948,-81.1857736,33.0144406,"fairfax, sc 29827, usa",29827
1949,-81.0312989,33.2488329,"bamberg, sc 29003, usa",29003
1950,-81.0865035,33.9964889,"west columbia, sc 29169, usa",29169
1951,-82.4536115,34.8268335,"greenville, sc 29611, usa",29611
1952,-80.3547286,33.852666,"sumter, sc 29150, usa",29150
1953,-80.3547286,33.852666,"sumter, sc 29150, usa",29150
1954,-79.8520818,32.8234848,"mt pleasant, sc 29464, usa",29464
1955,-80.0699999,34.37,"hartsville, sc 29551, usa",29551
1956,-82.2365981,34.7692466,"simpsonville, sc 29681, usa",29681
1957,-79.3578201,34.4195274,"dillon, sc 29536, usa",29536
1958,-80.2098219,33.6530499,"manning, sc 29102, usa",29102
1959,-79.8520818,34.1980902,"florence, sc 29501, usa",29501
1960,-80.8322428,33.479032,"orangeburg, sc 29115, usa",29115
1961,-79.7624177,33.6608948,"kingstree, sc 29556, usa",29556
1962,-79.7175517,34.6258655,"bennettsville, sc 29512, usa",29512
1963,-79.6838874,34.1289479,"florence, sc 29505, usa",29505
1964,-79.1548533,33.8075978,"conway, sc 29527, usa",29527
1965,-82.0625052,35.0648849,"inman, sc 29349, usa",29349
1966,-81.0533854,34.9944873,"rock hill, sc 29732, usa",29732
1967,-80.0702555,32.9136394,"north charleston, sc 29418, usa",29418
1968,-81.1085744,34.0644032,"columbia, sc 29210, usa",29210
1969,-80.8322428,33.479032,"orangeburg, sc 29115, usa",29115
1970,-80.9428911,32.4370233,"ridgeland, sc 29936, usa",29936
1971,-82.1931149,34.8542647,"greer, sc 29651, usa",29651
1972,-82.9286428,34.6354859,"seneca, sc 29678, usa",29678
1973,-79.9864071,33.146521,"moncks corner, sc 29461, usa",29461
1974,-81.5596427,34.702163,"union, sc 29379, usa",29379
1975,-80.5660657,33.147446,"st george, sc 29477, usa",29477
1976,-81.7130522,33.5857518,"aiken, sc 29801, usa",29801
1977,-79.8520818,32.8234848,"mt pleasant, sc 29464, usa",29464
1978,-80.7325287,32.2306364,"hilton head island, sc 29926, usa",29926
1979,-79.7736306,33.938097,"scranton, sc 29591, usa",29591
1980,-80.754698,32.164761,"hilton head island, sc 29928, usa",29928
1981,-79.8520818,34.1980902,"florence, sc 29501, usa",29501
1982,-80.7738907,34.7258263,"lancaster, sc 29721, usa",29721
1983,-80.1986649,32.9517248,"summerville, sc 29485, usa",29485
1984,-79.6277523,34.2232129,"florence, sc 29506, usa",29506
1985,-80.8765205,34.3230497,"ridgeway, sc 29130, usa",29130
1986,-81.0533854,34.9944873,"rock hill, sc 29732, usa",29732
1987,-82.3343375,34.8742328,"greenville, sc 29615, usa",29615
1988,-79.8520818,34.1980902,"florence, sc 29501, usa",29501
1989,-81.0533854,34.9944873,"rock hill, sc 29732, usa",29732
1990,-82.1931149,34.6785692,"fountain inn, sc 29644, usa",29644
1991,-80.610489,34.3028622,"camden, sc 29020, usa",29020
1992,-80.7657804,33.6738638,"st matthews, sc 29135, usa",29135
1993,-82.2800546,33.9334188,"mccormick, sc 29835, usa",29835
1994,-82.1496049,34.1465789,"greenwood, sc 29646, usa",29646
1995,-78.9740725,33.87967,"conway, sc 29526, usa",29526
1996,-80.2321313,34.2511322,"bishopville, sc 29010, usa",29010
1997,-81.9425701,34.9803527,"spartanburg, sc 29303, usa",29303
1998,-79.8968798,34.2898095,"darlington, sc 29532, usa",29532
1999,-82.0189155,34.7551482,"woodruff, sc 29388, usa",29388
2000,-80.9207737,34.1058378,"columbia, sc 29223, usa",29223
2001,-80.8765205,34.3230497,"ridgeway, sc 29130, usa",29130
2002,-80.0367259,32.9221152,"charleston, sc 29406, usa",29406
2003,-81.8442934,34.9190189,"spartanburg, sc 29302, usa",29302
2004,-81.0533854,34.9944873,"rock hill, sc 29732, usa",29732
2005,-81.9971108,33.8488059,"edgefield, sc 29824, usa",29824
2006,-82.4536115,34.8268335,"greenville, sc 29611, usa",29611
2007,-79.3352899,33.3809044,"georgetown, sc 29440, usa",29440
2008,-81.9425701,33.523077,"north augusta, sc 29841, usa",29841
2009,-81.4498717,33.3898196,"williston, sc 29853, usa",29853
2010,-82.5402275,34.7882567,"easley, sc 29642, usa",29642
2011,-80.3435908,33.530575,"summerton, sc 29148, usa",29148
2012,-82.6267345,34.5294947,"anderson, sc 29621, usa",29621
2013,-79.9416549,34.6884611,"cheraw, sc 29520, usa",29520
2014,-82.0625052,35.0648849,"inman, sc 29349, usa",29349
2015,-82.3343375,34.8083898,"greenville, sc 29607, usa",29607
2016,-82.8532928,34.8400132,"six mile, sc 29682, usa",29682
2017,-82.4969331,35.1363485,"marietta, sc 29661, usa",29661
2018,-81.721042,33.5660738,"aiken, sc 29802, usa",29802
2019,-79.7175517,33.8340422,"lake city, sc 29560, usa",29560
2020,-80.4215246,33.8800135,"sumter, sc 29154, usa",29154
2021,-81.7568253,33.4551831,"aiken, sc 29803, usa",29803
2022,-79.2676668,34.1920258,"mullins, sc 29574, usa",29574
2023,-82.4536115,34.7389669,"piedmont, sc 29673, usa",29673
2024,-81.229853,32.7490635,"estill, sc 29918, usa",29918
2025,-82.0625052,35.0648849,"inman, sc 29349, usa",29349
2026,-82.669947,34.2672535,"iva, sc 29655, usa",29655
2027,-82.713132,34.9304671,"pickens, sc 29671, usa",29671
2028,-81.295925,33.3568204,"blackville, sc 29817, usa",29817
2029,-81.9425701,33.523077,"north augusta, sc 29841, usa",29841
2030,-81.2739073,33.9989114,"lexington, sc 29072, usa",29072
2031,-82.269193,34.8920374,"greer, sc 29650, usa",29650
2032,-79.0306032,33.6750835,"myrtle beach, sc 29588, usa",29588
2033,-79.0532061,33.566559,"murrells inlet, sc 29576, usa",29576
2034,-80.7325287,32.2306364,"hilton head island, sc 29926, usa",29926
2035,-80.1986649,32.9517248,"summerville, sc 29485, usa",29485
2036,-80.0367259,32.9221152,"charleston, sc 29406, usa",29406
2037,-81.0865035,33.9964889,"west columbia, sc 29169, usa",29169
2038,-82.0625052,34.4940877,"laurens, sc 29360, usa",29360
2039,-80.9207737,34.1058378,"columbia, sc 29223, usa",29223
2040,-81.0533854,34.1156043,"columbia, sc 29203, usa",29203
2041,-79.8968798,33.3615964,"st stephen, sc 29479, usa",29479
2042,-80.3547286,33.852666,"sumter, sc 29150, usa",29150
2043,-80.754698,32.164761,"hilton head island, sc 29928, usa",29928
2044,-80.9207737,34.1058378,"columbia, sc 29223, usa",29223
2045,-80.7657804,34.7321261,"lancaster, sc 29720, usa",29720
2046,-82.3343375,34.8083898,"greenville, sc 29607, usa",29607
2047,-81.0533854,34.1156043,"columbia, sc 29203, usa",29203
2048,-82.3343375,34.8083898,"greenville, sc 29607, usa",29607
2049,-79.9975916,32.8017595,"charleston, sc 29407, usa",29407
2050,-80.0311364,32.7038689,"johns island, sc 29455, usa",29455
2051,-81.8442934,34.4796903,"clinton, sc 29325, usa",29325
2052,-80.8433145,33.9343427,"hopkins, sc 29061, usa",29061
2053,-79.8968798,34.2898095,"darlington, sc 29532, usa",29532
2054,-82.3343375,34.8742328,"greenville, sc 29615, usa",29615
2055,-79.8520818,32.8234848,"mt pleasant, sc 29464, usa",29464
2056,-81.0533854,34.9944873,"rock hill, sc 29732, usa",29732
2057,-82.0625052,35.0648849,"inman, sc 29349, usa",29349
2058,-81.0865035,33.9964889,"west columbia, sc 29169, usa",29169
2059,-79.1435645,33.4638918,"pawleys island, sc 29585, usa",29585
2060,-80.0870155,32.8312481,"charleston, sc 29414, usa",29414
2061,-78.8948741,33.7070405,"myrtle beach, sc 29577, usa",29577
2062,-82.3777335,34.7671945,"greenville, sc 29605, usa",29605
2063,-81.9425701,34.9803527,"spartanburg, sc 29303, usa",29303
2064,-80.9207737,34.1058378,"columbia, sc 29223, usa",29223
2065,-80.6770787,32.8656408,"walterboro, sc 29488, usa",29488
2066,-81.0533854,34.1156043,"columbia, sc 29203, usa",29203
2067,-82.1496049,34.1465789,"greenwood, sc 29646, usa",29646
2068,-80.2098219,33.0752648,"summerville, sc 29483, usa",29483
2069,-81.8333656,34.9730414,"spartanburg, sc 29307, usa",29307
2070,-79.1548533,33.8075978,"conway, sc 29527, usa",29527
2071,-82.3343375,34.8083898,"greenville, sc 29607, usa",29607
2072,-81.8442934,34.4796903,"clinton, sc 29325, usa",29325
2073,-82.4644445,34.9262491,"greenville, sc 29617, usa",29617
2074,-78.9175088,33.7532424,"myrtle beach, sc 29579, usa",29579
2075,-81.229853,33.9072571,"lexington, sc 29073, usa",29073
2076,-80.8875861,32.3319107,"okatie, sc 29909, usa",29909
2077,-82.6267345,34.5294947,"anderson, sc 29621, usa",29621
2078,-80.8875861,34.1585479,"columbia, sc 29229, usa",29229
2079,-81.0865035,33.9964889,"west columbia, sc 29169, usa",29169
2080,-80.3547286,33.852666,"sumter, sc 29150, usa",29150
2081,-82.5402275,34.7882567,"easley, sc 29642, usa",29642
2082,-79.8520818,32.8234848,"mt pleasant, sc 29464, usa",29464
2083,-79.8520818,32.8234848,"mt pleasant, sc 29464, usa",29464
2084,-86.761749,35.5005999,"lewisburg, tn 37091, usa",37091
2085,-87.4207518,36.1051605,"dickson, tn 37055, usa",37055
2086,-85.2955242,35.0496723,"chattanooga, tn 37403, usa",37403
2087,-85.2774207,35.0297403,"chattanooga, tn 37404, usa",37404
2088,-83.9108968,35.7830899,"maryville, tn 37804, usa",37804
2089,-82.3234843,36.3412594,"johnson city, tn 37601, usa",37601
2090,-87.0224442,35.6603272,"columbia, tn 38401, usa",38401
2091,-86.8922723,36.2337188,"nashville, tn 37218, usa",37218
2092,-88.7686382,35.9307074,"milan, tn 38358, usa",38358
2093,-83.4856913,36.4534498,"tazewell, tn 37879, usa",37879
2094,-86.7114545,36.2722491,"madison, tn 37115, usa",37115
2095,-85.7256372,35.6214097,"mcminnville, tn 37110, usa",37110
2096,-82.4536115,36.0905748,"erwin, tn 37650, usa",37650
2097,-86.8621827,36.5250666,"springfield, tn 37172, usa",37172
2098,-86.761749,35.5005999,"lewisburg, tn 37091, usa",37091
2099,-83.9161935,36.0059438,"knoxville, tn 37917, usa",37917
2100,-84.6269824,35.424641,"athens, tn 37303, usa",37303
2101,-87.0224442,35.2223186,"pulaski, tn 38478, usa",38478
2102,-84.0326033,35.9467011,"knoxville, tn 37909, usa",37909
2103,-83.9281092,35.9536716,"knoxville, tn 37916, usa",37916
2104,-86.317392,35.8807375,"murfreesboro, tn 37130, usa",37130
2105,-87.0224442,35.6603272,"columbia, tn 38401, usa",38401
2106,-85.5406209,36.2452673,"cookeville, tn 38501, usa",38501
2107,-85.1583064,35.041539,"chattanooga, tn 37421, usa",37421
2108,-86.7366082,36.1482458,"nashville, tn 37210, usa",37210
2109,-84.0061661,35.9073934,"knoxville, tn 37919, usa",37919
2110,-84.0378894,36.3960347,"lafollette, tn 37766, usa",37766
2111,-85.80766,35.9728357,"smithville, tn 37166, usa",37166
2112,-87.5000082,35.3208843,"lawrenceburg, tn 38464, usa",38464
2113,-89.9346659,35.0938483,"memphis, tn 38111, usa",38111
2114,-89.3606298,35.2571148,"somerville, tn 38068, usa",38068
2115,-85.3438554,35.1225431,"signal mountain, tn 37377, usa",37377
2116,-86.438974,36.4051691,"gallatin, tn 37066, usa",37066
2117,-85.4169211,35.4133959,"dunlap, tn 37327, usa",37327
2118,-86.9624086,35.8987234,"franklin, tn 37064, usa",37064
2119,-84.27,36.01,"oak ridge, tn 37831, usa",37831
2120,-83.6561215,35.769927,"sevierville, tn 37862, usa",37862
2121,-85.3962769,35.9577959,"sparta, tn 38583, usa",38583
2122,-83.9003022,36.0539129,"knoxville, tn 37918, usa",37918
2123,-83.6561215,35.769927,"sevierville, tn 37862, usa",37862
2124,-89.9346659,35.0938483,"memphis, tn 38111, usa",38111
2125,-84.1646163,36.0995654,"clinton, tn 37716, usa",37716
2126,-85.4169211,36.1972824,"cookeville, tn 38506, usa",38506
2127,-86.8621827,36.5250666,"springfield, tn 37172, usa",37172
2128,-89.1134166,36.411512,"union city, tn 38261, usa",38261
2129,-90.004663,35.1323787,"memphis, tn 38104, usa",38104
2130,-89.84582,35.0772572,"memphis, tn 38119, usa",38119
2131,-84.8359395,35.2148165,"cleveland, tn 37312, usa",37312
2132,-84.7106567,35.8643916,"rockwood, tn 37854, usa",37854
2133,-86.1141045,35.1747032,"winchester, tn 37398, usa",37398
2134,-86.9624086,35.8987234,"franklin, tn 37064, usa",37064
2135,-86.6711817,36.1410253,"nashville, tn 37214, usa",37214
2136,-89.84582,35.0772572,"memphis, tn 38119, usa",38119
2137,-90.004663,35.1323787,"memphis, tn 38104, usa",38104
2138,-86.2767995,36.2703799,"lebanon, tn 37087, usa",37087
2139,-87.8942451,36.4612118,"dover, tn 37058, usa",37058
2140,-83.6986568,36.4217678,"new tazewell, tn 37825, usa",37825
2141,-86.9624086,35.8987234,"franklin, tn 37064, usa",37064
2142,-86.7315785,36.0775432,"nashville, tn 37211, usa",37211
2143,-86.5299673,35.9632133,"smyrna, tn 37167, usa",37167
2144,-82.3234843,36.3412594,"johnson city, tn 37601, usa",37601
2145,-89.9346659,35.0938483,"memphis, tn 38111, usa",38111
2146,-86.8722146,36.1030036,"nashville, tn 37205, usa",37205
2147,-84.9609464,35.9186133,"crossville, tn 38555, usa",38555
2148,-86.6706077,36.0592679,"antioch, tn 37013, usa",37013
2149,-86.4592091,35.3826611,"shelbyville, tn 37160, usa",37160
2150,-85.9917437,36.2611931,"carthage, tn 37030, usa",37030
2151,-86.5400674,35.1216698,"fayetteville, tn 37334, usa",37334
2152,-82.5834947,36.5298904,"kingsport, tn 37660, usa",37660
2153,-87.5000082,35.3208843,"lawrenceburg, tn 38464, usa",38464
2154,-83.9955879,35.6567552,"maryville, tn 37803, usa",37803
2155,-86.438974,36.4051691,"gallatin, tn 37066, usa",37066
2156,-87.4901086,36.4209819,"palmyra, tn 37142, usa",37142
2157,-88.8455037,35.5821649,"jackson, tn 38301, usa",38301
2158,-89.8598619,35.0497486,"memphis, tn 38115, usa",38115
2159,-82.1060683,36.5421738,"bristol, tn 37620, usa",37620
2160,-86.6006249,36.3233083,"hendersonville, tn 37075, usa",37075
2161,-89.84582,35.0772572,"memphis, tn 38119, usa",38119
2162,-86.8722146,36.1030036,"nashville, tn 37205, usa",37205
2163,-85.1583064,35.041539,"chattanooga, tn 37421, usa",37421
2164,-82.5834947,36.5298904,"kingsport, tn 37660, usa",37660
2165,-84.8776392,35.6974597,"spring city, tn 37381, usa",37381
2166,-88.4210006,35.970208,"huntingdon, tn 38344, usa",38344
2167,-81.8005724,36.4785538,"mountain city, tn 37683, usa",37683
2168,-83.3254958,36.2396396,"morristown, tn 37814, usa",37814
2169,-85.7256372,35.6214097,"mcminnville, tn 37110, usa",37110
2170,-82.1496049,36.373015,"elizabethton, tn 37643, usa",37643
2171,-89.7661527,35.1376546,"cordova, tn 38018, usa",38018
2172,-89.84582,35.2422203,"memphis, tn 38135, usa",38135
2173,-89.7989767,35.2091855,"memphis, tn 38133, usa",38133
2174,-86.1141045,35.1747032,"winchester, tn 37398, usa",37398
2175,-84.5012435,35.9419218,"harriman, tn 37748, usa",37748
2176,-88.285042,36.2942119,"paris, tn 38242, usa",38242
2177,-90.004663,35.1323787,"memphis, tn 38104, usa",38104
2178,-82.8640623,36.0941226,"greeneville, tn 37743, usa",37743
2179,-88.9988098,35.2327023,"bolivar, tn 38008, usa",38008
2180,-90.0093266,35.0278019,"memphis, tn 38116, usa",38116
2181,-86.4592091,35.3826611,"shelbyville, tn 37160, usa",37160
2182,-86.317392,35.8807375,"murfreesboro, tn 37130, usa",37130
2183,-87.0224442,35.6603272,"columbia, tn 38401, usa",38401
2184,-82.723924,36.5277991,"church hill, tn 37642, usa",37642
2185,-86.1955169,35.352762,"tullahoma, tn 37388, usa",37388
2186,-84.5431867,36.1173847,"wartburg, tn 37887, usa",37887
2187,-85.4169211,35.1503998,"chattanooga, tn 37405, usa",37405
2188,-89.8692203,35.1927931,"memphis, tn 38134, usa",38134
2189,-82.366887,36.5591854,"blountville, tn 37617, usa",37617
2190,-84.9297206,35.0981107,"cleveland, tn 37311, usa",37311
2191,-83.9955879,35.6567552,"maryville, tn 37803, usa",37803
2192,-83.4430118,36.1055775,"jefferson city, tn 37760, usa",37760
2193,-88.8455037,36.3659215,"martin, tn 38237, usa",38237
2194,-87.8353278,36.0916081,"waverly, tn 37185, usa",37185
2195,-87.658113,35.7616479,"centerville, tn 37033, usa",37033
2196,-84.3331694,35.7166607,"loudon, tn 37774, usa",37774
2197,-84.564147,36.5289692,"oneida, tn 37841, usa",37841
2198,-86.1344697,36.4173503,"hartsville, tn 37074, usa",37074
2199,-84.0854432,35.9276062,"knoxville, tn 37923, usa",37923
2200,-84.1540659,36.2181198,"rocky top, tn 37769, usa",37769
2201,-84.2805478,35.9858908,"oak ridge, tn 37830, usa",37830
2202,-86.8922723,36.2337188,"nashville, tn 37218, usa",37218
2203,-83.5390002,36.574771,"harrogate, tn 37752, usa",37752
2204,-82.8640623,36.0941226,"greeneville, tn 37743, usa",37743
2205,-86.8320743,36.0802326,"nashville, tn 37215, usa",37215
2206,-86.2767995,36.2703799,"lebanon, tn 37087, usa",37087
2207,-86.4490926,35.9173416,"murfreesboro, tn 37129, usa",37129
2208,-85.6640365,36.3363704,"gainesboro, tn 38562, usa",38562
2209,-86.7969244,36.1390165,"nashville, tn 37212, usa",37212
2210,-88.1291387,36.0313101,"camden, tn 38320, usa",38320
2211,-83.4430118,36.1055775,"jefferson city, tn 37760, usa",37760
2212,-84.0378894,36.3960347,"lafollette, tn 37766, usa",37766
2213,-84.5012435,35.3315048,"etowah, tn 37331, usa",37331
2214,-84.7942091,35.519359,"decatur, tn 37322, usa",37322
2215,-86.357952,35.2700506,"lynchburg, tn 37352, usa",37352
2216,-87.5000082,35.3208843,"lawrenceburg, tn 38464, usa",38464
2217,-86.8320743,36.2754942,"whites creek, tn 37189, usa",37189
2218,-89.7989767,35.2091855,"memphis, tn 38133, usa",38133
2219,-83.8260884,36.2557129,"maynardville, tn 37807, usa",37807
2220,-89.4931176,36.4137178,"tiptonville, tn 38079, usa",38079
2221,-84.1224036,35.6194254,"maryville, tn 37801, usa",37801
2222,-84.4172666,36.2847442,"huntsville, tn 37756, usa",37756
2223,-82.4536115,36.0905748,"erwin, tn 37650, usa",37650
2224,-84.1276818,36.5783062,"jellico, tn 37762, usa",37762
2225,-89.7661527,35.1376546,"cordova, tn 38018, usa",38018
2226,-85.0490498,35.0500092,"collegedale, tn 37315, usa",37315
2227,-82.4861053,36.5345348,"kingsport, tn 37664, usa",37664
2228,-85.2256635,34.9947441,"chattanooga, tn 37412, usa",37412
2229,-83.9161935,36.0059438,"knoxville, tn 37917, usa",37917
2230,-84.59,35.44,"athens, tn 37371, usa",37371
2231,-83.528342,36.2399811,"rutledge, tn 37861, usa",37861
2232,-82.1496049,36.373015,"elizabethton, tn 37643, usa",37643
2233,-84.0061661,36.232437,"andersonville, tn 37705, usa",37705
2234,-84.9609464,35.9186133,"crossville, tn 38555, usa",38555
2235,-86.4592091,36.6001526,"portland, tn 37148, usa",37148
2236,-89.0561532,35.9550819,"trenton, tn 38382, usa",38382
2237,-84.3814742,35.0359126,"ducktown, tn 37326, usa",37326
2238,-83.3254958,36.2396396,"morristown, tn 37814, usa",37814
2239,-87.0824045,36.2926757,"ashland city, tn 37015, usa",37015
2240,-87.0824045,36.2926757,"ashland city, tn 37015, usa",37015
2241,-86.1141045,35.1747032,"winchester, tn 37398, usa",37398
2242,-86.5400674,35.1216698,"fayetteville, tn 37334, usa",37334
2243,-86.8421125,35.0199108,"ardmore, tn 38449, usa",38449
2244,-84.4617373,35.6013333,"sweetwater, tn 37874, usa",37874
2245,-88.314212,36.0449186,"bruceton, tn 38317, usa",38317
2246,-89.5308903,36.1970612,"ridgely, tn 38080, usa",38080
2247,-83.9281092,35.9536716,"knoxville, tn 37916, usa",37916
2248,-85.8281458,36.5582244,"red boiling springs, tn 37150, usa",37150
2249,-89.6464548,35.5642424,"covington, tn 38019, usa",38019
2250,-90.0093266,35.0278019,"memphis, tn 38116, usa",38116
2251,-88.4210006,35.6648364,"lexington, tn 38351, usa",38351
2252,-89.436391,36.0445248,"dyersburg, tn 38024, usa",38024
2253,-88.9222277,35.8449956,"humboldt, tn 38343, usa",38343
2254,-86.2158497,36.5926967,"westmoreland, tn 37186, usa",37186
2255,-85.7461548,35.0745123,"south pittsburg, tn 37380, usa",37380
2256,-83.7942551,35.9834366,"knoxville, tn 37914, usa",37914
2257,-88.7686382,35.9307074,"milan, tn 38358, usa",38358
2258,-82.8640623,36.0941226,"greeneville, tn 37743, usa",37743
2259,-88.9988098,35.2327023,"bolivar, tn 38008, usa",38008
2260,-89.5120084,35.7833682,"ripley, tn 38063, usa",38063
2261,-82.5834947,36.5298904,"kingsport, tn 37660, usa",37660
2262,-82.3234843,36.3412594,"johnson city, tn 37601, usa",37601
2263,-88.5371958,36.1021887,"mckenzie, tn 38201, usa",38201
2264,-82.3560389,36.2894696,"johnson city, tn 37604, usa",37604
2265,-82.9716617,36.4242854,"rogersville, tn 37857, usa",37857
2266,-83.9161935,36.0059438,"knoxville, tn 37917, usa",37917
2267,-84.8984775,36.4574375,"jamestown, tn 38556, usa",38556
2268,-85.2101269,36.1458622,"monterey, tn 38574, usa",38574
2269,-88.9222277,35.8449956,"humboldt, tn 38343, usa",38343
2270,-88.6916315,36.3210077,"dresden, tn 38225, usa",38225
2271,-84.5012435,35.9419218,"harriman, tn 37748, usa",37748
2272,-84.8359395,35.2148165,"cleveland, tn 37312, usa",37312
2273,-88.1291387,35.1564908,"savannah, tn 38372, usa",38372
2274,-86.317392,35.8807375,"murfreesboro, tn 37130, usa",37130
2275,-87.2419299,35.5124907,"mt pleasant, tn 38474, usa",38474
2276,-87.6383797,36.3049051,"erin, tn 37061, usa",37061
2277,-86.8320743,36.0802326,"nashville, tn 37215, usa",37215
2278,-85.2101269,35.14242,"hixson, tn 37343, usa",37343
2279,-89.1134166,36.411512,"union city, tn 38261, usa",38261
2280,-83.5603112,35.7974425,"pigeon forge, tn 37863, usa",37863
2281,-86.0733498,35.5239664,"manchester, tn 37355, usa",37355
2282,-90.1401381,35.0277217,"memphis, tn 38109, usa",38109
2283,-85.4169211,35.7191585,"spencer, tn 38585, usa",38585
2284,-85.1686743,36.5765064,"byrdstown, tn 38549, usa",38549
2285,-86.0733498,35.5239664,"manchester, tn 37355, usa",37355
2286,-86.4490926,35.9173416,"murfreesboro, tn 37129, usa",37129
2287,-85.8179039,35.241675,"monteagle, tn 37356, usa",37356
2288,-82.1060683,36.1977194,"roan mountain, tn 37687, usa",37687
2289,-88.4210006,35.2705031,"adamsville, tn 38310, usa",38310
2290,-87.0224442,35.6603272,"columbia, tn 38401, usa",38401
2291,-88.7301525,35.6684779,"jackson, tn 38305, usa",38305
2292,-87.2419299,36.5128173,"clarksville, tn 37043, usa",37043
2293,-83.9108968,35.7830899,"maryville, tn 37804, usa",37804
2294,-86.317392,35.7936065,"murfreesboro, tn 37127, usa",37127
2295,-85.1686743,35.3161809,"soddy-daisy, tn 37379, usa",37379
2296,-86.8069698,36.1718363,"nashville, tn 37208, usa",37208
2297,-85.9917437,36.5638216,"lafayette, tn 37083, usa",37083
2298,-89.7661527,35.1376546,"cordova, tn 38018, usa",38018
2299,-88.7301525,35.6684779,"jackson, tn 38305, usa",38305
2300,-88.8455037,35.5821649,"jackson, tn 38301, usa",38301
2301,-84.0907246,35.8681377,"knoxville, tn 37922, usa",37922
2302,-85.3342973,36.3672283,"livingston, tn 38570, usa",38570
2303,-85.2955242,35.0496723,"chattanooga, tn 37403, usa",37403
2304,-85.3962769,35.9577959,"sparta, tn 38583, usa",38583
2305,-84.5012435,35.3315048,"etowah, tn 37331, usa",37331
2306,-88.8455037,36.3659215,"martin, tn 38237, usa",38237
2307,-82.4536115,36.0905748,"erwin, tn 37650, usa",37650
2308,-89.9626799,35.3466196,"millington, tn 38053, usa",38053
2309,-89.901957,35.1103341,"memphis, tn 38117, usa",38117
2310,-85.5406209,36.2452673,"cookeville, tn 38501, usa",38501
2311,-90.0233208,35.1653736,"memphis, tn 38107, usa",38107
2312,-88.5371958,36.1021887,"mckenzie, tn 38201, usa",38201
2313,-87.5791287,35.4978126,"hohenwald, tn 38462, usa",38462
2314,-88.4210006,35.6648364,"lexington, tn 38351, usa",38351
2315,-87.2419299,36.5128173,"clarksville, tn 37043, usa",37043
2316,-88.7686382,35.9307074,"milan, tn 38358, usa",38358
2317,-86.0529604,35.8070317,"woodbury, tn 37190, usa",37190
2318,-90.0186555,35.2368232,"memphis, tn 38127, usa",38127
2319,-88.6916315,36.3210077,"dresden, tn 38225, usa",38225
2320,-86.4794359,36.1897975,"mt juliet, tn 37122, usa",37122
2321,-89.619279,35.3254521,"gallaway, tn 38036, usa",38036
2322,-88.9222277,35.8449956,"humboldt, tn 38343, usa",38343
2323,-89.2847251,35.6074339,"brownsville, tn 38012, usa",38012
2324,-87.0224442,35.2223186,"pulaski, tn 38478, usa",38478
2325,-88.1291387,35.1564908,"savannah, tn 38372, usa",38372
2326,-85.4788065,36.5670872,"celina, tn 38551, usa",38551
2327,-89.436391,36.0445248,"dyersburg, tn 38024, usa",38024
2328,-88.8455037,35.5821649,"jackson, tn 38301, usa",38301
2329,-87.2419299,36.5128173,"clarksville, tn 37043, usa",37043
2330,-88.1096118,35.5291444,"decaturville, tn 38329, usa",38329
2331,-88.1096118,35.7040634,"parsons, tn 38363, usa",38363
2332,-88.5758574,35.140547,"selmer, tn 38375, usa",38375
2333,-88.8455037,35.5821649,"jackson, tn 38301, usa",38301
2334,-88.9222277,35.8449956,"humboldt, tn 38343, usa",38343
2335,-87.3612205,36.4722803,"clarksville, tn 37040, usa",37040
2336,-84.4617373,35.6013333,"sweetwater, tn 37874, usa",37874
2337,-84.3331694,35.4986139,"madisonville, tn 37354, usa",37354
2338,-82.4969331,36.3091869,"jonesborough, tn 37659, usa",37659
2339,-83.2077645,36.5456022,"sneedville, tn 37869, usa",37869
2340,-86.7215175,36.3699666,"goodlettsville, tn 37072, usa",37072
2341,-89.6464548,35.5642424,"covington, tn 38019, usa",38019
2342,-88.285042,36.2942119,"paris, tn 38242, usa",38242
2343,-89.1134166,35.6718949,"bells, tn 38006, usa",38006
2344,-82.1496049,36.373015,"elizabethton, tn 37643, usa",37643
2345,-87.0224442,35.6603272,"columbia, tn 38401, usa",38401
2346,-89.1515476,35.8031972,"alamo, tn 38001, usa",38001
2347,-89.0370477,36.0637442,"dyer, tn 38330, usa",38330
2348,-82.1496049,36.373015,"elizabethton, tn 37643, usa",37643
2349,-88.3433623,36.4466301,"puryear, tn 38251, usa",38251
2350,-88.6916315,35.4053803,"henderson, tn 38340, usa",38340
2351,-83.9955879,35.6567552,"maryville, tn 37803, usa",37803
2352,-83.357567,36.0142499,"dandridge, tn 37725, usa",37725
2353,-82.1496049,36.373015,"elizabethton, tn 37643, usa",37643
2354,-86.7718017,35.9046545,"franklin, tn 37067, usa",37067
2355,-83.8685072,35.9113041,"knoxville, tn 37920, usa",37920
2356,-87.4207518,36.1051605,"dickson, tn 37055, usa",37055
2357,-82.6267345,36.101366,"chuckey, tn 37641, usa",37641
2358,-82.4536115,36.3926398,"johnson city, tn 37615, usa",37615
2359,-86.8621827,36.5250666,"springfield, tn 37172, usa",37172
2360,-82.5834947,36.5298904,"kingsport, tn 37660, usa",37660
2361,-89.8036636,35.0937076,"germantown, tn 38138, usa",38138
2362,-82.3234843,36.3412594,"johnson city, tn 37601, usa",37601
2363,-84.1329595,35.9787718,"knoxville, tn 37931, usa",37931
2364,-89.9346659,35.0277847,"memphis, tn 38118, usa",38118
2365,-86.7658331,36.396526,"ridgetop, tn 37152, usa",37152
2366,-82.3560389,36.2894696,"johnson city, tn 37604, usa",37604
2367,-86.761749,35.9805462,"brentwood, tn 37027, usa",37027
2368,-87.8353278,36.0916081,"waverly, tn 37185, usa",37185
2369,-89.8692203,35.1927931,"memphis, tn 38134, usa",38134
2370,-86.5905371,36.1604644,"hermitage, tn 37076, usa",37076
2371,-89.5120084,35.7833682,"ripley, tn 38063, usa",38063
2372,-89.9673469,35.1763676,"memphis, tn 38108, usa",38108
2373,-85.0441304,35.4861708,"dayton, tn 37321, usa",37321
2374,-86.7114545,36.2722491,"madison, tn 37115, usa",37115
2375,-83.9161935,36.0059438,"knoxville, tn 37917, usa",37917
2376,-84.0061661,35.9073934,"knoxville, tn 37919, usa",37919
2377,-89.1134166,36.411512,"union city, tn 38261, usa",38261
2378,-86.6711817,36.1410253,"nashville, tn 37214, usa",37214
2379,-86.2767995,36.2703799,"lebanon, tn 37087, usa",37087
2380,-86.5299673,35.9632133,"smyrna, tn 37167, usa",37167
2381,-86.6706077,36.0592679,"antioch, tn 37013, usa",37013
2382,-82.5834947,36.5298904,"kingsport, tn 37660, usa",37660
2383,-82.5834947,36.5298904,"kingsport, tn 37660, usa",37660
2384,-86.1955169,35.352762,"tullahoma, tn 37388, usa",37388
2385,-87.658113,35.7616479,"centerville, tn 37033, usa",37033
2386,-86.2767995,36.2703799,"lebanon, tn 37087, usa",37087
2387,-83.9161935,36.0059438,"knoxville, tn 37917, usa",37917
2388,-89.436391,36.0445248,"dyersburg, tn 38024, usa",38024
2389,-82.5834947,36.5298904,"kingsport, tn 37660, usa",37660
2390,-83.9161935,36.0059438,"knoxville, tn 37917, usa",37917
2391,-88.1291387,35.1564908,"savannah, tn 38372, usa",38372
2392,-89.1134166,36.411512,"union city, tn 38261, usa",38261
2393,-88.1291387,35.1564908,"savannah, tn 38372, usa",38372
2394,-89.436391,36.0445248,"dyersburg, tn 38024, usa",38024
2395,-82.5834947,36.5298904,"kingsport, tn 37660, usa",37660
2396,-89.8036636,35.0937076,"germantown, tn 38138, usa",38138
2397,-85.0441304,35.4861708,"dayton, tn 37321, usa",37321
2398,-89.6439924,35.0603204,"collierville, tn 38017, usa",38017
2399,-86.9624086,36.0727326,"nashville, tn 37221, usa",37221
2400,-89.436391,36.0445248,"dyersburg, tn 38024, usa",38024
2401,-89.8036636,35.0937076,"germantown, tn 38138, usa",38138
2402,-86.2767995,36.2703799,"lebanon, tn 37087, usa",37087
2403,-84.0061661,35.9073934,"knoxville, tn 37919, usa",37919
2404,-86.5299673,35.9632133,"smyrna, tn 37167, usa",37167
2405,-87.8942451,35.5912275,"linden, tn 37096, usa",37096
2406,-83.1863358,35.9613014,"newport, tn 37821, usa",37821
2407,-84.8880593,36.0132789,"crossville, tn 38558, usa",38558
2408,-86.6706077,36.0592679,"antioch, tn 37013, usa",37013
2409,-89.1134166,36.411512,"union city, tn 38261, usa",38261
2410,-86.6258353,36.2427836,"old hickory, tn 37138, usa",37138
2411,-85.1984715,35.9812942,"pleasant hill, tn 38578, usa",38578
2412,-85.0856761,35.0935409,"ooltewah, tn 37363, usa",37363
2413,-86.7893889,36.1523805,"nashville, tn 37203, usa",37203
2414,-86.6913222,36.4880627,"white house, tn 37188, usa",37188
2415,-82.6267345,36.2309829,"limestone, tn 37681, usa",37681
2416,-86.1955169,35.352762,"tullahoma, tn 37388, usa",37388
2417,-86.7114545,36.2722491,"madison, tn 37115, usa",37115
2418,-82.5834947,36.5298904,"kingsport, tn 37660, usa",37660
2419,-87.7369607,35.3255332,"waynesboro, tn 38485, usa",38485
2420,-86.6711817,36.1410253,"nashville, tn 37214, usa",37214
2421,-83.1863358,35.9613014,"newport, tn 37821, usa",37821
2422,-88.1291387,35.1564908,"savannah, tn 38372, usa",38372
2423,-88.1291387,35.1564908,"savannah, tn 38372, usa",38372
2424,-87.658113,35.7616479,"centerville, tn 37033, usa",37033
2425,-85.0441304,35.4861708,"dayton, tn 37321, usa",37321
2426,-85.2308414,35.6028856,"pikeville, tn 37367, usa",37367
2427,-83.9161935,36.0059438,"knoxville, tn 37917, usa",37917
2428,-84.3331694,35.8906718,"lenoir city, tn 37771, usa",37771
2429,-88.1291387,35.1564908,"savannah, tn 38372, usa",38372
